{
"type": "FeatureCollection",
"name": "area_protegida",
"crs": { "type": "name", "properties": { "name": "urn:ogc:def:crs:OGC:1.3:CRS84" } },
"features": [
{"type":"Feature","properties":{"capa_cad":"ACAD-TOP-BASE PRESA POROTOG-Model|TOP-AREA PROTEGIDA CAYAMBE COCA","color":"#000000"},"geometry":{"type":"MultiLineString","coordinates":[[[-78.139412313760275,-0.14634116516347],[-78.139412314789823,-0.146350335228778],[-78.138582685502499,-0.146545293361185],[-78.139412313760275,-0.14634116516347]],[[-78.139412314789823,-0.146350335228778],[-78.138582685502499,-0.146545293361185],[-78.138584963705313,-0.146554463161198],[-78.139412314789823,-0.146350335228778]],[[-78.138582685502499,-0.146545293361185],[-78.138584963705313,-0.146554463161198],[-78.137825928808581,-0.146762403877523],[-78.138582685502499,-0.146545293361185]],[[-78.138584963705313,-0.146554463161198],[-78.137825928808581,-0.146762403877523],[-78.137828965980333,-0.146770809414868],[-78.138584963705313,-0.146554463161198]],[[-78.137825928808581,-0.146762403877523],[-78.137828965980333,-0.146770809414868],[-78.137017570725533,-0.147105608051071],[-78.137825928808581,-0.146762403877523]],[[-78.137828965980333,-0.146770809414868],[-78.137017570725533,-0.147105608051071],[-78.137020607892367,-0.147114013583454],[-78.137828965980333,-0.146770809414868]],[[-78.137017570725533,-0.147105608051071],[-78.137020607892367,-0.147114013583454],[-78.135268032818644,-0.1478982493044],[-78.137017570725533,-0.147105608051071]],[[-78.137020607892367,-0.147114013583454],[-78.135268032818644,-0.1478982493044],[-78.135271829030742,-0.147906654741031],[-78.137020607892367,-0.147114013583454]],[[-78.135268032818644,-0.1478982493044],[-78.135271829030742,-0.147906654741031],[-78.134455132595463,-0.148339265918437],[-78.135268032818644,-0.1478982493044]],[[-78.135271829030742,-0.147906654741031],[-78.134455132595463,-0.148339265918437],[-78.134474108988627,-0.14833926379662],[-78.135271829030742,-0.147906654741031]]]}},
{"type":"Feature","properties":{"capa_cad":"ACAD-TOP-BASE PRESA POROTOG-Model|TOP-AREA PROTEGIDA CAYAMBE COCA","color":"#000000"},"geometry":{"type":"MultiLineString","coordinates":[[[-78.139411671002478,-0.140737491081594],[-78.139411672882019,-0.140753538695925],[-78.138809841197656,-0.141625530054895],[-78.139411671002478,-0.140737491081594]],[[-78.139411672882019,-0.140753538695925],[-78.138809841197656,-0.141625530054895],[-78.138819709134708,-0.141627057234837],[-78.139411672882019,-0.140753538695925]],[[-78.138809841197656,-0.141625530054895],[-78.138819709134708,-0.141627057234837],[-78.139153074437388,-0.142823711195777],[-78.138809841197656,-0.141625530054895]],[[-78.138819709134708,-0.141627057234837],[-78.139153074437388,-0.142823711195777],[-78.139162182788994,-0.142820653443471],[-78.138819709134708,-0.141627057234837]],[[-78.139153074437388,-0.142823711195777],[-78.139162182788994,-0.142820653443471],[-78.139412008179434,-0.143647458478295],[-78.139153074437388,-0.142823711195777]],[[-78.139162182788994,-0.142820653443471],[-78.139412008179434,-0.143647458478295],[-78.139412004763386,-0.143617655766023],[-78.139162182788994,-0.142820653443471]]]}}
]
}
