{
"type": "FeatureCollection",
"name": "bancos_superficie",
"crs": { "type": "name", "properties": { "name": "urn:ogc:def:crs:OGC:1.3:CRS84" } },
"features": [
{"type":"Feature","properties":{"nombre":"BANCO DE MATERIALES 1","area_ha":17.268,"nota":"superficie estimada por envolvente del sombreado"},"geometry":{"type":"Polygon","coordinates":[[[-78.135710971426079,-0.144773509954293],[-78.136778191132308,-0.144648827425885],[-78.137561524299343,-0.144524941519694],[-78.137657151477953,-0.144401134800551],[-78.136980991967405,-0.139246882880548],[-78.136822302687094,-0.13885564667277],[-78.136813191555035,-0.138835015168192],[-78.136794969290094,-0.138793752160034],[-78.136785099100223,-0.138773120747793],[-78.134422972401396,-0.139247189493167],[-78.134857536772017,-0.14253994191978],[-78.135531061011534,-0.144649735182984],[-78.135710971426079,-0.144773509954293]]]}},
{"type":"Feature","properties":{"nombre":"BANCO DE MATERIALES 2","area_ha":8.4,"nota":"superficie estimada por envolvente del sombreado"},"geometry":{"type":"Polygon","coordinates":[[[-78.13592379992879,-0.147378540245307],[-78.136118108674239,-0.147290638801862],[-78.136503690011821,-0.147114836162773],[-78.137390982808569,-0.146709725392731],[-78.137616411399108,-0.146606536759538],[-78.137832729615184,-0.146488065696775],[-78.138033104380781,-0.146340557894412],[-78.138232720016106,-0.146192285953425],[-78.138364776125641,-0.146014218975803],[-78.138392074252806,-0.145765860146805],[-78.138269838461369,-0.145522867622258],[-78.138203026579859,-0.145392201975918],[-78.138073199721092,-0.145145389545941],[-78.137997278075346,-0.145005554936313],[-78.137869729984374,-0.144773261582036],[-78.137786976094205,-0.144627314440503],[-78.137560765241687,-0.144524941607205],[-78.137134174914507,-0.144524990791518],[-78.136992231193403,-0.14452500715532],[-78.135924252250177,-0.144649689920891],[-78.135476432978379,-0.14486141641604],[-78.135009745752441,-0.146033705537516],[-78.134982445468893,-0.146262959389299],[-78.135540448901466,-0.147131756700662],[-78.135670269249886,-0.147326605289813],[-78.13592379992879,-0.147378540245307]]]}},
{"type":"Feature","properties":{"nombre":"BANCO DE MATERIALES 3","area_ha":14.794,"nota":"superficie estimada por envolvente del sombreado"},"geometry":{"type":"Polygon","coordinates":[[[-78.133978939226907,-0.145954349366332],[-78.13433946623698,-0.145738048557705],[-78.134371344161792,-0.145716648195995],[-78.134446455087172,-0.145401037916621],[-78.134456317720407,-0.145355950829696],[-78.134510940187383,-0.145094598839691],[-78.134519281843239,-0.145024294350464],[-78.134526829170625,-0.144642973234005],[-78.134534375588501,-0.144254774592867],[-78.134535128377692,-0.144199754349156],[-78.134485002563181,-0.143952933610498],[-78.133928416328658,-0.142223684810723],[-78.133031066716157,-0.140959856334793],[-78.132424547156717,-0.140658846076093],[-78.13234636458624,-0.140658855339057],[-78.131937994738479,-0.14066883789019],[-78.13134760582065,-0.142000086211436],[-78.131328634523257,-0.142043645937187],[-78.131293751876811,-0.142336325859108],[-78.131292238795467,-0.142379883535991],[-78.131293782180947,-0.142599199188742],[-78.131384943832117,-0.143254079433141],[-78.13140925323593,-0.143426014126825],[-78.131422167550184,-0.143516948472251],[-78.13151403713556,-0.143727847863041],[-78.132063731164919,-0.144951215895263],[-78.132217076679055,-0.145097918426945],[-78.132438741824458,-0.145286642387336],[-78.132888902966286,-0.145657976401108],[-78.132992142651204,-0.145731324730532],[-78.133327665654448,-0.145916215128271],[-78.133399776386099,-0.145920791923693],[-78.133858248664367,-0.145947485595865],[-78.133978939226907,-0.145954349366332]]]}}
]
}
