{
"type": "FeatureCollection",
"name": "control_gnss",
"crs": { "type": "name", "properties": { "name": "urn:ogc:def:crs:OGC:1.3:CRS84" } },
"features": [
{"type":"Feature","properties":{"capa_cad":"ACAD-TOP-BASE PRESA POROTOG-Model|TOP-GPS","color":"#000000"},"geometry":{"type":"MultiLineString","coordinates":[[[-78.137240708624958,-0.140257085353762],[-78.137258930218508,-0.140292999206455],[-78.137222495467554,-0.140293003542549],[-78.137240708624958,-0.140257085353762]]]}},
{"type":"Feature","properties":{"capa_cad":"ACAD-TOP-BASE PRESA POROTOG-Model|TOP-GPS","color":"#000000"},"geometry":{"type":"MultiLineString","coordinates":[[[-78.137239951542142,-0.140273897198503],[-78.137241469656772,-0.140273897017813],[-78.137241469656772,-0.140273897017813],[-78.137239951542142,-0.140273897198503],[-78.137239951542142,-0.140273897198503]]]}},
{"type":"Feature","properties":{"capa_cad":"ACAD-TOP-BASE PRESA POROTOG-Model|TOP-GPS","color":"#000000"},"geometry":{"type":"MultiLineString","coordinates":[[[-78.137239951542142,-0.140273897198503],[-78.137241469656772,-0.140273897017813],[-78.137239192484827,-0.140273897288855],[-78.137239951542142,-0.140273897198503]],[[-78.137241469656772,-0.140273897017813],[-78.137239192484827,-0.140273897288855],[-78.137242228714072,-0.140273896927461],[-78.137241469656772,-0.140273897017813],[-78.137241469656772,-0.140273897017813]]]}},
{"type":"Feature","properties":{"capa_cad":"ACAD-TOP-BASE PRESA POROTOG-Model|TOP-GPS","color":"#000000"},"geometry":{"type":"MultiLineString","coordinates":[[[-78.137239192484827,-0.140273897288855],[-78.137242228714072,-0.140273896927461],[-78.137238433517268,-0.140274661549858],[-78.137239192484827,-0.140273897288855]],[[-78.137242228714072,-0.140273896927461],[-78.137238433517268,-0.140274661549858],[-78.137242987861129,-0.140274661007761],[-78.137242228714072,-0.140273896927461],[-78.137242228714072,-0.140273896927461]]]}},
{"type":"Feature","properties":{"capa_cad":"ACAD-TOP-BASE PRESA POROTOG-Model|TOP-GPS","color":"#000000"},"geometry":{"type":"MultiLineString","coordinates":[[[-78.137238433517268,-0.140274661549858],[-78.137242987861129,-0.140274661007761],[-78.137237674459953,-0.140274661640194],[-78.137238433517268,-0.140274661549858]],[[-78.137242987861129,-0.140274661007761],[-78.137237674459953,-0.140274661640194],[-78.137243746918443,-0.140274660917425],[-78.137242987861129,-0.140274661007761],[-78.137242987861129,-0.140274661007761]]]}},
{"type":"Feature","properties":{"capa_cad":"ACAD-TOP-BASE PRESA POROTOG-Model|TOP-GPS","color":"#000000"},"geometry":{"type":"MultiLineString","coordinates":[[[-78.137237674459953,-0.140274661640194],[-78.137243746918443,-0.140274660917425],[-78.137236915402639,-0.140274661730546],[-78.137237674459953,-0.140274661640194]],[[-78.137243746918443,-0.140274660917425],[-78.137236915402639,-0.140274661730546],[-78.137244505975758,-0.140274660827072],[-78.137243746918443,-0.140274660917425],[-78.137243746918443,-0.140274660917425]]]}},
{"type":"Feature","properties":{"capa_cad":"ACAD-TOP-BASE PRESA POROTOG-Model|TOP-GPS","color":"#000000"},"geometry":{"type":"MultiLineString","coordinates":[[[-78.137236915402639,-0.140274661730546],[-78.137244505975758,-0.140274660827072],[-78.13723615643508,-0.140275425991547],[-78.137236915402639,-0.140274661730546]],[[-78.137244505975758,-0.140274660827072],[-78.13723615643508,-0.140275425991547],[-78.137245265122814,-0.140275424907375],[-78.137244505975758,-0.140274660827072],[-78.137244505975758,-0.140274660827072]]]}},
{"type":"Feature","properties":{"capa_cad":"ACAD-TOP-BASE PRESA POROTOG-Model|TOP-GPS","color":"#000000"},"geometry":{"type":"MultiLineString","coordinates":[[[-78.13723615643508,-0.140275425991547],[-78.137245265122814,-0.140275424907375],[-78.137235397467521,-0.140276190252547],[-78.13723615643508,-0.140275425991547]],[[-78.137245265122814,-0.140275424907375],[-78.137235397467521,-0.140276190252547],[-78.137246024269871,-0.140276188987695],[-78.137245265122814,-0.140275424907375]],[[-78.137235397467521,-0.140276190252547],[-78.137246024269871,-0.140276188987695],[-78.137235397467521,-0.140276190252547],[-78.137235397467521,-0.140276190252547]],[[-78.137246024269871,-0.140276188987695],[-78.137235397467521,-0.140276190252547],[-78.137235397467521,-0.140276190252547],[-78.137246024269871,-0.140276188987695],[-78.137246024269871,-0.140276188987695]]]}},
{"type":"Feature","properties":{"capa_cad":"ACAD-TOP-BASE PRESA POROTOG-Model|TOP-GPS","color":"#000000"},"geometry":{"type":"MultiLineString","coordinates":[[[-78.137235397467521,-0.140276190252547],[-78.137246024269871,-0.140276188987695],[-78.137234638499962,-0.140276954513546],[-78.137235397467521,-0.140276190252547]],[[-78.137246024269871,-0.140276188987695],[-78.137234638499962,-0.140276954513546],[-78.137246783416927,-0.140276953067999],[-78.137246024269871,-0.140276188987695],[-78.137246024269871,-0.140276188987695]]]}},
{"type":"Feature","properties":{"capa_cad":"ACAD-TOP-BASE PRESA POROTOG-Model|TOP-GPS","color":"#000000"},"geometry":{"type":"MultiLineString","coordinates":[[[-78.137234638499962,-0.140276954513546],[-78.137246783416927,-0.140276953067999],[-78.137233879532388,-0.140277718774544],[-78.137234638499962,-0.140276954513546]],[[-78.137246783416927,-0.140276953067999],[-78.137233879532388,-0.140277718774544],[-78.137247542563983,-0.140277717148321],[-78.137246783416927,-0.140276953067999],[-78.137246783416927,-0.140276953067999]]]}},
{"type":"Feature","properties":{"capa_cad":"ACAD-TOP-BASE PRESA POROTOG-Model|TOP-GPS","color":"#000000"},"geometry":{"type":"MultiLineString","coordinates":[[[-78.137233879532388,-0.140277718774544],[-78.137247542563983,-0.140277717148321],[-78.13723387962213,-0.140278482945191],[-78.137233879532388,-0.140277718774544]],[[-78.137247542563983,-0.140277717148321],[-78.13723387962213,-0.140278482945191],[-78.137247542653725,-0.140278481318977],[-78.137247542563983,-0.140277717148321],[-78.137247542563983,-0.140277717148321]]]}},
{"type":"Feature","properties":{"capa_cad":"ACAD-TOP-BASE PRESA POROTOG-Model|TOP-GPS","color":"#000000"},"geometry":{"type":"MultiLineString","coordinates":[[[-78.137233120564815,-0.140278483035541],[-78.137233120564815,-0.140278483035541],[-78.137247542653725,-0.140278481318977],[-78.137233120564815,-0.140278483035541]],[[-78.137233120564815,-0.140278483035541],[-78.137247542653725,-0.140278481318977],[-78.13723387962213,-0.140278482945191],[-78.137233120564815,-0.140278483035541],[-78.137233120564815,-0.140278483035541]]]}},
{"type":"Feature","properties":{"capa_cad":"ACAD-TOP-BASE PRESA POROTOG-Model|TOP-GPS","color":"#000000"},"geometry":{"type":"MultiLineString","coordinates":[[[-78.137233120564815,-0.140278483035541],[-78.137247542653725,-0.140278481318977],[-78.137233120654557,-0.140279247206187],[-78.137233120564815,-0.140278483035541]],[[-78.137247542653725,-0.140278481318977],[-78.137233120654557,-0.140279247206187],[-78.137248301800781,-0.140279245399284],[-78.137247542653725,-0.140278481318977],[-78.137247542653725,-0.140278481318977]]]}},
{"type":"Feature","properties":{"capa_cad":"ACAD-TOP-BASE PRESA POROTOG-Model|TOP-GPS","color":"#000000"},"geometry":{"type":"MultiLineString","coordinates":[[[-78.137233120654557,-0.140279247206187],[-78.137248301800781,-0.140279245399284],[-78.137233120744298,-0.140280011376834],[-78.137233120654557,-0.140279247206187]],[[-78.137248301800781,-0.140279245399284],[-78.137233120744298,-0.140280011376834],[-78.137248301890523,-0.140280009569941],[-78.137248301800781,-0.140279245399284],[-78.137248301800781,-0.140279245399284]]]}},
{"type":"Feature","properties":{"capa_cad":"ACAD-TOP-BASE PRESA POROTOG-Model|TOP-GPS","color":"#000000"},"geometry":{"type":"MultiLineString","coordinates":[[[-78.137233120744298,-0.140280011376834],[-78.137248301890523,-0.140280009569941],[-78.13723312083404,-0.14028077554748],[-78.137233120744298,-0.140280011376834]],[[-78.137248301890523,-0.140280009569941],[-78.13723312083404,-0.14028077554748],[-78.13724830198025,-0.140280773740614],[-78.137248301890523,-0.140280009569941],[-78.137248301890523,-0.140280009569941]]]}},
{"type":"Feature","properties":{"capa_cad":"ACAD-TOP-BASE PRESA POROTOG-Model|TOP-GPS","color":"#000000"},"geometry":{"type":"MultiLineString","coordinates":[[[-78.13723312083404,-0.14028077554748],[-78.13724830198025,-0.140280773740614],[-78.137233120923767,-0.140281539718127],[-78.13723312083404,-0.14028077554748]],[[-78.13724830198025,-0.140280773740614],[-78.137233120923767,-0.140281539718127],[-78.137248302069992,-0.140281537911271],[-78.13724830198025,-0.140280773740614],[-78.13724830198025,-0.140280773740614]]]}},
{"type":"Feature","properties":{"capa_cad":"ACAD-TOP-BASE PRESA POROTOG-Model|TOP-GPS","color":"#000000"},"geometry":{"type":"MultiLineString","coordinates":[[[-78.137233120923767,-0.140281539718127],[-78.137248302069992,-0.140281537911271],[-78.137233121013509,-0.140282303888774],[-78.137233120923767,-0.140281539718127]],[[-78.137248302069992,-0.140281537911271],[-78.137233121013509,-0.140282303888774],[-78.137248302159733,-0.140282302081928],[-78.137248302069992,-0.140281537911271],[-78.137248302069992,-0.140281537911271]]]}},
{"type":"Feature","properties":{"capa_cad":"ACAD-TOP-BASE PRESA POROTOG-Model|TOP-GPS","color":"#000000"},"geometry":{"type":"MultiLineString","coordinates":[[[-78.137233121013509,-0.140282303888774],[-78.137248302159733,-0.140282302081928],[-78.137233121103264,-0.14028306805942],[-78.137233121013509,-0.140282303888774]],[[-78.137248302159733,-0.140282302081928],[-78.137233121103264,-0.14028306805942],[-78.137248302249475,-0.140283066252585],[-78.137248302159733,-0.140282302081928],[-78.137248302159733,-0.140282302081928]]]}},
{"type":"Feature","properties":{"capa_cad":"ACAD-TOP-BASE PRESA POROTOG-Model|TOP-GPS","color":"#000000"},"geometry":{"type":"MultiLineString","coordinates":[[[-78.137233121103264,-0.14028306805942],[-78.137248302249475,-0.140283066252585],[-78.137233121192992,-0.140283832230084],[-78.137233121103264,-0.14028306805942]],[[-78.137248302249475,-0.140283066252585],[-78.137233121192992,-0.140283832230084],[-78.137248302339216,-0.140283830423241],[-78.137248302249475,-0.140283066252585],[-78.137248302249475,-0.140283066252585]]]}},
{"type":"Feature","properties":{"capa_cad":"ACAD-TOP-BASE PRESA POROTOG-Model|TOP-GPS","color":"#000000"},"geometry":{"type":"MultiLineString","coordinates":[[[-78.137233121192992,-0.140283832230084],[-78.137248302339216,-0.140283830423241],[-78.137233121282733,-0.14028459640073],[-78.137233121192992,-0.140283832230084]],[[-78.137248302339216,-0.140283830423241],[-78.137233121282733,-0.14028459640073],[-78.137247543371643,-0.140284594684244],[-78.137248302339216,-0.140283830423241],[-78.137248302339216,-0.140283830423241]]]}},
{"type":"Feature","properties":{"capa_cad":"ACAD-TOP-BASE PRESA POROTOG-Model|TOP-GPS","color":"#000000"},"geometry":{"type":"MultiLineString","coordinates":[[[-78.137233121282733,-0.14028459640073],[-78.137247543371643,-0.140284594684244],[-78.137233880429775,-0.140285360481032],[-78.137233121282733,-0.14028459640073]],[[-78.137247543371643,-0.140284594684244],[-78.137233880429775,-0.140285360481032],[-78.13724754346137,-0.140285358854901],[-78.137247543371643,-0.140284594684244],[-78.137247543371643,-0.140284594684244]]]}},
{"type":"Feature","properties":{"capa_cad":"ACAD-TOP-BASE PRESA POROTOG-Model|TOP-GPS","color":"#000000"},"geometry":{"type":"MultiLineString","coordinates":[[[-78.137233880429775,-0.140285360481032],[-78.13724754346137,-0.140285358854901],[-78.137233880519503,-0.140286124651679],[-78.137233880429775,-0.140285360481032]],[[-78.13724754346137,-0.140285358854901],[-78.137233880519503,-0.140286124651679],[-78.137247543551112,-0.140286123025557],[-78.13724754346137,-0.140285358854901],[-78.13724754346137,-0.140285358854901]]]}},
{"type":"Feature","properties":{"capa_cad":"ACAD-TOP-BASE PRESA POROTOG-Model|TOP-GPS","color":"#000000"},"geometry":{"type":"MultiLineString","coordinates":[[[-78.137233880519503,-0.140286124651679],[-78.137247543551112,-0.140286123025557],[-78.137234639666545,-0.140286888731999],[-78.137233880519503,-0.140286124651679]],[[-78.137247543551112,-0.140286123025557],[-78.137234639666545,-0.140286888731999],[-78.137246784583525,-0.140286887286558],[-78.137247543551112,-0.140286123025557],[-78.137247543551112,-0.140286123025557]]]}},
{"type":"Feature","properties":{"capa_cad":"ACAD-TOP-BASE PRESA POROTOG-Model|TOP-GPS","color":"#000000"},"geometry":{"type":"MultiLineString","coordinates":[[[-78.137234639666545,-0.140286888731999],[-78.137246784583525,-0.140286887286558],[-78.13723539872386,-0.140286888641655],[-78.137234639666545,-0.140286888731999]],[[-78.137246784583525,-0.140286887286558],[-78.13723539872386,-0.140286888641655],[-78.13724602552621,-0.140286887376902],[-78.137246784583525,-0.140286887286558],[-78.137246784583525,-0.140286887286558]]]}},
{"type":"Feature","properties":{"capa_cad":"ACAD-TOP-BASE PRESA POROTOG-Model|TOP-GPS","color":"#000000"},"geometry":{"type":"MultiLineString","coordinates":[[[-78.13723539872386,-0.140286888641655],[-78.13724602552621,-0.140286887376902],[-78.137235398813587,-0.140287652812303],[-78.13723539872386,-0.140286888641655]],[[-78.13724602552621,-0.140286887376902],[-78.137235398813587,-0.140287652812303],[-78.137246025615951,-0.140287651547557],[-78.13724602552621,-0.140286887376902],[-78.13724602552621,-0.140286887376902]]]}},
{"type":"Feature","properties":{"capa_cad":"ACAD-TOP-BASE PRESA POROTOG-Model|TOP-GPS","color":"#000000"},"geometry":{"type":"MultiLineString","coordinates":[[[-78.137235398813587,-0.140287652812303],[-78.137246025615951,-0.140287651547557],[-78.137236157960629,-0.140288416892625],[-78.137235398813587,-0.140287652812303]],[[-78.137246025615951,-0.140287651547557],[-78.137236157960629,-0.140288416892625],[-78.137245266648364,-0.140288415808556],[-78.137246025615951,-0.140287651547557],[-78.137246025615951,-0.140287651547557]]]}},
{"type":"Feature","properties":{"capa_cad":"ACAD-TOP-BASE PRESA POROTOG-Model|TOP-GPS","color":"#000000"},"geometry":{"type":"MultiLineString","coordinates":[[[-78.137236157960629,-0.140288416892625],[-78.137245266648364,-0.140288415808556],[-78.137236917017944,-0.140288416802282],[-78.137236157960629,-0.140288416892625]],[[-78.137245266648364,-0.140288415808556],[-78.137236917017944,-0.140288416802282],[-78.137244507591049,-0.1402884158989],[-78.137245266648364,-0.140288415808556],[-78.137245266648364,-0.140288415808556]]]}},
{"type":"Feature","properties":{"capa_cad":"ACAD-TOP-BASE PRESA POROTOG-Model|TOP-GPS","color":"#000000"},"geometry":{"type":"MultiLineString","coordinates":[[[-78.137236917017944,-0.140288416802282],[-78.137244507591049,-0.1402884158989],[-78.137237676164986,-0.140289180882588],[-78.137236917017944,-0.140288416802282]],[[-78.137244507591049,-0.1402884158989],[-78.137237676164986,-0.140289180882588],[-78.137243748623476,-0.14028918015988],[-78.137244507591049,-0.1402884158989],[-78.137244507591049,-0.1402884158989]]]}},
{"type":"Feature","properties":{"capa_cad":"ACAD-TOP-BASE PRESA POROTOG-Model|TOP-GPS","color":"#000000"},"geometry":{"type":"MultiLineString","coordinates":[[[-78.137237676164986,-0.140289180882588],[-78.137243748623476,-0.14028918015988],[-78.137238435222287,-0.140289180792262],[-78.137237676164986,-0.140289180882588]],[[-78.137243748623476,-0.14028918015988],[-78.137238435222287,-0.140289180792262],[-78.137242989566161,-0.140289180250223],[-78.137243748623476,-0.14028918015988],[-78.137243748623476,-0.14028918015988]]]}},
{"type":"Feature","properties":{"capa_cad":"ACAD-TOP-BASE PRESA POROTOG-Model|TOP-GPS","color":"#000000"},"geometry":{"type":"MultiLineString","coordinates":[[[-78.137238435222287,-0.140289180792262],[-78.137242989566161,-0.140289180250223],[-78.137239194279601,-0.14028918070192],[-78.137238435222287,-0.140289180792262]],[[-78.137242989566161,-0.140289180250223],[-78.137239194279601,-0.14028918070192],[-78.137242230508846,-0.140289180340565],[-78.137242989566161,-0.140289180250223],[-78.137242989566161,-0.140289180250223]]]}},
{"type":"Feature","properties":{"capa_cad":"ACAD-TOP-BASE PRESA POROTOG-Model|TOP-GPS","color":"#000000"},"geometry":{"type":"MultiLineString","coordinates":[[[-78.137239953426644,-0.140289944782228],[-78.137239953426644,-0.140289944782228],[-78.137241471541273,-0.14028994460156],[-78.137239953426644,-0.140289944782228]],[[-78.137239953426644,-0.140289944782228],[-78.137241471541273,-0.14028994460156],[-78.137242230508846,-0.140289180340565],[-78.137239953426644,-0.140289944782228],[-78.137239953426644,-0.140289944782228]]]}},
{"type":"Feature","properties":{"capa_cad":"ACAD-TOP-BASE PRESA POROTOG-Model|TOP-GPS","color":"#000000"},"geometry":{"type":"MultiLineString","coordinates":[[[-78.137242230508846,-0.140289180340565],[-78.137239194279601,-0.14028918070192],[-78.137239953426644,-0.140289944782228],[-78.137242230508846,-0.140289180340565],[-78.137242230508846,-0.140289180340565]]]}},
{"type":"Feature","properties":{"capa_cad":"ACAD-TOP-BASE PRESA POROTOG-Model|TOP-GPS","color":"#000000"},"geometry":{"type":"MultiLineString","coordinates":[[[-78.137233120968645,-0.14028192180345],[-78.137233162021047,-0.140281101412444],[-78.137233282702894,-0.140280304710232],[-78.137233479008444,-0.140279535730537],[-78.137233746931969,-0.140278798506979],[-78.137234082467728,-0.14027809707328],[-78.137234481609994,-0.140277435463095],[-78.137234940353011,-0.140276817710096],[-78.13723545469108,-0.14027624784797],[-78.137236020618417,-0.140275729910372],[-78.137236634129323,-0.140275267930991],[-78.137237291218042,-0.140274865943498],[-78.137237987878834,-0.140274527981565],[-78.137238720105969,-0.140274258078881],[-78.137239483893723,-0.140274060269099],[-78.137240275236351,-0.140273938585909],[-78.137241090128114,-0.140273897062982],[-78.137241905029583,-0.140273938391921],[-78.137242696400776,-0.140274059886732],[-78.13724346023497,-0.140274257514674],[-78.1372441925255,-0.140274527243043],[-78.137244889265645,-0.140274865039129],[-78.137245546448781,-0.140275266870194],[-78.137246160068173,-0.140275728703514],[-78.137246726117155,-0.140276246506382],[-78.137247240589048,-0.140276816246074],[-78.137247699477157,-0.140277433889851],[-78.137248098774805,-0.140278095405021],[-78.13724843447531,-0.140278796758845],[-78.137248702571995,-0.140279533918598],[-78.13724889905815,-0.140280302851558],[-78.137249019927097,-0.140281099525017],[-78.137249061172184,-0.140281919906252],[-78.137249020119796,-0.140282740297286],[-78.137248899437949,-0.140283536999492],[-78.137248703132386,-0.140284305979214],[-78.137248435208861,-0.140285043202764],[-78.137248099673087,-0.14028574463647],[-78.137247700530807,-0.14028640624666],[-78.137247241787762,-0.140287023999662],[-78.137246727449707,-0.140287593861807],[-78.137246161522341,-0.140288111799386],[-78.137245548011435,-0.140288573778765],[-78.137244890922702,-0.140288975766253],[-78.13724419426191,-0.140289313728179],[-78.137243462034746,-0.140289583630856],[-78.137242698247007,-0.140289781440628],[-78.137241906904379,-0.140289903123807],[-78.137241092012616,-0.140289944646723],[-78.137240277111118,-0.140289903317773],[-78.13723948573994,-0.140289781822968],[-78.13723872190576,-0.140289584194998],[-78.137237989615244,-0.140289314466621],[-78.137237292875085,-0.140288976670528],[-78.137236635691977,-0.140288574839457],[-78.137236022072585,-0.140288113006134],[-78.137235456023618,-0.140287595203265],[-78.137234941551725,-0.140287025463574],[-78.137234482663629,-0.1402864078198],[-78.137234083365996,-0.140285746304635],[-78.137233747665491,-0.140285044950834],[-78.137233479568835,-0.140284307791089],[-78.137233283082679,-0.140283538858122],[-78.137233162213718,-0.140282742184673],[-78.137233120968645,-0.14028192180345]]]}},
{"type":"Feature","properties":{"capa_cad":"ACAD-TOP-BASE PRESA POROTOG-Model|TOP-GPS","color":"#000000"},"geometry":{"type":"MultiLineString","coordinates":[[[-78.136302141499954,-0.137119514897162],[-78.136320363172345,-0.137155428670787],[-78.13628392845628,-0.137155433105898],[-78.136302141499954,-0.137119514897162]]]}},
{"type":"Feature","properties":{"capa_cad":"ACAD-TOP-BASE PRESA POROTOG-Model|TOP-GPS","color":"#000000"},"geometry":{"type":"MultiLineString","coordinates":[[[-78.136301384462925,-0.137136326730133],[-78.136302902576105,-0.137136326545302],[-78.136302902576105,-0.137136326545302],[-78.136301384462925,-0.137136326730133],[-78.136301384462925,-0.137136326730133]]]}},
{"type":"Feature","properties":{"capa_cad":"ACAD-TOP-BASE PRESA POROTOG-Model|TOP-GPS","color":"#000000"},"geometry":{"type":"MultiLineString","coordinates":[[[-78.136301384462925,-0.137136326730133],[-78.136302902576105,-0.137136326545302],[-78.136300625498137,-0.137137090992553],[-78.136301384462925,-0.137136326730133]],[[-78.136302902576105,-0.137136326545302],[-78.136300625498137,-0.137137090992553],[-78.136303661724483,-0.137137090622927],[-78.136302902576105,-0.137136326545302],[-78.136302902576105,-0.137136326545302]]]}},
{"type":"Feature","properties":{"capa_cad":"ACAD-TOP-BASE PRESA POROTOG-Model|TOP-GPS","color":"#000000"},"geometry":{"type":"MultiLineString","coordinates":[[[-78.136300625498137,-0.137137090992553],[-78.136303661724483,-0.137137090622927],[-78.136299866441547,-0.137137091084968],[-78.136300625498137,-0.137137090992553]],[[-78.136303661724483,-0.137137090622927],[-78.136299866441547,-0.137137091084968],[-78.136304420781059,-0.137137090530512],[-78.136303661724483,-0.137137090622927],[-78.136303661724483,-0.137137090622927]]]}},
{"type":"Feature","properties":{"capa_cad":"ACAD-TOP-BASE PRESA POROTOG-Model|TOP-GPS","color":"#000000"},"geometry":{"type":"MultiLineString","coordinates":[[[-78.136299866441547,-0.137137091084968],[-78.136304420781059,-0.137137090530512],[-78.136299107384971,-0.137137091177383],[-78.136299866441547,-0.137137091084968]],[[-78.136304420781059,-0.137137090530512],[-78.136299107384971,-0.137137091177383],[-78.136305179837635,-0.137137090438097],[-78.136304420781059,-0.137137090530512],[-78.136304420781059,-0.137137090530512]]]}},
{"type":"Feature","properties":{"capa_cad":"ACAD-TOP-BASE PRESA POROTOG-Model|TOP-GPS","color":"#000000"},"geometry":{"type":"MultiLineString","coordinates":[[[-78.136299107384971,-0.137137091177383],[-78.136305179837635,-0.137137090438097],[-78.136298348420183,-0.137137855439818],[-78.136299107384971,-0.137137091177383]],[[-78.136305179837635,-0.137137090438097],[-78.136298348420183,-0.137137855439818],[-78.136305938986013,-0.137137854515725],[-78.136305179837635,-0.137137090438097],[-78.136305179837635,-0.137137090438097]]]}},
{"type":"Feature","properties":{"capa_cad":"ACAD-TOP-BASE PRESA POROTOG-Model|TOP-GPS","color":"#000000"},"geometry":{"type":"MultiLineString","coordinates":[[[-78.136298348420183,-0.137137855439818],[-78.136305938986013,-0.137137854515725],[-78.136297589363608,-0.137137855532216],[-78.136298348420183,-0.137137855439818]],[[-78.136305938986013,-0.137137854515725],[-78.136297589363608,-0.137137855532216],[-78.136306698042603,-0.13713785442331],[-78.136305938986013,-0.137137854515725],[-78.136305938986013,-0.137137854515725]]]}},
{"type":"Feature","properties":{"capa_cad":"ACAD-TOP-BASE PRESA POROTOG-Model|TOP-GPS","color":"#000000"},"geometry":{"type":"MultiLineString","coordinates":[[[-78.136297589363608,-0.137137855532216],[-78.136306698042603,-0.13713785442331],[-78.136296830398805,-0.137138619794649],[-78.136297589363608,-0.137137855532216]],[[-78.136306698042603,-0.13713785442331],[-78.136296830398805,-0.137138619794649],[-78.136307457190981,-0.137138618500922],[-78.136306698042603,-0.13713785442331],[-78.136306698042603,-0.13713785442331]]]}},
{"type":"Feature","properties":{"capa_cad":"ACAD-TOP-BASE PRESA POROTOG-Model|TOP-GPS","color":"#000000"},"geometry":{"type":"MultiLineString","coordinates":[[[-78.13629607134223,-0.137138619887063],[-78.13629607134223,-0.137138619887063],[-78.136307457190981,-0.137138618500922],[-78.13629607134223,-0.137138619887063]],[[-78.13629607134223,-0.137138619887063],[-78.136307457190981,-0.137138618500922],[-78.136296830398805,-0.137138619794649],[-78.13629607134223,-0.137138619887063],[-78.13629607134223,-0.137138619887063]]]}},
{"type":"Feature","properties":{"capa_cad":"ACAD-TOP-BASE PRESA POROTOG-Model|TOP-GPS","color":"#000000"},"geometry":{"type":"MultiLineString","coordinates":[[[-78.13629607134223,-0.137138619887063],[-78.136307457190981,-0.137138618500922],[-78.136296071434018,-0.137139384057082],[-78.13629607134223,-0.137138619887063]],[[-78.136307457190981,-0.137138618500922],[-78.136296071434018,-0.137139384057082],[-78.136308216339359,-0.137139382578552],[-78.136307457190981,-0.137138618500922],[-78.136307457190981,-0.137138618500922]]]}},
{"type":"Feature","properties":{"capa_cad":"ACAD-TOP-BASE PRESA POROTOG-Model|TOP-GPS","color":"#000000"},"geometry":{"type":"MultiLineString","coordinates":[[[-78.136296071434018,-0.137139384057082],[-78.136308216339359,-0.137139382578552],[-78.13629531246923,-0.137140148319514],[-78.136296071434018,-0.137139384057082]],[[-78.136308216339359,-0.137139382578552],[-78.13629531246923,-0.137140148319514],[-78.136308975487736,-0.137140146656166],[-78.136308216339359,-0.137139382578552],[-78.136308216339359,-0.137139382578552]]]}},
{"type":"Feature","properties":{"capa_cad":"ACAD-TOP-BASE PRESA POROTOG-Model|TOP-GPS","color":"#000000"},"geometry":{"type":"MultiLineString","coordinates":[[[-78.13629531246923,-0.137140148319514],[-78.136308975487736,-0.137140146656166],[-78.136295312561018,-0.137140912489532],[-78.13629531246923,-0.137140148319514]],[[-78.136308975487736,-0.137140146656166],[-78.136295312561018,-0.137140912489532],[-78.136308975579539,-0.137140910826193],[-78.136308975487736,-0.137140146656166],[-78.136308975487736,-0.137140146656166]]]}},
{"type":"Feature","properties":{"capa_cad":"ACAD-TOP-BASE PRESA POROTOG-Model|TOP-GPS","color":"#000000"},"geometry":{"type":"MultiLineString","coordinates":[[[-78.136295312561018,-0.137140912489532],[-78.136308975579539,-0.137140910826193],[-78.13629455359623,-0.137141676751962],[-78.136295312561018,-0.137140912489532]],[[-78.136308975579539,-0.137140910826193],[-78.13629455359623,-0.137141676751962],[-78.136308975671326,-0.13714167499622],[-78.136308975579539,-0.137140910826193],[-78.136308975579539,-0.137140910826193]]]}},
{"type":"Feature","properties":{"capa_cad":"ACAD-TOP-BASE PRESA POROTOG-Model|TOP-GPS","color":"#000000"},"geometry":{"type":"MultiLineString","coordinates":[[[-78.13629455359623,-0.137141676751962],[-78.136308975671326,-0.13714167499622],[-78.136294553688003,-0.13714244092198],[-78.13629455359623,-0.137141676751962]],[[-78.136308975671326,-0.13714167499622],[-78.136294553688003,-0.13714244092198],[-78.136309734819704,-0.137142439073853],[-78.136308975671326,-0.13714167499622],[-78.136308975671326,-0.13714167499622]]]}},
{"type":"Feature","properties":{"capa_cad":"ACAD-TOP-BASE PRESA POROTOG-Model|TOP-GPS","color":"#000000"},"geometry":{"type":"MultiLineString","coordinates":[[[-78.136294553688003,-0.13714244092198],[-78.136309734819704,-0.137142439073853],[-78.136294553779805,-0.137143205091998],[-78.136294553688003,-0.13714244092198]],[[-78.136309734819704,-0.137142439073853],[-78.136294553779805,-0.137143205091998],[-78.136309734911492,-0.137143203243881],[-78.136309734819704,-0.137142439073853],[-78.136309734819704,-0.137142439073853]]]}},
{"type":"Feature","properties":{"capa_cad":"ACAD-TOP-BASE PRESA POROTOG-Model|TOP-GPS","color":"#000000"},"geometry":{"type":"MultiLineString","coordinates":[[[-78.136294553779805,-0.137143205091998],[-78.136309734911492,-0.137143203243881],[-78.136294553871593,-0.137143969262015],[-78.136294553779805,-0.137143205091998]],[[-78.136309734911492,-0.137143203243881],[-78.136294553871593,-0.137143969262015],[-78.13630973500328,-0.137143967413909],[-78.136309734911492,-0.137143203243881],[-78.136309734911492,-0.137143203243881]]]}},
{"type":"Feature","properties":{"capa_cad":"ACAD-TOP-BASE PRESA POROTOG-Model|TOP-GPS","color":"#000000"},"geometry":{"type":"MultiLineString","coordinates":[[[-78.136294553871593,-0.137143969262015],[-78.13630973500328,-0.137143967413909],[-78.136294553963381,-0.13714473343205],[-78.136294553871593,-0.137143969262015]],[[-78.13630973500328,-0.137143967413909],[-78.136294553963381,-0.13714473343205],[-78.136309735095068,-0.137144731583937],[-78.13630973500328,-0.137143967413909],[-78.13630973500328,-0.137143967413909]]]}},
{"type":"Feature","properties":{"capa_cad":"ACAD-TOP-BASE PRESA POROTOG-Model|TOP-GPS","color":"#000000"},"geometry":{"type":"MultiLineString","coordinates":[[[-78.136294553963381,-0.13714473343205],[-78.136309735095068,-0.137144731583937],[-78.136294554055155,-0.137145497602068],[-78.136294553963381,-0.13714473343205]],[[-78.136309735095068,-0.137144731583937],[-78.136294554055155,-0.137145497602068],[-78.136309735186856,-0.137145495753965],[-78.136309735095068,-0.137144731583937],[-78.136309735095068,-0.137144731583937]]]}},
{"type":"Feature","properties":{"capa_cad":"ACAD-TOP-BASE PRESA POROTOG-Model|TOP-GPS","color":"#000000"},"geometry":{"type":"MultiLineString","coordinates":[[[-78.136294554055155,-0.137145497602068],[-78.136309735186856,-0.137145495753965],[-78.136294554146943,-0.137146261772086],[-78.136294554055155,-0.137145497602068]],[[-78.136309735186856,-0.137145495753965],[-78.136294554146943,-0.137146261772086],[-78.136309735278644,-0.13714625992401],[-78.136309735186856,-0.137145495753965]],[[-78.136294554146943,-0.137146261772086],[-78.136309735278644,-0.13714625992401],[-78.136294554146943,-0.137146261772086],[-78.136294554146943,-0.137146261772086]],[[-78.136309735278644,-0.13714625992401],[-78.136294554146943,-0.137146261772086],[-78.136294554146943,-0.137146261772086],[-78.136309735278644,-0.13714625992401],[-78.136309735278644,-0.13714625992401]]]}},
{"type":"Feature","properties":{"capa_cad":"ACAD-TOP-BASE PRESA POROTOG-Model|TOP-GPS","color":"#000000"},"geometry":{"type":"MultiLineString","coordinates":[[[-78.136294554146943,-0.137146261772086],[-78.136309735278644,-0.13714625992401],[-78.136294554238731,-0.137147025942104],[-78.136294554146943,-0.137146261772086]],[[-78.136309735278644,-0.13714625992401],[-78.136294554238731,-0.137147025942104],[-78.136308976313828,-0.13714702418643],[-78.136309735278644,-0.13714625992401],[-78.136309735278644,-0.13714625992401]]]}},
{"type":"Feature","properties":{"capa_cad":"ACAD-TOP-BASE PRESA POROTOG-Model|TOP-GPS","color":"#000000"},"geometry":{"type":"MultiLineString","coordinates":[[[-78.136294554238731,-0.137147025942104],[-78.136308976313828,-0.13714702418643],[-78.136295313387095,-0.137147790019731],[-78.136294554238731,-0.137147025942104]],[[-78.136308976313828,-0.13714702418643],[-78.136295313387095,-0.137147790019731],[-78.13630897640563,-0.137147788356474],[-78.136308976313828,-0.13714702418643],[-78.136308976313828,-0.13714702418643]]]}},
{"type":"Feature","properties":{"capa_cad":"ACAD-TOP-BASE PRESA POROTOG-Model|TOP-GPS","color":"#000000"},"geometry":{"type":"MultiLineString","coordinates":[[[-78.136295313387095,-0.137147790019731],[-78.13630897640563,-0.137147788356474],[-78.136295313478882,-0.137148554189749],[-78.136295313387095,-0.137147790019731]],[[-78.13630897640563,-0.137147788356474],[-78.136295313478882,-0.137148554189749],[-78.136308976497403,-0.137148552526502],[-78.13630897640563,-0.137147788356474],[-78.13630897640563,-0.137147788356474]]]}},
{"type":"Feature","properties":{"capa_cad":"ACAD-TOP-BASE PRESA POROTOG-Model|TOP-GPS","color":"#000000"},"geometry":{"type":"MultiLineString","coordinates":[[[-78.136295313478882,-0.137148554189749],[-78.136308976497403,-0.137148552526502],[-78.136296072627246,-0.137149318267361],[-78.136295313478882,-0.137148554189749]],[[-78.136308976497403,-0.137148552526502],[-78.136296072627246,-0.137149318267361],[-78.136308217532601,-0.137149316788936],[-78.136308976497403,-0.137148552526502],[-78.136308976497403,-0.137148552526502]]]}},
{"type":"Feature","properties":{"capa_cad":"ACAD-TOP-BASE PRESA POROTOG-Model|TOP-GPS","color":"#000000"},"geometry":{"type":"MultiLineString","coordinates":[[[-78.136296072627246,-0.137149318267361],[-78.136308217532601,-0.137149316788936],[-78.136296072719034,-0.13715008243738],[-78.136296072627246,-0.137149318267361]],[[-78.136308217532601,-0.137149316788936],[-78.136296072719034,-0.13715008243738],[-78.136307458567799,-0.137150081051353],[-78.136308217532601,-0.137149316788936],[-78.136308217532601,-0.137149316788936]]]}},
{"type":"Feature","properties":{"capa_cad":"ACAD-TOP-BASE PRESA POROTOG-Model|TOP-GPS","color":"#000000"},"geometry":{"type":"MultiLineString","coordinates":[[[-78.13629683177561,-0.13715008234499],[-78.13629683177561,-0.13715008234499],[-78.136307458567799,-0.137150081051353],[-78.13629683177561,-0.13715008234499]],[[-78.13629683177561,-0.13715008234499],[-78.136307458567799,-0.137150081051353],[-78.136296072719034,-0.13715008243738],[-78.13629683177561,-0.13715008234499],[-78.13629683177561,-0.13715008234499]]]}},
{"type":"Feature","properties":{"capa_cad":"ACAD-TOP-BASE PRESA POROTOG-Model|TOP-GPS","color":"#000000"},"geometry":{"type":"MultiLineString","coordinates":[[[-78.13629683177561,-0.13715008234499],[-78.136307458567799,-0.137150081051353],[-78.136297590923974,-0.137150846422604],[-78.13629683177561,-0.13715008234499]],[[-78.136307458567799,-0.137150081051353],[-78.136297590923974,-0.137150846422604],[-78.136306699602983,-0.137150845313785],[-78.136307458567799,-0.137150081051353],[-78.136307458567799,-0.137150081051353]]]}},
{"type":"Feature","properties":{"capa_cad":"ACAD-TOP-BASE PRESA POROTOG-Model|TOP-GPS","color":"#000000"},"geometry":{"type":"MultiLineString","coordinates":[[[-78.136297590923974,-0.137150846422604],[-78.136306699602983,-0.137150845313785],[-78.136298349980564,-0.137150846330198],[-78.136297590923974,-0.137150846422604]],[[-78.136306699602983,-0.137150845313785],[-78.136298349980564,-0.137150846330198],[-78.136305940546393,-0.137150845406191],[-78.136306699602983,-0.137150845313785],[-78.136306699602983,-0.137150845313785]]]}},
{"type":"Feature","properties":{"capa_cad":"ACAD-TOP-BASE PRESA POROTOG-Model|TOP-GPS","color":"#000000"},"geometry":{"type":"MultiLineString","coordinates":[[[-78.136298349980564,-0.137150846330198],[-78.136305940546393,-0.137150845406191],[-78.136299109128927,-0.137151610407831],[-78.136298349980564,-0.137150846330198]],[[-78.136305940546393,-0.137150845406191],[-78.136299109128927,-0.137151610407831],[-78.136305181581605,-0.137151609668622],[-78.136305940546393,-0.137150845406191],[-78.136305940546393,-0.137150845406191]]]}},
{"type":"Feature","properties":{"capa_cad":"ACAD-TOP-BASE PRESA POROTOG-Model|TOP-GPS","color":"#000000"},"geometry":{"type":"MultiLineString","coordinates":[[[-78.136299109128927,-0.137151610407831],[-78.136305181581605,-0.137151609668622],[-78.136299868185503,-0.137151610315425],[-78.136299109128927,-0.137151610407831]],[[-78.136305181581605,-0.137151609668622],[-78.136299868185503,-0.137151610315425],[-78.136304422525015,-0.137151609761027],[-78.136305181581605,-0.137151609668622],[-78.136305181581605,-0.137151609668622]]]}},
{"type":"Feature","properties":{"capa_cad":"ACAD-TOP-BASE PRESA POROTOG-Model|TOP-GPS","color":"#000000"},"geometry":{"type":"MultiLineString","coordinates":[[[-78.136299868185503,-0.137151610315425],[-78.136304422525015,-0.137151609761027],[-78.136300627333867,-0.137152374393042],[-78.136299868185503,-0.137151610315425]],[[-78.136304422525015,-0.137151609761027],[-78.136300627333867,-0.137152374393042],[-78.136303663560199,-0.13715237402344],[-78.136304422525015,-0.137151609761027],[-78.136304422525015,-0.137151609761027]]]}},
{"type":"Feature","properties":{"capa_cad":"ACAD-TOP-BASE PRESA POROTOG-Model|TOP-GPS","color":"#000000"},"geometry":{"type":"MultiLineString","coordinates":[[[-78.136301386390457,-0.137152374300654],[-78.136301386390457,-0.137152374300654],[-78.136302904503623,-0.137152374115845],[-78.136301386390457,-0.137152374300654]],[[-78.136301386390457,-0.137152374300654],[-78.136302904503623,-0.137152374115845],[-78.136303663560199,-0.13715237402344],[-78.136301386390457,-0.137152374300654],[-78.136301386390457,-0.137152374300654]]]}},
{"type":"Feature","properties":{"capa_cad":"ACAD-TOP-BASE PRESA POROTOG-Model|TOP-GPS","color":"#000000"},"geometry":{"type":"MultiLineString","coordinates":[[[-78.136303663560199,-0.13715237402344],[-78.136300627333867,-0.137152374393042],[-78.136301386390457,-0.137152374300654],[-78.136303663560199,-0.13715237402344],[-78.136303663560199,-0.13715237402344]]]}},
{"type":"Feature","properties":{"capa_cad":"ACAD-TOP-BASE PRESA POROTOG-Model|TOP-GPS","color":"#000000"},"geometry":{"type":"MultiLineString","coordinates":[[[-78.136294554009268,-0.137145115517059],[-78.136294595059425,-0.137144295126599],[-78.136294715739027,-0.137143498424731],[-78.136294912042331,-0.137142729445118],[-78.136295179963611,-0.137141992221456],[-78.136295515497181,-0.137141290787422],[-78.136295914637287,-0.137140629176697],[-78.136296373378229,-0.13714001142296],[-78.136296887714252,-0.137139441559889],[-78.136297453639671,-0.13713892362118],[-78.136298067148743,-0.137138461640512],[-78.136298724235758,-0.137138059651565],[-78.136299420894986,-0.137137721688034],[-78.1363001531207,-0.137137451783565],[-78.136300916907189,-0.137137253971888],[-78.136301708248737,-0.137137132286648],[-78.136302523139591,-0.137137090761541],[-78.13630333804042,-0.137137132088216],[-78.136304129411158,-0.137137253580777],[-78.136304893245153,-0.137137451206499],[-78.136305625535698,-0.137137720932656],[-78.136306322276099,-0.137138058726572],[-78.136306979459675,-0.137138460555505],[-78.136307593079707,-0.137138922386794],[-78.136308159129541,-0.137139440187698],[-78.136308673602485,-0.137140009925508],[-78.136309132491803,-0.137140627567546],[-78.136309531790857,-0.137141289081071],[-78.136309867492912,-0.137141990433406],[-78.136310135591302,-0.137142727591825],[-78.136310332079333,-0.137143496523635],[-78.136310452950312,-0.137144293196111],[-78.136310494197559,-0.137145113576558],[-78.136310453147388,-0.137145933967013],[-78.136310332467801,-0.137146730668892],[-78.136310136164482,-0.137147499648514],[-78.136309868243188,-0.137148236872185],[-78.136309532709632,-0.137148938306243],[-78.136309133569497,-0.137149599916973],[-78.136308674828555,-0.137150217670714],[-78.136308160492518,-0.137150787533769],[-78.1363075945671,-0.137151305472478],[-78.136306981057999,-0.137151767453142],[-78.136306323970985,-0.137152169442085],[-78.136305627311742,-0.137152507405626],[-78.136304895086013,-0.13715277731007],[-78.136304131299525,-0.137152975121754],[-78.136303339957976,-0.137153096806983],[-78.136302525067109,-0.137153138332079],[-78.136301710166293,-0.137153097005376],[-78.136300918795541,-0.137152975512804],[-78.13630015496156,-0.137152777887089],[-78.136299422671016,-0.137152508160906],[-78.136298725930629,-0.137152170367],[-78.136298068747067,-0.137151768538046],[-78.136297455127036,-0.137151306706769],[-78.136296889077215,-0.137150788905864],[-78.136296374604285,-0.137150219168039],[-78.136295915714982,-0.13714960152602],[-78.136295516415942,-0.137148940012483],[-78.136295180713887,-0.137148238660155],[-78.136294912615497,-0.137147501501744],[-78.13629471612748,-0.13714673256996],[-78.136294595256516,-0.137145935897495],[-78.136294554009268,-0.137145115517059]]]}},
{"type":"Feature","properties":{"capa_cad":"ACAD-TOP-BASE PRESA POROTOG-Model|TOP-GPS","color":"#000000"},"geometry":{"type":"MultiLineString","coordinates":[[[-78.136883180747688,-0.140155493245216],[-78.13690140233804,-0.140191407085267],[-78.13686572665577,-0.140191411333672],[-78.136883180747688,-0.140155493245216]]]}},
{"type":"Feature","properties":{"capa_cad":"ACAD-TOP-BASE PRESA POROTOG-Model|TOP-GPS","color":"#000000"},"geometry":{"type":"MultiLineString","coordinates":[[[-78.136883182723409,-0.140172304994324],[-78.136882423666336,-0.140172305084733],[-78.136884700837541,-0.140172304813506],[-78.136883182723409,-0.140172304994324],[-78.136883182723409,-0.140172304994324]]]}},
{"type":"Feature","properties":{"capa_cad":"ACAD-TOP-BASE PRESA POROTOG-Model|TOP-GPS","color":"#000000"},"geometry":{"type":"MultiLineString","coordinates":[[[-78.136882423666336,-0.140172305084733],[-78.136884700837541,-0.140172304813506],[-78.136881664609263,-0.140172305175125],[-78.136882423666336,-0.140172305084733]],[[-78.136884700837541,-0.140172304813506],[-78.136881664609263,-0.140172305175125],[-78.136885459894614,-0.140172304723114],[-78.136884700837541,-0.140172304813506],[-78.136884700837541,-0.140172304813506]]]}},
{"type":"Feature","properties":{"capa_cad":"ACAD-TOP-BASE PRESA POROTOG-Model|TOP-GPS","color":"#000000"},"geometry":{"type":"MultiLineString","coordinates":[[[-78.136881664609263,-0.140172305175125],[-78.136885459894614,-0.140172304723114],[-78.136880905552204,-0.140172305265534],[-78.136881664609263,-0.140172305175125]],[[-78.136885459894614,-0.140172304723114],[-78.136880905552204,-0.140172305265534],[-78.136886218951688,-0.140172304632705],[-78.136885459894614,-0.140172304723114],[-78.136885459894614,-0.140172304723114]]]}},
{"type":"Feature","properties":{"capa_cad":"ACAD-TOP-BASE PRESA POROTOG-Model|TOP-GPS","color":"#000000"},"geometry":{"type":"MultiLineString","coordinates":[[[-78.136880905552204,-0.140172305265534],[-78.136886218951688,-0.140172304632705],[-78.136880146584929,-0.140173069526352],[-78.136880905552204,-0.140172305265534]],[[-78.136886218951688,-0.140172304632705],[-78.136880146584929,-0.140173069526352],[-78.136886978098559,-0.14017306871271],[-78.136886218951688,-0.140172304632705],[-78.136886218951688,-0.140172304632705]]]}},
{"type":"Feature","properties":{"capa_cad":"ACAD-TOP-BASE PRESA POROTOG-Model|TOP-GPS","color":"#000000"},"geometry":{"type":"MultiLineString","coordinates":[[[-78.136880146584929,-0.140173069526352],[-78.136886978098559,-0.14017306871271],[-78.13687938752787,-0.140173069616761],[-78.136880146584929,-0.140173069526352]],[[-78.136886978098559,-0.14017306871271],[-78.13687938752787,-0.140173069616761],[-78.136887737155618,-0.140173068622318],[-78.136886978098559,-0.14017306871271],[-78.136886978098559,-0.14017306871271]]]}},
{"type":"Feature","properties":{"capa_cad":"ACAD-TOP-BASE PRESA POROTOG-Model|TOP-GPS","color":"#000000"},"geometry":{"type":"MultiLineString","coordinates":[[[-78.13687938752787,-0.140173069616761],[-78.136887737155618,-0.140173068622318],[-78.136878628560595,-0.140173833877561],[-78.13687938752787,-0.140173069616761]],[[-78.136887737155618,-0.140173068622318],[-78.136878628560595,-0.140173833877561],[-78.136887737245416,-0.140173832792733],[-78.136887737155618,-0.140173068622318]],[[-78.136878628560595,-0.140173833877561],[-78.136887737245416,-0.140173832792733],[-78.136888496302504,-0.140173832702325],[-78.136878628560595,-0.140173833877561],[-78.136878628560595,-0.140173833877561]]]}},
{"type":"Feature","properties":{"capa_cad":"ACAD-TOP-BASE PRESA POROTOG-Model|TOP-GPS","color":"#000000"},"geometry":{"type":"MultiLineString","coordinates":[[[-78.136887737245416,-0.140173832792733],[-78.136878628560595,-0.140173833877561],[-78.136878628560595,-0.140173833877561],[-78.136887737245416,-0.140173832792733],[-78.136887737245416,-0.140173832792733]]]}},
{"type":"Feature","properties":{"capa_cad":"ACAD-TOP-BASE PRESA POROTOG-Model|TOP-GPS","color":"#000000"},"geometry":{"type":"MultiLineString","coordinates":[[[-78.136878628560595,-0.140173833877561],[-78.136888496302504,-0.140173832702325],[-78.13687786959332,-0.140174598138377],[-78.136878628560595,-0.140173833877561]],[[-78.136888496302504,-0.140173832702325],[-78.13687786959332,-0.140174598138377],[-78.136889255449361,-0.140174596782349],[-78.136888496302504,-0.140173832702325],[-78.136888496302504,-0.140173832702325]]]}},
{"type":"Feature","properties":{"capa_cad":"ACAD-TOP-BASE PRESA POROTOG-Model|TOP-GPS","color":"#000000"},"geometry":{"type":"MultiLineString","coordinates":[[[-78.13687786959332,-0.140174598138377],[-78.136889255449361,-0.140174596782349],[-78.13687711062606,-0.140175362399192],[-78.13687786959332,-0.140174598138377]],[[-78.136889255449361,-0.140174596782349],[-78.13687711062606,-0.140175362399192],[-78.13688925553916,-0.140175360952765],[-78.136889255449361,-0.140174596782349],[-78.136889255449361,-0.140174596782349]]]}},
{"type":"Feature","properties":{"capa_cad":"ACAD-TOP-BASE PRESA POROTOG-Model|TOP-GPS","color":"#000000"},"geometry":{"type":"MultiLineString","coordinates":[[[-78.13687711062606,-0.140175362399192],[-78.13688925553916,-0.140175360952765],[-78.136877110715844,-0.140176126569599],[-78.13687711062606,-0.140175362399192]],[[-78.13688925553916,-0.140175360952765],[-78.136877110715844,-0.140176126569599],[-78.136890014686031,-0.140176125032774],[-78.13688925553916,-0.140175360952765],[-78.13688925553916,-0.140175360952765]]]}},
{"type":"Feature","properties":{"capa_cad":"ACAD-TOP-BASE PRESA POROTOG-Model|TOP-GPS","color":"#000000"},"geometry":{"type":"MultiLineString","coordinates":[[[-78.136877110715844,-0.140176126569599],[-78.136890014686031,-0.140176125032774],[-78.136876351658799,-0.140176126660005],[-78.136877110715844,-0.140176126569599]],[[-78.136890014686031,-0.140176125032774],[-78.136876351658799,-0.140176126660005],[-78.136890773743104,-0.140176124942367],[-78.136890014686031,-0.140176125032774],[-78.136890014686031,-0.140176125032774]]]}},
{"type":"Feature","properties":{"capa_cad":"ACAD-TOP-BASE PRESA POROTOG-Model|TOP-GPS","color":"#000000"},"geometry":{"type":"MultiLineString","coordinates":[[[-78.136876351658799,-0.140176126660005],[-78.136890773743104,-0.140176124942367],[-78.136876351748583,-0.140176890830412],[-78.136876351658799,-0.140176126660005]],[[-78.136890773743104,-0.140176124942367],[-78.136876351748583,-0.140176890830412],[-78.136890773832903,-0.140176889112801],[-78.136890773743104,-0.140176124942367],[-78.136890773743104,-0.140176124942367]]]}},
{"type":"Feature","properties":{"capa_cad":"ACAD-TOP-BASE PRESA POROTOG-Model|TOP-GPS","color":"#000000"},"geometry":{"type":"MultiLineString","coordinates":[[[-78.136876351748583,-0.140176890830412],[-78.136890773832903,-0.140176889112801],[-78.136876351838382,-0.14017765500082],[-78.136876351748583,-0.140176890830412]],[[-78.136890773832903,-0.140176889112801],[-78.136876351838382,-0.14017765500082],[-78.136890773922715,-0.140177653283218],[-78.136890773832903,-0.140176889112801],[-78.136890773832903,-0.140176889112801]]]}},
{"type":"Feature","properties":{"capa_cad":"ACAD-TOP-BASE PRESA POROTOG-Model|TOP-GPS","color":"#000000"},"geometry":{"type":"MultiLineString","coordinates":[[[-78.136876351838382,-0.14017765500082],[-78.136890773922715,-0.140177653283218],[-78.136875592871107,-0.140178419261631],[-78.136876351838382,-0.14017765500082]],[[-78.136890773922715,-0.140177653283218],[-78.136875592871107,-0.140178419261631],[-78.1368907740125,-0.140178417453634],[-78.136890773922715,-0.140177653283218],[-78.136890773922715,-0.140177653283218]]]}},
{"type":"Feature","properties":{"capa_cad":"ACAD-TOP-BASE PRESA POROTOG-Model|TOP-GPS","color":"#000000"},"geometry":{"type":"MultiLineString","coordinates":[[[-78.136875592871107,-0.140178419261631],[-78.1368907740125,-0.140178417453634],[-78.136875592960905,-0.140179183432038],[-78.136875592871107,-0.140178419261631]],[[-78.1368907740125,-0.140178417453634],[-78.136875592960905,-0.140179183432038],[-78.136891533159371,-0.140179181533646],[-78.1368907740125,-0.140178417453634],[-78.1368907740125,-0.140178417453634]]]}},
{"type":"Feature","properties":{"capa_cad":"ACAD-TOP-BASE PRESA POROTOG-Model|TOP-GPS","color":"#000000"},"geometry":{"type":"MultiLineString","coordinates":[[[-78.136875592960905,-0.140179183432038],[-78.136891533159371,-0.140179181533646],[-78.136875593050704,-0.140179947602461],[-78.136875592960905,-0.140179183432038]],[[-78.136891533159371,-0.140179181533646],[-78.136875593050704,-0.140179947602461],[-78.136891533249155,-0.140179945704064],[-78.136891533159371,-0.140179181533646],[-78.136891533159371,-0.140179181533646]]]}},
{"type":"Feature","properties":{"capa_cad":"ACAD-TOP-BASE PRESA POROTOG-Model|TOP-GPS","color":"#000000"},"geometry":{"type":"MultiLineString","coordinates":[[[-78.136875593050704,-0.140179947602461],[-78.136891533249155,-0.140179945704064],[-78.136875593140488,-0.140180711772868],[-78.136875593050704,-0.140179947602461]],[[-78.136891533249155,-0.140179945704064],[-78.136875593140488,-0.140180711772868],[-78.136891533338954,-0.140180709874498],[-78.136891533249155,-0.140179945704064],[-78.136891533249155,-0.140179945704064]]]}},
{"type":"Feature","properties":{"capa_cad":"ACAD-TOP-BASE PRESA POROTOG-Model|TOP-GPS","color":"#000000"},"geometry":{"type":"MultiLineString","coordinates":[[[-78.136875593140488,-0.140180711772868],[-78.136891533338954,-0.140180709874498],[-78.136875593230286,-0.140181475943274],[-78.136875593140488,-0.140180711772868]],[[-78.136891533338954,-0.140180709874498],[-78.136875593230286,-0.140181475943274],[-78.136890774371679,-0.140181474135301],[-78.136891533338954,-0.140180709874498],[-78.136891533338954,-0.140180709874498]]]}},
{"type":"Feature","properties":{"capa_cad":"ACAD-TOP-BASE PRESA POROTOG-Model|TOP-GPS","color":"#000000"},"geometry":{"type":"MultiLineString","coordinates":[[[-78.136875593230286,-0.140181475943274],[-78.136890774371679,-0.140181474135301],[-78.136876352377158,-0.140182240023279],[-78.136875593230286,-0.140181475943274]],[[-78.136890774371679,-0.140181474135301],[-78.136876352377158,-0.140182240023279],[-78.136890774461463,-0.140182238305735],[-78.136890774371679,-0.140181474135301],[-78.136890774371679,-0.140181474135301]]]}},
{"type":"Feature","properties":{"capa_cad":"ACAD-TOP-BASE PRESA POROTOG-Model|TOP-GPS","color":"#000000"},"geometry":{"type":"MultiLineString","coordinates":[[[-78.136876352377158,-0.140182240023279],[-78.136890774461463,-0.140182238305735],[-78.136876352466942,-0.140183004193686],[-78.136876352377158,-0.140182240023279]],[[-78.136890774461463,-0.140182238305735],[-78.136876352466942,-0.140183004193686],[-78.136890774551262,-0.140183002476152],[-78.136890774461463,-0.140182238305735],[-78.136890774461463,-0.140182238305735]]]}},
{"type":"Feature","properties":{"capa_cad":"ACAD-TOP-BASE PRESA POROTOG-Model|TOP-GPS","color":"#000000"},"geometry":{"type":"MultiLineString","coordinates":[[[-78.136876352466942,-0.140183004193686],[-78.136890774551262,-0.140183002476152],[-78.136876352556726,-0.14018376836411],[-78.136876352466942,-0.140183004193686]],[[-78.136890774551262,-0.140183002476152],[-78.136876352556726,-0.14018376836411],[-78.13689077464106,-0.140183766646569],[-78.136890774551262,-0.140183002476152],[-78.136890774551262,-0.140183002476152]]]}},
{"type":"Feature","properties":{"capa_cad":"ACAD-TOP-BASE PRESA POROTOG-Model|TOP-GPS","color":"#000000"},"geometry":{"type":"MultiLineString","coordinates":[[[-78.136876352556726,-0.14018376836411],[-78.13689077464106,-0.140183766646569],[-78.136877111703598,-0.140184532444116],[-78.136876352556726,-0.14018376836411]],[[-78.13689077464106,-0.140183766646569],[-78.136877111703598,-0.140184532444116],[-78.136890015673785,-0.140184530907386],[-78.13689077464106,-0.140183766646569]],[[-78.136877111703598,-0.140184532444116],[-78.136890015673785,-0.140184530907386],[-78.136889256616698,-0.140184530997771],[-78.136877111703598,-0.140184532444116],[-78.136877111703598,-0.140184532444116]]]}},
{"type":"Feature","properties":{"capa_cad":"ACAD-TOP-BASE PRESA POROTOG-Model|TOP-GPS","color":"#000000"},"geometry":{"type":"MultiLineString","coordinates":[[[-78.136890015673785,-0.140184530907386],[-78.136877111703598,-0.140184532444116],[-78.136877111703598,-0.140184532444116],[-78.136890015673785,-0.140184530907386],[-78.136890015673785,-0.140184530907386]]]}},
{"type":"Feature","properties":{"capa_cad":"ACAD-TOP-BASE PRESA POROTOG-Model|TOP-GPS","color":"#000000"},"geometry":{"type":"MultiLineString","coordinates":[[[-78.136877111703598,-0.140184532444116],[-78.136889256616698,-0.140184530997771],[-78.136877870850441,-0.140185296524124],[-78.136877111703598,-0.140184532444116]],[[-78.136889256616698,-0.140184530997771],[-78.136877870850441,-0.140185296524124],[-78.136889256706482,-0.140185295168203],[-78.136889256616698,-0.140184530997771],[-78.136889256616698,-0.140184530997771]]]}},
{"type":"Feature","properties":{"capa_cad":"ACAD-TOP-BASE PRESA POROTOG-Model|TOP-GPS","color":"#000000"},"geometry":{"type":"MultiLineString","coordinates":[[[-78.136877870850441,-0.140185296524124],[-78.136889256706482,-0.140185295168203],[-78.136878629997312,-0.140186060604149],[-78.136877870850441,-0.140185296524124]],[[-78.136889256706482,-0.140185295168203],[-78.136878629997312,-0.140186060604149],[-78.136888497739207,-0.140186059429002],[-78.136889256706482,-0.140185295168203],[-78.136889256706482,-0.140185295168203]]]}},
{"type":"Feature","properties":{"capa_cad":"ACAD-TOP-BASE PRESA POROTOG-Model|TOP-GPS","color":"#000000"},"geometry":{"type":"MultiLineString","coordinates":[[[-78.136878629997312,-0.140186060604149],[-78.136888497739207,-0.140186059429002],[-78.136878630087082,-0.140186824774558],[-78.136878629997312,-0.140186060604149]],[[-78.136888497739207,-0.140186059429002],[-78.136878630087082,-0.140186824774558],[-78.136887738771918,-0.140186823689817],[-78.136888497739207,-0.140186059429002],[-78.136888497739207,-0.140186059429002]]]}},
{"type":"Feature","properties":{"capa_cad":"ACAD-TOP-BASE PRESA POROTOG-Model|TOP-GPS","color":"#000000"},"geometry":{"type":"MultiLineString","coordinates":[[[-78.136879389144156,-0.140186824684159],[-78.136879389144156,-0.140186824684159],[-78.136887738771918,-0.140186823689817],[-78.136879389144156,-0.140186824684159]],[[-78.136879389144156,-0.140186824684159],[-78.136887738771918,-0.140186823689817],[-78.136878630087082,-0.140186824774558],[-78.136879389144156,-0.140186824684159],[-78.136879389144156,-0.140186824684159]]]}},
{"type":"Feature","properties":{"capa_cad":"ACAD-TOP-BASE PRESA POROTOG-Model|TOP-GPS","color":"#000000"},"geometry":{"type":"MultiLineString","coordinates":[[[-78.136879389144156,-0.140186824684159],[-78.136887738771918,-0.140186823689817],[-78.136880148201229,-0.140186824593776],[-78.136879389144156,-0.140186824684159]],[[-78.136887738771918,-0.140186823689817],[-78.136880148201229,-0.140186824593776],[-78.136886979714845,-0.140186823780216],[-78.136887738771918,-0.140186823689817],[-78.136887738771918,-0.140186823689817]]]}},
{"type":"Feature","properties":{"capa_cad":"ACAD-TOP-BASE PRESA POROTOG-Model|TOP-GPS","color":"#000000"},"geometry":{"type":"MultiLineString","coordinates":[[[-78.136880148201229,-0.140186824593776],[-78.136886979714845,-0.140186823780216],[-78.136880907348086,-0.140187588673787],[-78.136880148201229,-0.140186824593776]],[[-78.136886979714845,-0.140186823780216],[-78.136880907348086,-0.140187588673787],[-78.13688622074757,-0.140187588041029],[-78.136886979714845,-0.140186823780216],[-78.136886979714845,-0.140186823780216]]]}},
{"type":"Feature","properties":{"capa_cad":"ACAD-TOP-BASE PRESA POROTOG-Model|TOP-GPS","color":"#000000"},"geometry":{"type":"MultiLineString","coordinates":[[[-78.136880907348086,-0.140187588673787],[-78.13688622074757,-0.140187588041029],[-78.136881666405159,-0.140187588583389],[-78.136880907348086,-0.140187588673787]],[[-78.13688622074757,-0.140187588041029],[-78.136881666405159,-0.140187588583389],[-78.136885461690497,-0.140187588131428],[-78.13688622074757,-0.140187588041029],[-78.13688622074757,-0.140187588041029]]]}},
{"type":"Feature","properties":{"capa_cad":"ACAD-TOP-BASE PRESA POROTOG-Model|TOP-GPS","color":"#000000"},"geometry":{"type":"MultiLineString","coordinates":[[[-78.136885461690497,-0.140187588131428],[-78.136884702633424,-0.14018758822181],[-78.136882425462218,-0.140187588493007],[-78.136885461690497,-0.140187588131428]],[[-78.136884702633424,-0.14018758822181],[-78.136882425462218,-0.140187588493007],[-78.136883184519291,-0.140187588402608],[-78.136884702633424,-0.14018758822181],[-78.136884702633424,-0.14018758822181]]]}},
{"type":"Feature","properties":{"capa_cad":"ACAD-TOP-BASE PRESA POROTOG-Model|TOP-GPS","color":"#000000"},"geometry":{"type":"MultiLineString","coordinates":[[[-78.136885461690497,-0.140187588131428],[-78.136881666405159,-0.140187588583389],[-78.136882425462218,-0.140187588493007],[-78.136885461690497,-0.140187588131428],[-78.136885461690497,-0.140187588131428]]]}},
{"type":"Feature","properties":{"capa_cad":"ACAD-TOP-BASE PRESA POROTOG-Model|TOP-GPS","color":"#000000"},"geometry":{"type":"MultiLineString","coordinates":[[[-78.136875593095596,-0.140180329687665],[-78.136875634147927,-0.140179509296896],[-78.13687575482966,-0.140178712594942],[-78.13687595113511,-0.140177943615457],[-78.136876219058493,-0.140177206392128],[-78.136876554594096,-0.140176504958625],[-78.136876953736191,-0.140175843348601],[-78.136877412479024,-0.140175225595779],[-78.136877926816865,-0.140174655733777],[-78.136878492743989,-0.1401741377963],[-78.136879106254668,-0.140173675817019],[-78.136879763343146,-0.140173273829604],[-78.136880460003709,-0.140172935867743],[-78.136881192230575,-0.140172665965072],[-78.136881956018087,-0.140172468155296],[-78.136882747360445,-0.140172346472085],[-78.136883562251938,-0.140172304949111],[-78.136884377153166,-0.140172346277977],[-78.136885168524103,-0.140172467772691],[-78.136885932358084,-0.140172665400516],[-78.136886664648372,-0.140172935128762],[-78.136887361388347,-0.140173272924674],[-78.136888018571284,-0.140173674755564],[-78.136888632190519,-0.140174136588711],[-78.136889198239373,-0.140174654391374],[-78.136889712711138,-0.140175224130832],[-78.136890171599148,-0.140175841774398],[-78.136890570896725,-0.140176503289314],[-78.136890906597174,-0.140177204642893],[-78.136891174693801,-0.140177941802395],[-78.136891371179971,-0.140178710735099],[-78.136891492048946,-0.140179507408316],[-78.136891533294062,-0.140180327789272],[-78.13689149224173,-0.140181148180053],[-78.136891371559983,-0.140181944882017],[-78.136891175254547,-0.140182713861512],[-78.13689090733115,-0.14018345108485],[-78.136890571795547,-0.14018415251836],[-78.136890172653452,-0.140184814128389],[-78.136889713910605,-0.140185431881231],[-78.136889199572735,-0.140186001743217],[-78.136888633645597,-0.140186519680693],[-78.136888020134919,-0.140186981659972],[-78.136887363046426,-0.140187383647382],[-78.136886666385877,-0.140187721609254],[-78.136885934158968,-0.1401879915119],[-78.136885170371471,-0.140188189321666],[-78.136884379029112,-0.140188311004866],[-78.136883564137605,-0.140188352527829],[-78.136882749236378,-0.140188311198951],[-78.136881957865441,-0.140188189704226],[-78.136881194031488,-0.140187992076392],[-78.136880461741185,-0.140187722348137],[-78.136879765001225,-0.140187384552218],[-78.136879107818302,-0.140186982721322],[-78.136878494199067,-0.140186520888173],[-78.136877928150241,-0.140186003085525],[-78.136877413678477,-0.14018543334605],[-78.13687695479048,-0.140184815702488],[-78.136876555492918,-0.140184154187577],[-78.13687621979247,-0.140183452834004],[-78.136875951695842,-0.14018271567451],[-78.136875755209701,-0.140181946741816],[-78.136875634340726,-0.14018115006861],[-78.136875593095596,-0.140180329687665]]]}},
{"type":"Feature","properties":{"capa_cad":"TOP-GNSS","color":"#DBDBDB"},"geometry":{"type":"MultiLineString","coordinates":[[[-78.132173396449744,-0.148185923309282],[-78.13212253982006,-0.148185928997226],[-78.132173377209867,-0.148011693177475],[-78.132173396449744,-0.148185923309282]],[[-78.13212253982006,-0.148185928997226],[-78.132173377209867,-0.148011693177475],[-78.13212252058058,-0.148011698873219],[-78.13212253982006,-0.148185928997226],[-78.13212253982006,-0.148185928997226]]]}},
{"type":"Feature","properties":{"capa_cad":"TOP-GPS","color":"#000000"},"geometry":{"type":"MultiLineString","coordinates":[[[-78.13225157042983,-0.148107969500553],[-78.13218325934676,-0.148142364672306],[-78.132183251752593,-0.148073589619687],[-78.13225157042983,-0.148107969500553]]]}},
{"type":"Feature","properties":{"capa_cad":"TOP-GPS","color":"#000000"},"geometry":{"type":"MultiLineString","coordinates":[[[-78.132218931013554,-0.148107208986125],[-78.132218931182308,-0.148108737320688],[-78.132218930844786,-0.148105680651579],[-78.132218931013554,-0.148107208986125]],[[-78.132218931182308,-0.148108737320688],[-78.132218930844786,-0.148105680651579],[-78.132218931351062,-0.148110265655233],[-78.132218931182308,-0.148108737320688],[-78.132218931182308,-0.148108737320688]]]}},
{"type":"Feature","properties":{"capa_cad":"TOP-GPS","color":"#000000"},"geometry":{"type":"MultiLineString","coordinates":[[[-78.132218930844786,-0.148105680651579],[-78.132218931351062,-0.148110265655233],[-78.132218930591648,-0.148103388149744],[-78.132218930844786,-0.148105680651579]],[[-78.132218931351062,-0.148110265655233],[-78.132218930591648,-0.148103388149744],[-78.13221893151983,-0.148111793989779],[-78.132218931351062,-0.148110265655233],[-78.132218931351062,-0.148110265655233]]]}},
{"type":"Feature","properties":{"capa_cad":"TOP-GPS","color":"#000000"},"geometry":{"type":"MultiLineString","coordinates":[[[-78.132218930591648,-0.148103388149744],[-78.13221893151983,-0.148111793989779],[-78.132218171368649,-0.148101859900156],[-78.132218930591648,-0.148103388149744]],[[-78.13221893151983,-0.148111793989779],[-78.132218171368649,-0.148101859900156],[-78.132218172634367,-0.148113322409275],[-78.13221893151983,-0.148111793989779],[-78.13221893151983,-0.148111793989779]]]}},
{"type":"Feature","properties":{"capa_cad":"TOP-GPS","color":"#000000"},"geometry":{"type":"MultiLineString","coordinates":[[[-78.132218171368649,-0.148101859900156],[-78.132218172634367,-0.148113322409275],[-78.132217412230048,-0.148101095817825],[-78.132218171368649,-0.148101859900156]],[[-78.132218172634367,-0.148113322409275],[-78.132217412230048,-0.148101095817825],[-78.132217413748904,-0.14811485082877],[-78.132218172634367,-0.148113322409275],[-78.132218172634367,-0.148113322409275]]]}},
{"type":"Feature","properties":{"capa_cad":"TOP-GPS","color":"#000000"},"geometry":{"type":"MultiLineString","coordinates":[[[-78.132217412230048,-0.148101095817825],[-78.132217413748904,-0.14811485082877],[-78.132216653007063,-0.148099567568241],[-78.132217412230048,-0.148101095817825]],[[-78.132217413748904,-0.14811485082877],[-78.132216653007063,-0.148099567568241],[-78.132216654863427,-0.148116379248262],[-78.132217413748904,-0.14811485082877],[-78.132217413748904,-0.14811485082877]]]}},
{"type":"Feature","properties":{"capa_cad":"TOP-GPS","color":"#000000"},"geometry":{"type":"MultiLineString","coordinates":[[[-78.132216653007063,-0.148099567568241],[-78.132216654863427,-0.148116379248262],[-78.132215893784064,-0.148098039318642],[-78.132216653007063,-0.148099567568241]],[[-78.132216654863427,-0.148116379248262],[-78.132215893784064,-0.148098039318642],[-78.132215895893594,-0.148117143500481],[-78.132216654863427,-0.148116379248262],[-78.132216654863427,-0.148116379248262]]]}},
{"type":"Feature","properties":{"capa_cad":"TOP-GPS","color":"#000000"},"geometry":{"type":"MultiLineString","coordinates":[[[-78.132215893784064,-0.148098039318642],[-78.132215895893594,-0.148117143500481],[-78.132214375506862,-0.148096511154007],[-78.132215893784064,-0.148098039318642]],[[-78.132215895893594,-0.148117143500481],[-78.132214375506862,-0.148096511154007],[-78.1322143779539,-0.148118672004916],[-78.132215895893594,-0.148117143500481],[-78.132215895893594,-0.148117143500481]]]}},
{"type":"Feature","properties":{"capa_cad":"TOP-GPS","color":"#000000"},"geometry":{"type":"MultiLineString","coordinates":[[[-78.132214375506862,-0.148096511154007],[-78.1322143779539,-0.148118672004916],[-78.132213616368247,-0.148095747071699],[-78.132214375506862,-0.148096511154007]],[[-78.1322143779539,-0.148118672004916],[-78.132213616368247,-0.148095747071699],[-78.132213618984068,-0.148119436257132],[-78.1322143779539,-0.148118672004916],[-78.1322143779539,-0.148118672004916]]]}},
{"type":"Feature","properties":{"capa_cad":"TOP-GPS","color":"#000000"},"geometry":{"type":"MultiLineString","coordinates":[[[-78.132213616368247,-0.148095747071699],[-78.132213618984068,-0.148119436257132],[-78.13221209817543,-0.148094983074338],[-78.132213616368247,-0.148095747071699]],[[-78.132213618984068,-0.148119436257132],[-78.13221209817543,-0.148094983074338],[-78.132212100960004,-0.148120200594276],[-78.132213618984068,-0.148119436257132],[-78.132213618984068,-0.148119436257132]]]}},
{"type":"Feature","properties":{"capa_cad":"TOP-GPS","color":"#000000"},"geometry":{"type":"MultiLineString","coordinates":[[[-78.13221209817543,-0.148094983074338],[-78.132212100960004,-0.148120200594276],[-78.132210579982612,-0.148094219076995],[-78.13221209817543,-0.148094983074338]],[[-78.132212100960004,-0.148120200594276],[-78.132210579982612,-0.148094219076995],[-78.132210582935954,-0.148120964931434],[-78.132212100960004,-0.148120200594276],[-78.132212100960004,-0.148120200594276]]]}},
{"type":"Feature","properties":{"capa_cad":"TOP-GPS","color":"#000000"},"geometry":{"type":"MultiLineString","coordinates":[[[-78.132210579982612,-0.148094219076995],[-78.132210582935954,-0.148120964931434],[-78.132209061789794,-0.148093455079638],[-78.132210579982612,-0.148094219076995]],[[-78.132210582935954,-0.148120964931434],[-78.132209061789794,-0.148093455079638],[-78.132209064911891,-0.148121729268573],[-78.132210582935954,-0.148120964931434],[-78.132210582935954,-0.148120964931434]]]}},
{"type":"Feature","properties":{"capa_cad":"TOP-GPS","color":"#000000"},"geometry":{"type":"MultiLineString","coordinates":[[[-78.132209061789794,-0.148093455079638],[-78.132209064911891,-0.148121729268573],[-78.132207543681389,-0.148093455249548],[-78.132209061789794,-0.148093455079638]],[[-78.132209064911891,-0.148121729268573],[-78.132207543681389,-0.148093455249548],[-78.132207546887841,-0.148122493605727],[-78.132209064911891,-0.148121729268573],[-78.132209064911891,-0.148121729268573]]]}},
{"type":"Feature","properties":{"capa_cad":"TOP-GPS","color":"#000000"},"geometry":{"type":"MultiLineString","coordinates":[[[-78.132207543681389,-0.148093455249548],[-78.132207546887841,-0.148122493605727],[-78.132206025488571,-0.14809269125221],[-78.132207543681389,-0.148093455249548]],[[-78.132207546887841,-0.148122493605727],[-78.132206025488571,-0.14809269125221],[-78.132206028779407,-0.148122493775598],[-78.132207546887841,-0.148122493605727],[-78.132207546887841,-0.148122493605727]]]}},
{"type":"Feature","properties":{"capa_cad":"TOP-GPS","color":"#000000"},"geometry":{"type":"MultiLineString","coordinates":[[[-78.132206025488571,-0.14809269125221],[-78.132206028779407,-0.148122493775598],[-78.132204507380152,-0.148092691422121],[-78.132206025488571,-0.14809269125221]],[[-78.132206028779407,-0.148122493775598],[-78.132204507380152,-0.148092691422121],[-78.132204510670988,-0.148122493945486],[-78.132206028779407,-0.148122493775598],[-78.132206028779407,-0.148122493775598]]]}},
{"type":"Feature","properties":{"capa_cad":"TOP-GPS","color":"#000000"},"geometry":{"type":"MultiLineString","coordinates":[[[-78.132204507380152,-0.148092691422121],[-78.132204510670988,-0.148122493945486],[-78.132202989271732,-0.148092691592048],[-78.132204507380152,-0.148092691422121]],[[-78.132204510670988,-0.148122493945486],[-78.132202989271732,-0.148092691592048],[-78.132202992562569,-0.148122494115357],[-78.132204510670988,-0.148122493945486],[-78.132204510670988,-0.148122493945486]]]}},
{"type":"Feature","properties":{"capa_cad":"TOP-GPS","color":"#000000"},"geometry":{"type":"MultiLineString","coordinates":[[[-78.132202989271732,-0.148092691592048],[-78.132202992562569,-0.148122494115357],[-78.132201471247697,-0.14809345592922],[-78.132202989271732,-0.148092691592048]],[[-78.132202992562569,-0.148122494115357],[-78.132201471247697,-0.14809345592922],[-78.132201474454163,-0.148122494285244],[-78.132202992562569,-0.148122494115357],[-78.132202992562569,-0.148122494115357]]]}},
{"type":"Feature","properties":{"capa_cad":"TOP-GPS","color":"#000000"},"geometry":{"type":"MultiLineString","coordinates":[[[-78.132201471247697,-0.14809345592922],[-78.132201474454163,-0.148122494285244],[-78.132199194085089,-0.148093456184092],[-78.132201471247697,-0.14809345592922]],[[-78.132201474454163,-0.148122494285244],[-78.132199194085089,-0.148093456184092],[-78.132199197207171,-0.148121730372799],[-78.132201474454163,-0.148122494285244],[-78.132201474454163,-0.148122494285244]]]}},
{"type":"Feature","properties":{"capa_cad":"TOP-GPS","color":"#000000"},"geometry":{"type":"MultiLineString","coordinates":[[[-78.132199194085089,-0.148093456184092],[-78.132199197207171,-0.148121730372799],[-78.132198435115271,-0.148094220436314],[-78.132199194085089,-0.148093456184092]],[[-78.132199197207171,-0.148121730372799],[-78.132198435115271,-0.148094220436314],[-78.132198438068585,-0.148120966290467],[-78.132199197207171,-0.148121730372799],[-78.132199197207171,-0.148121730372799]]]}},
{"type":"Feature","properties":{"capa_cad":"TOP-GPS","color":"#000000"},"geometry":{"type":"MultiLineString","coordinates":[[[-78.132198435115271,-0.148094220436314],[-78.132198438068585,-0.148120966290467],[-78.13219691709125,-0.148094984773497],[-78.132198435115271,-0.148094220436314]],[[-78.132198438068585,-0.148120966290467],[-78.13219691709125,-0.148094984773497],[-78.13219691987581,-0.148120202293098],[-78.132198438068585,-0.148120966290467],[-78.132198438068585,-0.148120966290467]]]}},
{"type":"Feature","properties":{"capa_cad":"TOP-GPS","color":"#000000"},"geometry":{"type":"MultiLineString","coordinates":[[[-78.13219691709125,-0.148094984773497],[-78.13219691987581,-0.148120202293098],[-78.132195399067228,-0.148095749110661],[-78.13219691709125,-0.148094984773497]],[[-78.13219691987581,-0.148120202293098],[-78.132195399067228,-0.148095749110661],[-78.13219540168302,-0.148119438295714],[-78.13219691987581,-0.148120202293098],[-78.13219691987581,-0.148120202293098]]]}},
{"type":"Feature","properties":{"capa_cad":"TOP-GPS","color":"#000000"},"geometry":{"type":"MultiLineString","coordinates":[[[-78.132195399067228,-0.148095749110661],[-78.13219540168302,-0.148119438295714],[-78.132193881043221,-0.14809651344784],[-78.132195399067228,-0.148095749110661]],[[-78.13219540168302,-0.148119438295714],[-78.132193881043221,-0.14809651344784],[-78.132193883490231,-0.148118674298332],[-78.13219540168302,-0.148119438295714],[-78.13219540168302,-0.148119438295714]]]}},
{"type":"Feature","properties":{"capa_cad":"TOP-GPS","color":"#000000"},"geometry":{"type":"MultiLineString","coordinates":[[[-78.132193881043221,-0.14809651344784],[-78.132193883490231,-0.148118674298332],[-78.132193122157787,-0.148098041867312],[-78.132193881043221,-0.14809651344784]],[[-78.132193883490231,-0.148118674298332],[-78.132193122157787,-0.148098041867312],[-78.132193124267289,-0.148117146048767],[-78.132193883490231,-0.148118674298332],[-78.132193883490231,-0.148118674298332]]]}},
{"type":"Feature","properties":{"capa_cad":"TOP-GPS","color":"#000000"},"geometry":{"type":"MultiLineString","coordinates":[[[-78.132193122157787,-0.148098041867312],[-78.132193124267289,-0.148117146048767],[-78.132192363272367,-0.148099570286782],[-78.132193122157787,-0.148098041867312]],[[-78.132193124267289,-0.148117146048767],[-78.132192363272367,-0.148099570286782],[-78.132192365128731,-0.148116381966442],[-78.132193124267289,-0.148117146048767],[-78.132193124267289,-0.148117146048767]]]}},
{"type":"Feature","properties":{"capa_cad":"TOP-GPS","color":"#000000"},"geometry":{"type":"MultiLineString","coordinates":[[[-78.132192363272367,-0.148099570286782],[-78.132192365128731,-0.148116381966442],[-78.13219084533273,-0.148101098791207],[-78.132192363272367,-0.148099570286782]],[[-78.132192365128731,-0.148116381966442],[-78.13219084533273,-0.148101098791207],[-78.132190846851572,-0.148114853801813],[-78.132192365128731,-0.148116381966442],[-78.132192365128731,-0.148116381966442]]]}},
{"type":"Feature","properties":{"capa_cad":"TOP-GPS","color":"#000000"},"geometry":{"type":"MultiLineString","coordinates":[[[-78.13219084533273,-0.148101098791207],[-78.132190846851572,-0.148114853801813],[-78.132190845417114,-0.148101862958461],[-78.13219084533273,-0.148101098791207]],[[-78.132190846851572,-0.148114853801813],[-78.132190845417114,-0.148101862958461],[-78.132190846682818,-0.148113325467305],[-78.132190846851572,-0.148114853801813],[-78.132190846851572,-0.148114853801813]]]}},
{"type":"Feature","properties":{"capa_cad":"TOP-GPS","color":"#000000"},"geometry":{"type":"MultiLineString","coordinates":[[[-78.132190845417114,-0.148101862958461],[-78.132190846682818,-0.148113325467305],[-78.132190086531679,-0.148103391377925],[-78.132190845417114,-0.148101862958461]],[[-78.132190846682818,-0.148113325467305],[-78.132190086531679,-0.148103391377925],[-78.132190087459861,-0.14811179721773],[-78.132190846682818,-0.148113325467305],[-78.132190846682818,-0.148113325467305]]]}},
{"type":"Feature","properties":{"capa_cad":"TOP-GPS","color":"#000000"},"geometry":{"type":"MultiLineString","coordinates":[[[-78.132190086531679,-0.148103391377925],[-78.132190087459861,-0.14811179721773],[-78.132189327730629,-0.14810568396464],[-78.132190086531679,-0.148103391377925]],[[-78.132190087459861,-0.14811179721773],[-78.132189327730629,-0.14810568396464],[-78.132189328236905,-0.148110268968175],[-78.132190087459861,-0.14811179721773],[-78.132190087459861,-0.14811179721773]]]}},
{"type":"Feature","properties":{"capa_cad":"TOP-GPS","color":"#000000"},"geometry":{"type":"MultiLineString","coordinates":[[[-78.132189327730629,-0.14810568396464],[-78.132189328236905,-0.148110268968175],[-78.132189327899397,-0.148107212299146],[-78.132189327730629,-0.14810568396464]],[[-78.132189328236905,-0.148110268968175],[-78.132189327899397,-0.148107212299146],[-78.132189328068151,-0.148108740633669],[-78.132189328236905,-0.148110268968175],[-78.132189328236905,-0.148110268968175]]]}},
{"type":"Feature","properties":{"capa_cad":"TOP-GPS","color":"#000000"},"geometry":{"type":"MultiLineString","coordinates":[[[-78.132204886991644,-0.148093455546911],[-78.132206400373036,-0.148093532311071],[-78.132207870054529,-0.148093757953794],[-78.132209288595192,-0.148094124985664],[-78.132210648554135,-0.148094625917354],[-78.132211942490429,-0.148095253259466],[-78.132213162963154,-0.148095999522654],[-78.132214302531423,-0.148096857217522],[-78.132215353754319,-0.148097818854739],[-78.132216309190909,-0.148098876944908],[-78.132217161400305,-0.148100023998683],[-78.132217902941576,-0.148101252526667],[-78.132218526373833,-0.148102555039512],[-78.132219024256145,-0.148103924047856],[-78.132219389147608,-0.148105352062316],[-78.132219613607305,-0.148106831593512],[-78.132219690194347,-0.148108355152098],[-78.132219613943775,-0.148109878727785],[-78.132219389810828,-0.148111358309193],[-78.132219025234747,-0.148112786405277],[-78.132218527654771,-0.148114155525013],[-78.132217904510185,-0.148115458177373],[-78.132217163240242,-0.148116686871315],[-78.132216311284196,-0.148117834115798],[-78.132215356081275,-0.148118892419812],[-78.132214305070789,-0.148119854292282],[-78.132213165691979,-0.148120712242215],[-78.132211945384071,-0.148121458778553],[-78.132210651586362,-0.14812208641027],[-78.132209291738079,-0.148122587646342],[-78.132207873278503,-0.148122954995727],[-78.132206403646876,-0.148123180967383],[-78.132204890282466,-0.148123258070286],[-78.132203376901074,-0.148123181306069],[-78.132201907219596,-0.148122955663326],[-78.132200488678947,-0.148122588631405],[-78.132199128720032,-0.148122087699702],[-78.132197834783767,-0.148121460357566],[-78.13219661431107,-0.14812071409436],[-78.132195474742844,-0.148119856399464],[-78.132194423519991,-0.148118894762242],[-78.132193468083429,-0.148117836672075],[-78.132192615874061,-0.148116689618327],[-78.132191874332833,-0.148115461090343],[-78.132191250900604,-0.14811415857752],[-78.132190753018307,-0.148112789569222],[-78.132190388126872,-0.148111361554795],[-78.132190163667175,-0.148109882023635],[-78.132190087080161,-0.148108358465089],[-78.132190163330719,-0.148106834889441],[-78.132190387463652,-0.148105355308071],[-78.132190752039733,-0.148103927212021],[-78.132191249619666,-0.148102558092298],[-78.132191872764224,-0.148101255439962],[-78.132192614034153,-0.148100026746055],[-78.132193465990156,-0.148098879501567],[-78.132194421193034,-0.148097821197574],[-78.132195472203477,-0.148096859325085],[-78.132196611582273,-0.148096001375159],[-78.132197831890139,-0.148095254838788],[-78.132199125687819,-0.148094627207048],[-78.132200485536075,-0.148094125970964],[-78.132201903995636,-0.148093758621546],[-78.132203373627235,-0.148093532649853],[-78.132204886991644,-0.148093455546911]]]}},
{"type":"Feature","properties":{"capa_cad":"TOP-GNSS","color":"#DBDBDB"},"geometry":{"type":"MultiLineString","coordinates":[[[-78.132173396449744,-0.148185923309282],[-78.13212253982006,-0.148185928997226],[-78.132173377209867,-0.148011693177475],[-78.132173396449744,-0.148185923309282]],[[-78.13212253982006,-0.148185928997226],[-78.132173377209867,-0.148011693177475],[-78.13212252058058,-0.148011698873219],[-78.13212253982006,-0.148185928997226],[-78.13212253982006,-0.148185928997226]]]}},
{"type":"Feature","properties":{"capa_cad":"TOP-GPS","color":"#000000"},"geometry":{"type":"MultiLineString","coordinates":[[[-78.13225157042983,-0.148107969500553],[-78.13218325934676,-0.148142364672306],[-78.132183251752593,-0.148073589619687],[-78.13225157042983,-0.148107969500553]]]}},
{"type":"Feature","properties":{"capa_cad":"TOP-GPS","color":"#000000"},"geometry":{"type":"MultiLineString","coordinates":[[[-78.132218931013554,-0.148107208986125],[-78.132218931182308,-0.148108737320688],[-78.132218930844786,-0.148105680651579],[-78.132218931013554,-0.148107208986125]],[[-78.132218931182308,-0.148108737320688],[-78.132218930844786,-0.148105680651579],[-78.132218931351062,-0.148110265655233],[-78.132218931182308,-0.148108737320688],[-78.132218931182308,-0.148108737320688]]]}},
{"type":"Feature","properties":{"capa_cad":"TOP-GPS","color":"#000000"},"geometry":{"type":"MultiLineString","coordinates":[[[-78.132218930844786,-0.148105680651579],[-78.132218931351062,-0.148110265655233],[-78.132218930591648,-0.148103388149744],[-78.132218930844786,-0.148105680651579]],[[-78.132218931351062,-0.148110265655233],[-78.132218930591648,-0.148103388149744],[-78.13221893151983,-0.148111793989779],[-78.132218931351062,-0.148110265655233],[-78.132218931351062,-0.148110265655233]]]}},
{"type":"Feature","properties":{"capa_cad":"TOP-GPS","color":"#000000"},"geometry":{"type":"MultiLineString","coordinates":[[[-78.132218930591648,-0.148103388149744],[-78.13221893151983,-0.148111793989779],[-78.132218171368649,-0.148101859900156],[-78.132218930591648,-0.148103388149744]],[[-78.13221893151983,-0.148111793989779],[-78.132218171368649,-0.148101859900156],[-78.132218172634367,-0.148113322409275],[-78.13221893151983,-0.148111793989779],[-78.13221893151983,-0.148111793989779]]]}},
{"type":"Feature","properties":{"capa_cad":"TOP-GPS","color":"#000000"},"geometry":{"type":"MultiLineString","coordinates":[[[-78.132218171368649,-0.148101859900156],[-78.132218172634367,-0.148113322409275],[-78.132217412230048,-0.148101095817825],[-78.132218171368649,-0.148101859900156]],[[-78.132218172634367,-0.148113322409275],[-78.132217412230048,-0.148101095817825],[-78.132217413748904,-0.14811485082877],[-78.132218172634367,-0.148113322409275],[-78.132218172634367,-0.148113322409275]]]}},
{"type":"Feature","properties":{"capa_cad":"TOP-GPS","color":"#000000"},"geometry":{"type":"MultiLineString","coordinates":[[[-78.132217412230048,-0.148101095817825],[-78.132217413748904,-0.14811485082877],[-78.132216653007063,-0.148099567568241],[-78.132217412230048,-0.148101095817825]],[[-78.132217413748904,-0.14811485082877],[-78.132216653007063,-0.148099567568241],[-78.132216654863427,-0.148116379248262],[-78.132217413748904,-0.14811485082877],[-78.132217413748904,-0.14811485082877]]]}},
{"type":"Feature","properties":{"capa_cad":"TOP-GPS","color":"#000000"},"geometry":{"type":"MultiLineString","coordinates":[[[-78.132216653007063,-0.148099567568241],[-78.132216654863427,-0.148116379248262],[-78.132215893784064,-0.148098039318642],[-78.132216653007063,-0.148099567568241]],[[-78.132216654863427,-0.148116379248262],[-78.132215893784064,-0.148098039318642],[-78.132215895893594,-0.148117143500481],[-78.132216654863427,-0.148116379248262],[-78.132216654863427,-0.148116379248262]]]}},
{"type":"Feature","properties":{"capa_cad":"TOP-GPS","color":"#000000"},"geometry":{"type":"MultiLineString","coordinates":[[[-78.132215893784064,-0.148098039318642],[-78.132215895893594,-0.148117143500481],[-78.132214375506862,-0.148096511154007],[-78.132215893784064,-0.148098039318642]],[[-78.132215895893594,-0.148117143500481],[-78.132214375506862,-0.148096511154007],[-78.1322143779539,-0.148118672004916],[-78.132215895893594,-0.148117143500481],[-78.132215895893594,-0.148117143500481]]]}},
{"type":"Feature","properties":{"capa_cad":"TOP-GPS","color":"#000000"},"geometry":{"type":"MultiLineString","coordinates":[[[-78.132214375506862,-0.148096511154007],[-78.1322143779539,-0.148118672004916],[-78.132213616368247,-0.148095747071699],[-78.132214375506862,-0.148096511154007]],[[-78.1322143779539,-0.148118672004916],[-78.132213616368247,-0.148095747071699],[-78.132213618984068,-0.148119436257132],[-78.1322143779539,-0.148118672004916],[-78.1322143779539,-0.148118672004916]]]}},
{"type":"Feature","properties":{"capa_cad":"TOP-GPS","color":"#000000"},"geometry":{"type":"MultiLineString","coordinates":[[[-78.132213616368247,-0.148095747071699],[-78.132213618984068,-0.148119436257132],[-78.13221209817543,-0.148094983074338],[-78.132213616368247,-0.148095747071699]],[[-78.132213618984068,-0.148119436257132],[-78.13221209817543,-0.148094983074338],[-78.132212100960004,-0.148120200594276],[-78.132213618984068,-0.148119436257132],[-78.132213618984068,-0.148119436257132]]]}},
{"type":"Feature","properties":{"capa_cad":"TOP-GPS","color":"#000000"},"geometry":{"type":"MultiLineString","coordinates":[[[-78.13221209817543,-0.148094983074338],[-78.132212100960004,-0.148120200594276],[-78.132210579982612,-0.148094219076995],[-78.13221209817543,-0.148094983074338]],[[-78.132212100960004,-0.148120200594276],[-78.132210579982612,-0.148094219076995],[-78.132210582935954,-0.148120964931434],[-78.132212100960004,-0.148120200594276],[-78.132212100960004,-0.148120200594276]]]}},
{"type":"Feature","properties":{"capa_cad":"TOP-GPS","color":"#000000"},"geometry":{"type":"MultiLineString","coordinates":[[[-78.132210579982612,-0.148094219076995],[-78.132210582935954,-0.148120964931434],[-78.132209061789794,-0.148093455079638],[-78.132210579982612,-0.148094219076995]],[[-78.132210582935954,-0.148120964931434],[-78.132209061789794,-0.148093455079638],[-78.132209064911891,-0.148121729268573],[-78.132210582935954,-0.148120964931434],[-78.132210582935954,-0.148120964931434]]]}},
{"type":"Feature","properties":{"capa_cad":"TOP-GPS","color":"#000000"},"geometry":{"type":"MultiLineString","coordinates":[[[-78.132209061789794,-0.148093455079638],[-78.132209064911891,-0.148121729268573],[-78.132207543681389,-0.148093455249548],[-78.132209061789794,-0.148093455079638]],[[-78.132209064911891,-0.148121729268573],[-78.132207543681389,-0.148093455249548],[-78.132207546887841,-0.148122493605727],[-78.132209064911891,-0.148121729268573],[-78.132209064911891,-0.148121729268573]]]}},
{"type":"Feature","properties":{"capa_cad":"TOP-GPS","color":"#000000"},"geometry":{"type":"MultiLineString","coordinates":[[[-78.132207543681389,-0.148093455249548],[-78.132207546887841,-0.148122493605727],[-78.132206025488571,-0.14809269125221],[-78.132207543681389,-0.148093455249548]],[[-78.132207546887841,-0.148122493605727],[-78.132206025488571,-0.14809269125221],[-78.132206028779407,-0.148122493775598],[-78.132207546887841,-0.148122493605727],[-78.132207546887841,-0.148122493605727]]]}},
{"type":"Feature","properties":{"capa_cad":"TOP-GPS","color":"#000000"},"geometry":{"type":"MultiLineString","coordinates":[[[-78.132206025488571,-0.14809269125221],[-78.132206028779407,-0.148122493775598],[-78.132204507380152,-0.148092691422121],[-78.132206025488571,-0.14809269125221]],[[-78.132206028779407,-0.148122493775598],[-78.132204507380152,-0.148092691422121],[-78.132204510670988,-0.148122493945486],[-78.132206028779407,-0.148122493775598],[-78.132206028779407,-0.148122493775598]]]}},
{"type":"Feature","properties":{"capa_cad":"TOP-GPS","color":"#000000"},"geometry":{"type":"MultiLineString","coordinates":[[[-78.132204507380152,-0.148092691422121],[-78.132204510670988,-0.148122493945486],[-78.132202989271732,-0.148092691592048],[-78.132204507380152,-0.148092691422121]],[[-78.132204510670988,-0.148122493945486],[-78.132202989271732,-0.148092691592048],[-78.132202992562569,-0.148122494115357],[-78.132204510670988,-0.148122493945486],[-78.132204510670988,-0.148122493945486]]]}},
{"type":"Feature","properties":{"capa_cad":"TOP-GPS","color":"#000000"},"geometry":{"type":"MultiLineString","coordinates":[[[-78.132202989271732,-0.148092691592048],[-78.132202992562569,-0.148122494115357],[-78.132201471247697,-0.14809345592922],[-78.132202989271732,-0.148092691592048]],[[-78.132202992562569,-0.148122494115357],[-78.132201471247697,-0.14809345592922],[-78.132201474454163,-0.148122494285244],[-78.132202992562569,-0.148122494115357],[-78.132202992562569,-0.148122494115357]]]}},
{"type":"Feature","properties":{"capa_cad":"TOP-GPS","color":"#000000"},"geometry":{"type":"MultiLineString","coordinates":[[[-78.132201471247697,-0.14809345592922],[-78.132201474454163,-0.148122494285244],[-78.132199194085089,-0.148093456184092],[-78.132201471247697,-0.14809345592922]],[[-78.132201474454163,-0.148122494285244],[-78.132199194085089,-0.148093456184092],[-78.132199197207171,-0.148121730372799],[-78.132201474454163,-0.148122494285244],[-78.132201474454163,-0.148122494285244]]]}},
{"type":"Feature","properties":{"capa_cad":"TOP-GPS","color":"#000000"},"geometry":{"type":"MultiLineString","coordinates":[[[-78.132199194085089,-0.148093456184092],[-78.132199197207171,-0.148121730372799],[-78.132198435115271,-0.148094220436314],[-78.132199194085089,-0.148093456184092]],[[-78.132199197207171,-0.148121730372799],[-78.132198435115271,-0.148094220436314],[-78.132198438068585,-0.148120966290467],[-78.132199197207171,-0.148121730372799],[-78.132199197207171,-0.148121730372799]]]}},
{"type":"Feature","properties":{"capa_cad":"TOP-GPS","color":"#000000"},"geometry":{"type":"MultiLineString","coordinates":[[[-78.132198435115271,-0.148094220436314],[-78.132198438068585,-0.148120966290467],[-78.13219691709125,-0.148094984773497],[-78.132198435115271,-0.148094220436314]],[[-78.132198438068585,-0.148120966290467],[-78.13219691709125,-0.148094984773497],[-78.13219691987581,-0.148120202293098],[-78.132198438068585,-0.148120966290467],[-78.132198438068585,-0.148120966290467]]]}},
{"type":"Feature","properties":{"capa_cad":"TOP-GPS","color":"#000000"},"geometry":{"type":"MultiLineString","coordinates":[[[-78.13219691709125,-0.148094984773497],[-78.13219691987581,-0.148120202293098],[-78.132195399067228,-0.148095749110661],[-78.13219691709125,-0.148094984773497]],[[-78.13219691987581,-0.148120202293098],[-78.132195399067228,-0.148095749110661],[-78.13219540168302,-0.148119438295714],[-78.13219691987581,-0.148120202293098],[-78.13219691987581,-0.148120202293098]]]}},
{"type":"Feature","properties":{"capa_cad":"TOP-GPS","color":"#000000"},"geometry":{"type":"MultiLineString","coordinates":[[[-78.132195399067228,-0.148095749110661],[-78.13219540168302,-0.148119438295714],[-78.132193881043221,-0.14809651344784],[-78.132195399067228,-0.148095749110661]],[[-78.13219540168302,-0.148119438295714],[-78.132193881043221,-0.14809651344784],[-78.132193883490231,-0.148118674298332],[-78.13219540168302,-0.148119438295714],[-78.13219540168302,-0.148119438295714]]]}},
{"type":"Feature","properties":{"capa_cad":"TOP-GPS","color":"#000000"},"geometry":{"type":"MultiLineString","coordinates":[[[-78.132193881043221,-0.14809651344784],[-78.132193883490231,-0.148118674298332],[-78.132193122157787,-0.148098041867312],[-78.132193881043221,-0.14809651344784]],[[-78.132193883490231,-0.148118674298332],[-78.132193122157787,-0.148098041867312],[-78.132193124267289,-0.148117146048767],[-78.132193883490231,-0.148118674298332],[-78.132193883490231,-0.148118674298332]]]}},
{"type":"Feature","properties":{"capa_cad":"TOP-GPS","color":"#000000"},"geometry":{"type":"MultiLineString","coordinates":[[[-78.132193122157787,-0.148098041867312],[-78.132193124267289,-0.148117146048767],[-78.132192363272367,-0.148099570286782],[-78.132193122157787,-0.148098041867312]],[[-78.132193124267289,-0.148117146048767],[-78.132192363272367,-0.148099570286782],[-78.132192365128731,-0.148116381966442],[-78.132193124267289,-0.148117146048767],[-78.132193124267289,-0.148117146048767]]]}},
{"type":"Feature","properties":{"capa_cad":"TOP-GPS","color":"#000000"},"geometry":{"type":"MultiLineString","coordinates":[[[-78.132192363272367,-0.148099570286782],[-78.132192365128731,-0.148116381966442],[-78.13219084533273,-0.148101098791207],[-78.132192363272367,-0.148099570286782]],[[-78.132192365128731,-0.148116381966442],[-78.13219084533273,-0.148101098791207],[-78.132190846851572,-0.148114853801813],[-78.132192365128731,-0.148116381966442],[-78.132192365128731,-0.148116381966442]]]}},
{"type":"Feature","properties":{"capa_cad":"TOP-GPS","color":"#000000"},"geometry":{"type":"MultiLineString","coordinates":[[[-78.13219084533273,-0.148101098791207],[-78.132190846851572,-0.148114853801813],[-78.132190845417114,-0.148101862958461],[-78.13219084533273,-0.148101098791207]],[[-78.132190846851572,-0.148114853801813],[-78.132190845417114,-0.148101862958461],[-78.132190846682818,-0.148113325467305],[-78.132190846851572,-0.148114853801813],[-78.132190846851572,-0.148114853801813]]]}},
{"type":"Feature","properties":{"capa_cad":"TOP-GPS","color":"#000000"},"geometry":{"type":"MultiLineString","coordinates":[[[-78.132190845417114,-0.148101862958461],[-78.132190846682818,-0.148113325467305],[-78.132190086531679,-0.148103391377925],[-78.132190845417114,-0.148101862958461]],[[-78.132190846682818,-0.148113325467305],[-78.132190086531679,-0.148103391377925],[-78.132190087459861,-0.14811179721773],[-78.132190846682818,-0.148113325467305],[-78.132190846682818,-0.148113325467305]]]}},
{"type":"Feature","properties":{"capa_cad":"TOP-GPS","color":"#000000"},"geometry":{"type":"MultiLineString","coordinates":[[[-78.132190086531679,-0.148103391377925],[-78.132190087459861,-0.14811179721773],[-78.132189327730629,-0.14810568396464],[-78.132190086531679,-0.148103391377925]],[[-78.132190087459861,-0.14811179721773],[-78.132189327730629,-0.14810568396464],[-78.132189328236905,-0.148110268968175],[-78.132190087459861,-0.14811179721773],[-78.132190087459861,-0.14811179721773]]]}},
{"type":"Feature","properties":{"capa_cad":"TOP-GPS","color":"#000000"},"geometry":{"type":"MultiLineString","coordinates":[[[-78.132189327730629,-0.14810568396464],[-78.132189328236905,-0.148110268968175],[-78.132189327899397,-0.148107212299146],[-78.132189327730629,-0.14810568396464]],[[-78.132189328236905,-0.148110268968175],[-78.132189327899397,-0.148107212299146],[-78.132189328068151,-0.148108740633669],[-78.132189328236905,-0.148110268968175],[-78.132189328236905,-0.148110268968175]]]}},
{"type":"Feature","properties":{"capa_cad":"TOP-GPS","color":"#000000"},"geometry":{"type":"MultiLineString","coordinates":[[[-78.132204886991644,-0.148093455546911],[-78.132206400373036,-0.148093532311071],[-78.132207870054529,-0.148093757953794],[-78.132209288595192,-0.148094124985664],[-78.132210648554135,-0.148094625917354],[-78.132211942490429,-0.148095253259466],[-78.132213162963154,-0.148095999522654],[-78.132214302531423,-0.148096857217522],[-78.132215353754319,-0.148097818854739],[-78.132216309190909,-0.148098876944908],[-78.132217161400305,-0.148100023998683],[-78.132217902941576,-0.148101252526667],[-78.132218526373833,-0.148102555039512],[-78.132219024256145,-0.148103924047856],[-78.132219389147608,-0.148105352062316],[-78.132219613607305,-0.148106831593512],[-78.132219690194347,-0.148108355152098],[-78.132219613943775,-0.148109878727785],[-78.132219389810828,-0.148111358309193],[-78.132219025234747,-0.148112786405277],[-78.132218527654771,-0.148114155525013],[-78.132217904510185,-0.148115458177373],[-78.132217163240242,-0.148116686871315],[-78.132216311284196,-0.148117834115798],[-78.132215356081275,-0.148118892419812],[-78.132214305070789,-0.148119854292282],[-78.132213165691979,-0.148120712242215],[-78.132211945384071,-0.148121458778553],[-78.132210651586362,-0.14812208641027],[-78.132209291738079,-0.148122587646342],[-78.132207873278503,-0.148122954995727],[-78.132206403646876,-0.148123180967383],[-78.132204890282466,-0.148123258070286],[-78.132203376901074,-0.148123181306069],[-78.132201907219596,-0.148122955663326],[-78.132200488678947,-0.148122588631405],[-78.132199128720032,-0.148122087699702],[-78.132197834783767,-0.148121460357566],[-78.13219661431107,-0.14812071409436],[-78.132195474742844,-0.148119856399464],[-78.132194423519991,-0.148118894762242],[-78.132193468083429,-0.148117836672075],[-78.132192615874061,-0.148116689618327],[-78.132191874332833,-0.148115461090343],[-78.132191250900604,-0.14811415857752],[-78.132190753018307,-0.148112789569222],[-78.132190388126872,-0.148111361554795],[-78.132190163667175,-0.148109882023635],[-78.132190087080161,-0.148108358465089],[-78.132190163330719,-0.148106834889441],[-78.132190387463652,-0.148105355308071],[-78.132190752039733,-0.148103927212021],[-78.132191249619666,-0.148102558092298],[-78.132191872764224,-0.148101255439962],[-78.132192614034153,-0.148100026746055],[-78.132193465990156,-0.148098879501567],[-78.132194421193034,-0.148097821197574],[-78.132195472203477,-0.148096859325085],[-78.132196611582273,-0.148096001375159],[-78.132197831890139,-0.148095254838788],[-78.132199125687819,-0.148094627207048],[-78.132200485536075,-0.148094125970964],[-78.132201903995636,-0.148093758621546],[-78.132203373627235,-0.148093532649853],[-78.132204886991644,-0.148093455546911]]]}}
]
}
