{
"type": "FeatureCollection",
"name": "hidrografia",
"crs": { "type": "name", "properties": { "name": "urn:ogc:def:crs:OGC:1.3:CRS84" } },
"features": [
{"type":"Feature","properties":{"capa_cad":"ACAD-TOP-BASE PRESA POROTOG-Model|TOP-CANAL","color":"#FF7F00"},"geometry":{"type":"LineString","coordinates":[[-78.139411891866786,-0.142636458776678],[-78.139127991450707,-0.142528743762208],[-78.139023233589697,-0.142461508908401],[-78.138886586790434,-0.142320917315285],[-78.138793969716389,-0.142217764998765],[-78.138662634376729,-0.142060361062075],[-78.138588233101657,-0.141943451555585],[-78.138559370253816,-0.141782978925072],[-78.138495585995486,-0.141582009329949],[-78.138316424964287,-0.141381817554889],[-78.138084878139836,-0.14108916731797],[-78.137939880502685,-0.140938642764206],[-78.137822210195537,-0.140798813401632],[-78.137530685241813,-0.140399186612529],[-78.137457796253543,-0.14023337021515],[-78.137384140187947,-0.139999542732434],[-78.137356770897611,-0.139632744040179],[-78.137372688182253,-0.139438642765028],[-78.137372671648635,-0.139298799519015],[-78.137360500223778,-0.139074898949667],[-78.137318729872575,-0.138887682139704],[-78.137324783280377,-0.13872720556011],[-78.137412808496009,-0.13851322714381],[-78.137349774794274,-0.138245010814905],[-78.137257143368316,-0.138023412509502],[-78.137209302222246,-0.137851479903278],[-78.137188788666592,-0.137692534897196],[-78.137219127342973,-0.137495375189064],[-78.137282111957546,-0.137352467618519],[-78.137433142156624,-0.13716751992079],[-78.137351898402216,-0.136962732054497]]}},
{"type":"Feature","properties":{"capa_cad":"ACAD-TOP-BASE PRESA POROTOG-Model|TOP-CANAL","color":"#FF7F00"},"geometry":{"type":"LineString","coordinates":[[-78.139411892749266,-0.142644100497772],[-78.139124956010932,-0.142535621665094],[-78.139017920798182,-0.142466858733978],[-78.13888127391175,-0.142325502969076],[-78.138787897691643,-0.142221586570042],[-78.138656562353233,-0.142064182633716],[-78.138580642785087,-0.141945744963026],[-78.138551020613207,-0.141782979908312],[-78.138490273032744,-0.141585830814018],[-78.138311112003066,-0.14138563903925],[-78.138078806301252,-0.14109451723513],[-78.13793532669186,-0.140943228330491],[-78.137816897238594,-0.140802634886944],[-78.137526131255456,-0.140402243837558],[-78.137452483210481,-0.140236427531001],[-78.137377308761316,-0.140000307718009],[-78.137349180414134,-0.139633509118696],[-78.137365097518256,-0.139437879503384],[-78.137365840132347,-0.139298800338048],[-78.137353668979259,-0.139077192282209],[-78.137311898538044,-0.13888921130259],[-78.13731719261645,-0.138726442303226],[-78.137406735582502,-0.138509407022201],[-78.137345220905829,-0.13824883221876],[-78.137250312035562,-0.138024941677476],[-78.137202470890045,-0.137853009072206],[-78.137182716391962,-0.137694063974973],[-78.13721229573656,-0.137494611848228],[-78.137274521476812,-0.137353232712188],[-78.1374270694225,-0.137165228147851],[-78.137345066886738,-0.136962732887546]]}},
{"type":"Feature","properties":{"capa_cad":"ACAD-TOP-BASE PRESA POROTOG-Model|TOP-RIO","color":"#007FFF"},"geometry":{"type":"LineString","coordinates":[[-78.135206804553818,-0.136962993532242],[-78.135280451246459,-0.137115054258961],[-78.135130172497654,-0.137234282953257],[-78.135105915046907,-0.137504037642353],[-78.135108229417128,-0.137815054239765],[-78.135017942995944,-0.13816046963933],[-78.134985312703336,-0.138236890495831],[-78.134921575488889,-0.138434053820108],[-78.134862413346909,-0.138806211288015],[-78.13486167367644,-0.138969743557416],[-78.134792632440039,-0.13924714520187],[-78.134872364966128,-0.13951535899301],[-78.134933868305438,-0.139683468843096],[-78.135052354870282,-0.140311601768357],[-78.135031130057101,-0.140556902598932],[-78.135011413474999,-0.14071814463322],[-78.135090395632446,-0.141063539758016]]}},
{"type":"Feature","properties":{"capa_cad":"ACAD-TOP-BASE PRESA POROTOG-Model|TOP-RIO","color":"#007FFF"},"geometry":{"type":"LineString","coordinates":[[-78.135221985670867,-0.136962991682418],[-78.135289561018581,-0.137124223182394],[-78.135159779800034,-0.13726866696985],[-78.135150701352984,-0.137520843930346],[-78.13515225575054,-0.137824218939429],[-78.135084739267228,-0.138155112386429],[-78.135061219281141,-0.138245287193429],[-78.134985339805027,-0.138464612899601],[-78.134942874157872,-0.1388138433065],[-78.134881441953866,-0.139247134560154],[-78.134932329917632,-0.139511530976036],[-78.135009016448464,-0.139697214911785],[-78.135136606396884,-0.140280260811438],[-78.135039479850406,-0.14055842994632],[-78.135048607390416,-0.140719668562603],[-78.135098745158245,-0.141062774601544]]}},
{"type":"Feature","properties":{"capa_cad":"ACAD-TOP-BASE PRESA POROTOG-Model|TOP-RIO","color":"#007FFF"},"geometry":{"type":"LineString","coordinates":[[-78.135211358888895,-0.136962992977299],[-78.135283487928945,-0.1371188747361],[-78.135140802762862,-0.137263320092271],[-78.135139315881631,-0.137523901989087],[-78.135145422604538,-0.137810464720199],[-78.135043001214143,-0.138239176039126],[-78.134958010254152,-0.138434813597181]]}},
{"type":"Feature","properties":{"capa_cad":"ACAD-TOP-BASE PRESA POROTOG-Model|TOP-RIO","color":"#007FFF"},"geometry":{"type":"LineString","coordinates":[[-78.135133970068793,-0.137253386722748],[-78.135110469564722,-0.137505565428041],[-78.135131759508312,-0.137809702205569],[-78.135049823884728,-0.138165050803607],[-78.134949661004725,-0.138437871280162]]}},
{"type":"Feature","properties":{"capa_cad":"ACAD-TOP-BASE PRESA POROTOG-Model|TOP-RIO","color":"#007FFF"},"geometry":{"type":"LineString","coordinates":[[-78.135098745158245,-0.141062774601544],[-78.134975042836217,-0.1412668223889],[-78.134840691119066,-0.141276772447208],[-78.134696480768383,-0.141364668899394],[-78.134676762210546,-0.141509863324284],[-78.134756470161392,-0.141570987451829],[-78.134669952904062,-0.141700906360883],[-78.134610001874577,-0.141824708775971],[-78.134543212337547,-0.141888142641653],[-78.134568269407737,-0.141959207402438],[-78.134557661034705,-0.142118155771331],[-78.134713287236863,-0.142289311365868],[-78.134793771325604,-0.142498684248798],[-78.134799097762283,-0.142611780641236],[-78.134924352099475,-0.14269964545031],[-78.134966879644125,-0.142876927722832],[-78.135108841648147,-0.143038150871745],[-78.135129353279368,-0.143187161484774],[-78.135265235100164,-0.14328113849958],[-78.135250066074178,-0.143386595630655],[-78.135265256042572,-0.143463774968433],[-78.135174173516916,-0.143500465671485],[-78.135183294352231,-0.143606684142576],[-78.135104358210185,-0.143656364299424],[-78.135018601400802,-0.143800802216782],[-78.13520690482396,-0.14430513214043],[-78.135146947135979,-0.144373150122923],[-78.13516140177471,-0.144659711930352],[-78.135191032528724,-0.144902714353082],[-78.135102999854951,-0.145060143325607],[-78.134904896275131,-0.145148809667112],[-78.13496716295802,-0.145362005717332],[-78.134813079784806,-0.145407873494161],[-78.134817652912758,-0.145574461820324],[-78.13477288859022,-0.145751754143911],[-78.134903451708283,-0.14580064606772],[-78.134896637567124,-0.145955009000465],[-78.134930052941527,-0.146105546507901],[-78.134949794916238,-0.146163621114549],[-78.134921722447118,-0.146275957165925],[-78.134960442525738,-0.146349313001794],[-78.135054573435184,-0.146420370044541],[-78.135111520605435,-0.146580839117801],[-78.135061429656233,-0.146641214164065],[-78.135260318847273,-0.146788676303059],[-78.135324101065535,-0.146981239764016],[-78.135476685270262,-0.147105782138851],[-78.135535904521205,-0.147221165047107],[-78.135530601417699,-0.147313630156445],[-78.135595134811112,-0.147435890008113],[-78.135600467220755,-0.147607063388447],[-78.135712063024911,-0.14773772383991],[-78.135954958600465,-0.147714771443399],[-78.135983077820299,-0.148022728717451],[-78.136019516771682,-0.148060933122372],[-78.136084022471621,-0.147933309518864],[-78.136291238815389,-0.147877501847442],[-78.136371708418054,-0.147963844028949],[-78.136447614542377,-0.14796765636048],[-78.136525033538561,-0.147924089971353],[-78.13660245905713,-0.147939364683103],[-78.136720103012692,-0.147849943549493],[-78.136820301110617,-0.147872857403689],[-78.136995636239831,-0.147808647385862],[-78.137068511937457,-0.147864423644579],[-78.137101164616837,-0.14798363058435],[-78.137188460122346,-0.148018772634319],[-78.137252227301516,-0.14807607827838],[-78.137359257723247,-0.148105868931143],[-78.137413155636864,-0.148149420620606],[-78.137527774452437,-0.148159341990923],[-78.137634048376043,-0.148212057869889],[-78.137718310388649,-0.148271653762965],[-78.137791937317516,-0.148256362094462],[-78.137855707307125,-0.148338885425517]]}},
{"type":"Feature","properties":{"capa_cad":"ACAD-TOP-BASE PRESA POROTOG-Model|TOP-RIO","color":"#007FFF"},"geometry":{"type":"LineString","coordinates":[[-78.137796500785484,-0.148338892054715],[-78.13776385774807,-0.14830680052713],[-78.137687192562254,-0.148303752429097],[-78.137621906069896,-0.148235748529051],[-78.137519430648368,-0.148212070714779],[-78.13742530351827,-0.14817616523606],[-78.137350910794751,-0.148130323330737],[-78.137193024870896,-0.148112765109271],[-78.137158861700868,-0.148062333680293],[-78.13708522974072,-0.14803177511797],[-78.137018422615171,-0.147940846323098],[-78.136984261983983,-0.147913340021075],[-78.136817271147507,-0.147929406351834],[-78.136717829144217,-0.147879746446994],[-78.136618400611425,-0.147951589617325],[-78.136528072052329,-0.147944722225103],[-78.136446857516063,-0.147985996528476],[-78.136369432347109,-0.147973778495379],[-78.136292759723219,-0.147902719287399],[-78.136091613885853,-0.147940950365663],[-78.136022554858542,-0.148077744518239],[-78.13595802751081,-0.148009740640546],[-78.135926117921315,-0.147746105646818],[-78.135697643153989,-0.147757593870907],[-78.135578455177409,-0.147612415051795],[-78.135573122768832,-0.147441241674745],[-78.135512384829326,-0.147320509736111],[-78.135517687337824,-0.147222695441837],[-78.135466059928859,-0.147118774219888],[-78.135303607654848,-0.146991176282385],[-78.13524361995232,-0.146791734870857],[-78.135053080295876,-0.146643507617896],[-78.135100134165555,-0.146575491224342],[-78.135047742358665,-0.146424191665992],[-78.134959685096831,-0.14636383230128],[-78.134914890943492,-0.146275957942308],[-78.134937650277962,-0.146165915003327],[-78.134914872079804,-0.146107840742762],[-78.134879938336695,-0.145955010903003],[-78.134885994625932,-0.14581134642609],[-78.134753152708257,-0.145747935550876],[-78.134800194197155,-0.145570642970044],[-78.134799415744254,-0.14539870502916],[-78.134934521394612,-0.145342905225468],[-78.134880604670954,-0.145132764901268],[-78.135088576233173,-0.145046389934476],[-78.135165986275837,-0.144925642308151],[-78.13514470349574,-0.1446681197138],[-78.135131006872115,-0.144372387792097],[-78.135181856321395,-0.144308191708004],[-78.134983683954573,-0.143793164569772],[-78.135100561268914,-0.143641845524445],[-78.135159004296582,-0.143604394452592],[-78.135155195803023,-0.14348900533586],[-78.13524779617623,-0.143450021948327],[-78.135234125984127,-0.143387361652264],[-78.135240189756431,-0.143311708185032],[-78.135111137514855,-0.143200918650797],[-78.135079997696991,-0.143039682570599],[-78.134950939470798,-0.1428769295821],[-78.134916003277723,-0.142706523947327],[-78.134756590464406,-0.142610257270847],[-78.134768723015227,-0.142503272192579],[-78.134533372317549,-0.142127328646247],[-78.13456219802552,-0.14196837814176],[-78.134528790990601,-0.141894257686763],[-78.134600132999523,-0.14181477574049],[-78.134660842905632,-0.14168944489882],[-78.134743566925039,-0.141577102323442],[-78.134660822575242,-0.141514450216021],[-78.134695719933887,-0.141349385610053],[-78.134832339992855,-0.141263782559206],[-78.134969727843128,-0.141253067971862],[-78.135090395632446,-0.141063539758016]]}},
{"type":"Feature","properties":{"capa_cad":"ACAD-TOP-BASE PRESA POROTOG-Model|TOP-RIO","color":"#007FFF"},"geometry":{"type":"LineString","coordinates":[[-78.13503416663842,-0.140559958915277],[-78.135028872206277,-0.140721963409545],[-78.135092672800155,-0.141063539488766],[-78.134971246844955,-0.141260709483914],[-78.134839172117552,-0.141269130936004],[-78.134694961767693,-0.141357027389032],[-78.134667653898262,-0.141512921073247],[-78.134748879959673,-0.141574045021759],[-78.134665397683051,-0.141693265207518],[-78.13460392845478,-0.141816303632078],[-78.134538658269932,-0.141890435683264],[-78.134565233982229,-0.141966085278681],[-78.134547793754365,-0.142121977772925],[-78.134781626874599,-0.142502506514339],[-78.134783157062785,-0.142607197490071],[-78.1349190396772,-0.142708051930914],[-78.134958530293318,-0.142879221204098],[-78.135095179167649,-0.143042737478812],[-78.135121763947765,-0.143197860737343],[-78.135252332812627,-0.143295659217299],[-78.135244752681601,-0.143386596248092],[-78.135253869237928,-0.143455370428244],[-78.135167341399836,-0.143495117279799],[-78.135169631081055,-0.143604393219793],[-78.135100561880989,-0.143647194708949],[-78.135001142764906,-0.14379774756237],[-78.135190205590192,-0.144305134067427],[-78.13513783837648,-0.144372387004195],[-78.135150775423639,-0.144663533999532],[-78.135181166011975,-0.144913413856338],[-78.135093890317449,-0.145052502678506],[-78.134888955150274,-0.145140405634692],[-78.134947425863473,-0.145347488763024],[-78.13480321102351,-0.145398704594917],[-78.134805506985074,-0.145565293179807],[-78.1347554299618,-0.14574869946002],[-78.134889789389561,-0.145806760978775],[-78.13488373361632,-0.14595501047062],[-78.134919426672909,-0.146110132731769],[-78.134941445300527,-0.146163622064308],[-78.134917168111357,-0.146275957683514],[-78.134960443981569,-0.146362303876833],[-78.135048501329123,-0.14642342741064],[-78.135106966439835,-0.146582367972639],[-78.135056116434683,-0.146642743104613],[-78.135251969399761,-0.146790205586971],[-78.135314992816674,-0.1469850616405],[-78.13546985435913,-0.147111132096666],[-78.135525277901763,-0.147222694585295],[-78.135523770335183,-0.147317451774291],[-78.135589821331038,-0.147435126437176],[-78.135592117684538,-0.147607828497395],[-78.135704473052769,-0.147743073880425],[-78.135938261641755,-0.147735405904842],[-78.135970932320717,-0.148017380891059],[-78.136021794871908,-0.148069338735191],[-78.136086299895894,-0.147935601772902],[-78.136292758453294,-0.147891256737197],[-78.136374745238328,-0.147969192878687],[-78.136452169561551,-0.147973769210311],[-78.136526552837807,-0.147934788183307],[-78.136611568081406,-0.14794242034145],[-78.136727694855409,-0.147861405251305],[-78.136845353727352,-0.147906478086849],[-78.136881787462244,-0.147897303950203],[-78.13698121999542,-0.147861376769666],[-78.137063204125027,-0.147914859496593],[-78.1370419540726,-0.147946957045168],[-78.137118627846675,-0.148027950517671],[-78.137177076628305,-0.148040170689041],[-78.137245399504152,-0.148109702553431],[-78.137351668161443,-0.148115039831126],[-78.137427579761663,-0.148167759102272],[-78.137545238274555,-0.148209011139188],[-78.137628736238597,-0.148223521029016],[-78.137719829940224,-0.148284644499422],[-78.137782831578505,-0.148283109100476],[-78.137833694625641,-0.148338887890234]]}},
{"type":"Feature","properties":{"capa_cad":"ACAD-TOP-BASE PRESA POROTOG-Model|TOP-PANTANO","color":"#007FFF"},"geometry":{"type":"LineString","coordinates":[[-78.139412124388826,-0.144665335728345],[-78.139403774567114,-0.144663808346546],[-78.139030330939988,-0.144780769683795],[-78.138632585751296,-0.144793806396372],[-78.138259874599612,-0.144674638568787],[-78.138292512623124,-0.144661643895436],[-78.138349432079352,-0.144574521796879],[-78.138394958261998,-0.144422446431824],[-78.138873919744356,-0.144384182550877],[-78.139151737291854,-0.144402490591298],[-78.139412119782023,-0.144624834606543]]}},
{"type":"Feature","properties":{"capa_cad":"ACAD-TOP-BASE PRESA POROTOG-Model|TOP-PANTANO","color":"#007FFF"},"geometry":{"type":"LineString","coordinates":[[-78.138292512623124,-0.144661643895436],[-78.138090564727491,-0.144323903477786],[-78.13769278675764,-0.144046555359398]]}},
{"type":"Feature","properties":{"capa_cad":"ACAD-TOP-BASE PRESA POROTOG-Model|TOP-PANTANO","color":"#007FFF"},"geometry":{"type":"LineString","coordinates":[[-78.134383731287329,-0.141204994520843],[-78.134364756949239,-0.141222572642249],[-78.134303275864994,-0.141243212455791],[-78.134266841118247,-0.141242452588141],[-78.134291126795176,-0.141207297961876],[-78.134358680588477,-0.141188949935632],[-78.134383731287329,-0.141204994520843]]}},
{"type":"Feature","properties":{"capa_cad":"ACAD-TOP-BASE PRESA POROTOG-Model|TOP-PANTANO","color":"#007FFF"},"geometry":{"type":"LineString","coordinates":[[-78.135771334829002,-0.141628944795039],[-78.135598300946285,-0.141895660349679],[-78.135859415268882,-0.141886459622533],[-78.136062806562975,-0.141577711084401],[-78.1360688772386,-0.141562426971564],[-78.135771334829002,-0.141628944795039]]}},
{"type":"Feature","properties":{"capa_cad":"ACAD-TOP-BASE PRESA POROTOG-Model|TOP-PANTANO","color":"#007FFF"},"geometry":{"type":"LineString","coordinates":[[-78.13540273817749,-0.137773753424446],[-78.135383001351386,-0.137762293274199],[-78.135367815206791,-0.137720265796599],[-78.135380713675048,-0.137674414068379],[-78.135372360585436,-0.137645376643394],[-78.135411827748158,-0.137614040910717],[-78.135450543354054,-0.137645367163026],[-78.135479363695055,-0.13744667960249],[-78.135559069251627,-0.137485642569578],[-78.135623588655761,-0.137482578058154],[-78.135631189100735,-0.137565107450609],[-78.135609943028882,-0.137627771933435],[-78.135564402953136,-0.137655287560082],[-78.13544978859457,-0.137681283219347],[-78.135443723091541,-0.137739360833588],[-78.13540273817749,-0.137773753424446]]}},
{"type":"Feature","properties":{"capa_cad":"ACAD-TOP-BASE PRESA POROTOG-Model|TOP-PANTANO","color":"#007FFF"},"geometry":{"type":"LineString","coordinates":[[-78.13323402911162,-0.137038122295166],[-78.133239338547213,-0.137005262425937],[-78.133257555856218,-0.137005260208318],[-78.133269702656378,-0.137021306257653],[-78.133262115230778,-0.137047288892955],[-78.13323402911162,-0.137038122295166]]}},
{"type":"Feature","properties":{"capa_cad":"ACAD-TOP-BASE PRESA POROTOG-Model|TOP-PANTANO","color":"#007FFF"},"geometry":{"type":"LineString","coordinates":[[-78.133152812756734,-0.137058764713003],[-78.133149015741139,-0.137044245984591],[-78.13313307477145,-0.13703737041332],[-78.133124726273408,-0.137046541444115],[-78.133152812756734,-0.137058764713003]]}},
{"type":"Feature","properties":{"capa_cad":"ACAD-TOP-BASE PRESA POROTOG-Model|TOP-CANAL","color":"#FF7F00"},"geometry":{"type":"LineString","coordinates":[[-78.13416999450989,-0.137461357775051],[-78.134159366822431,-0.137453717378955],[-78.134146465263882,-0.137473587328159],[-78.134156333804441,-0.137480463647895],[-78.13416999450989,-0.137461357775051]]}},
{"type":"Feature","properties":{"capa_cad":"ACAD-TOP-BASE PRESA POROTOG-Model|TOP-CANAL","color":"#FF7F00"},"geometry":{"type":"LineString","coordinates":[[-78.134135841327989,-0.137497277843451],[-78.13412976824641,-0.137491929400281],[-78.134120660773988,-0.137501864696803],[-78.134126733855467,-0.137507213139969],[-78.134135841327989,-0.137497277843451]]}},
{"type":"Feature","properties":{"capa_cad":"ACAD-TOP-BASE PRESA POROTOG-Model|TOP-RIO","color":"#007FFF"},"geometry":{"type":"LineString","coordinates":[[-78.136561514170836,-0.148339030296085],[-78.136558470937288,-0.148275604509943],[-78.13643700710837,-0.14814265250843],[-78.136446857516063,-0.147985996528476]]}},
{"type":"Feature","properties":{"capa_cad":"ACAD-TOP-BASE PRESA POROTOG-Model|TOP-RIO","color":"#007FFF"},"geometry":{"type":"LineString","coordinates":[[-78.134410247799366,-0.147431438452179],[-78.134439845025824,-0.147377943304722],[-78.134474757934527,-0.147345080112999],[-78.134560529107503,-0.147325966225928],[-78.134678181820973,-0.147317547106765],[-78.134801142922029,-0.147264041414524],[-78.134880077935748,-0.147202898986565],[-78.134910438643359,-0.147189140517173],[-78.134927133450148,-0.147149401839724],[-78.134971917244073,-0.14714481176963],[-78.135009863831172,-0.147089023137104],[-78.135056919771046,-0.147039346825071],[-78.135063747186194,-0.147002665932185],[-78.135072853473076,-0.146981268165303],[-78.135078161410178,-0.146932360736024],[-78.13511611481205,-0.146937705628907],[-78.135135846945772,-0.146907900797047],[-78.135171522157876,-0.146904075915712],[-78.135200373965219,-0.146972847888413],[-78.13526565867808,-0.14702556819202],[-78.135303607654848,-0.146991176282385]]}},
{"type":"Feature","properties":{"capa_cad":"ACAD-TOP-BASE PRESA POROTOG-Model|TOP-RIO","color":"#007FFF"},"geometry":{"type":"LineString","coordinates":[[-78.138259874599612,-0.144674638568787],[-78.138073107960892,-0.144337660576115],[-78.1376935461644,-0.144049611955379],[-78.137657848446693,-0.143857045009115],[-78.137489321387235,-0.143714928765965],[-78.137157565176523,-0.143295437588816],[-78.136872141212748,-0.14313499501406],[-78.136730198586903,-0.143144181593316],[-78.1366155733336,-0.143077712133693],[-78.136502480260944,-0.143133509735007],[-78.13627323253364,-0.143024260125116],[-78.136026546758657,-0.14309077165611],[-78.135956725582886,-0.143195471052738],[-78.135831480118114,-0.14318555142506],[-78.135691826194233,-0.143294079767674],[-78.135566584967776,-0.143320840267344],[-78.135506619609828,-0.143321611409286],[-78.13549448145865,-0.143380453871347],[-78.135369240076017,-0.143405686016968],[-78.135253863632428,-0.143406463591894]]}},
{"type":"Feature","properties":{"capa_cad":"ACAD-TOP-BASE PRESA POROTOG-Model|TOP-RIO","color":"#007FFF"},"geometry":{"type":"LineString","coordinates":[[-78.135251585237683,-0.143395765486038],[-78.135368480494193,-0.143401101088797],[-78.13548005851375,-0.143372813852774],[-78.135498269377393,-0.143316263193741],[-78.135567342708967,-0.143309377636151],[-78.13568954841125,-0.143288730845242],[-78.135832238911277,-0.143183258827584],[-78.135954448325464,-0.143194707148019],[-78.136028063642073,-0.143080073101507],[-78.136274749328763,-0.143012797398085],[-78.136506274228083,-0.143122046740529],[-78.13661633107256,-0.143066249491732],[-78.136730956326517,-0.143132718950242],[-78.136875935532316,-0.143126588697439],[-78.137163637196664,-0.14329161602916],[-78.137492356130494,-0.143701937509761],[-78.137662402530793,-0.143854751968469],[-78.137700376898721,-0.144042733626136],[-78.137969093490796,-0.14413134637799],[-78.138130029211524,-0.144266586074914],[-78.138352466921148,-0.144562294704439]]}},
{"type":"Feature","properties":{"capa_cad":"ACAD-TOP-BASE PRESA POROTOG-Model|TOP-RIO","color":"#007FFF"},"geometry":{"type":"LineString","coordinates":[[-78.138349432079352,-0.144574521796879],[-78.138109536648557,-0.144284164381636],[-78.137963784968449,-0.144174140576294],[-78.13769278675764,-0.144046555359398],[-78.137660125445038,-0.143855516403321],[-78.137490079482589,-0.14370652279889],[-78.137159842524056,-0.14329696566502],[-78.13687289983072,-0.143131174073611],[-78.136729438827217,-0.143138068319249],[-78.136616331687662,-0.143071598683366],[-78.136505515785984,-0.143127396020071],[-78.136273231830515,-0.143018146765094],[-78.136026546143796,-0.143085422467249],[-78.135955207469777,-0.143195471229461],[-78.135831479942581,-0.143184023085653],[-78.135690307818393,-0.143291787435404],[-78.135565825560803,-0.14331778367749],[-78.135502065009319,-0.143319319430377],[-78.135486131401819,-0.143376633994366],[-78.135368480844633,-0.143404157766384],[-78.135253103875513,-0.143400350325537]]}}
]
}
