{
"type": "FeatureCollection",
"name": "limite_proyecto",
"crs": { "type": "name", "properties": { "name": "urn:ogc:def:crs:OGC:1.3:CRS84" } },
"features": [
{"type":"Feature","properties":{"nombre":"LIMITE DE PROYECTO","fuente":"tabla de coordenadas del plano CCSPT-GEN-AMB-PL-DT-1000-R1","nota":"vertice 23 corregido: la tabla del consorcio lo situa a 2,5 km","area_ha":63.595},"geometry":{"type":"Polygon","coordinates":[[[-78.13406543674401,-0.146145122419563],[-78.133183353361986,-0.14609298924807],[-78.13269085165345,-0.145744428947879],[-78.131925220844025,-0.14509119751132],[-78.131245799204521,-0.143577850695307],[-78.131101198819565,-0.142543710082183],[-78.131124496920762,-0.142052747502308],[-78.131824433526347,-0.140476142199838],[-78.132460276201797,-0.139184049779723],[-78.135173212897428,-0.137033640873812],[-78.135427654388181,-0.137369094362548],[-78.135485218479175,-0.137783362673868],[-78.136512402969714,-0.13819619463574],[-78.136753486677705,-0.138400978373755],[-78.136979589191284,-0.138764494805005],[-78.137069267811214,-0.139098989316895],[-78.136933132024211,-0.140617779312696],[-78.137504685791512,-0.141246643513923],[-78.137722325767314,-0.141520261021244],[-78.138374940868417,-0.142628231601773],[-78.138598773687562,-0.143409219344202],[-78.137534611881676,-0.143846822787413],[-78.138082269653296,-0.144777062034744],[-78.138582836718811,-0.145745391731741],[-78.138526268545874,-0.146207456200607],[-78.1378664946877,-0.146728248882365],[-78.135752269123927,-0.147686978066218],[-78.135428390743741,-0.147814704090626],[-78.134674375956394,-0.146648284906958],[-78.13406543674401,-0.146145122419563]]]}}
]
}
