{
"type": "FeatureCollection",
"name": "limite_dibujado",
"crs": { "type": "name", "properties": { "name": "urn:ogc:def:crs:OGC:1.3:CRS84" } },
"features": [
{"type":"Feature","properties":{"capa_cad":"C3D-Volumen","color":"#DD0000"},"geometry":{"type":"MultiLineString","coordinates":[[[-78.136599738661573,-0.137510733821171],[-78.136590629888516,-0.137509970757005],[-78.136638384783666,-0.136962819050311],[-78.136599738661573,-0.137510733821171]],[[-78.136590629888516,-0.137509970757005],[-78.136638384783666,-0.136962819050311],[-78.136629276102056,-0.136962820160763],[-78.136590629888516,-0.137509970757005]]]}},
{"type":"Feature","properties":{"capa_cad":"C3D-Volumen","color":"#DD0000"},"geometry":{"type":"MultiLineString","coordinates":[[[-78.136599738661573,-0.137510733821171],[-78.136590629888516,-0.137509970757005],[-78.136589885290931,-0.137630709743692],[-78.136599738661573,-0.137510733821171]],[[-78.136590629888516,-0.137509970757005],[-78.136589885290931,-0.137630709743692],[-78.136580776517988,-0.137629946678552],[-78.136590629888516,-0.137509970757005]],[[-78.136589885290931,-0.137630709743692],[-78.136580776517988,-0.137629946678552],[-78.136577754646041,-0.137749921769922],[-78.136589885290931,-0.137630709743692]],[[-78.136580776517988,-0.137629946678552],[-78.136577754646041,-0.137749921769922],[-78.13656864587324,-0.137749158703848],[-78.136580776517988,-0.137629946678552]],[[-78.136577754646041,-0.137749921769922],[-78.13656864587324,-0.137749158703848],[-78.136563346818477,-0.137869134069399],[-78.136577754646041,-0.137749921769922]],[[-78.13656864587324,-0.137749158703848],[-78.136563346818477,-0.137869134069399],[-78.136554237954513,-0.137867606832165],[-78.13656864587324,-0.137749158703848]],[[-78.136563346818477,-0.137869134069399],[-78.136554237954513,-0.137867606832165],[-78.136545902660316,-0.137987582563054],[-78.136563346818477,-0.137869134069399]],[[-78.136554237954513,-0.137867606832165],[-78.136545902660316,-0.137987582563054],[-78.136537552944588,-0.137986819403213],[-78.136554237954513,-0.137867606832165],[-78.136554237954513,-0.137867606832165]]]}},
{"type":"Feature","properties":{"capa_cad":"C3D-Volumen","color":"#DD0000"},"geometry":{"type":"MultiLineString","coordinates":[[[-78.136537552944588,-0.137986819403213],[-78.136545902660316,-0.137987582563054],[-78.136504180064392,-0.138201555259784],[-78.136537552944588,-0.137986819403213]],[[-78.136545902660316,-0.137987582563054],[-78.136504180064392,-0.138201555259784],[-78.136514047346736,-0.138197733216746],[-78.136545902660316,-0.137987582563054]],[[-78.136504180064392,-0.138201555259784],[-78.136514047346736,-0.138197733216746],[-78.136753175831132,-0.138412436189156],[-78.136504180064392,-0.138201555259784]],[[-78.136514047346736,-0.138197733216746],[-78.136753175831132,-0.138412436189156],[-78.136747101374482,-0.138395625174635],[-78.136514047346736,-0.138197733216746]],[[-78.136753175831132,-0.138412436189156],[-78.136747101374482,-0.138395625174635],[-78.136811577488658,-0.138028815613639],[-78.136753175831132,-0.138412436189156]],[[-78.136747101374482,-0.138395625174635],[-78.136811577488658,-0.138028815613639],[-78.136803227770983,-0.138028052453413],[-78.136747101374482,-0.138395625174635]]]}},
{"type":"Feature","properties":{"capa_cad":"C3D-Volumen","color":"#DD0000"},"geometry":{"type":"MultiLineString","coordinates":[[[-78.136867688122067,-0.13753056971399],[-78.136858579346864,-0.137529806649572],[-78.136857835297192,-0.137655130687076],[-78.136867688122067,-0.13753056971399]],[[-78.136858579346864,-0.137529806649572],[-78.136857835297192,-0.137655130687076],[-78.136848726522103,-0.13765436762168],[-78.136858579346864,-0.137529806649572]],[[-78.136857835297192,-0.137655130687076],[-78.136848726522103,-0.13765436762168],[-78.136844946322356,-0.137780456196392],[-78.136857835297192,-0.137655130687076]],[[-78.136848726522103,-0.13765436762168],[-78.136844946322356,-0.137780456196392],[-78.136835837456019,-0.137778928959599],[-78.136848726522103,-0.13765436762168]],[[-78.136844946322356,-0.137780456196392],[-78.136835837456019,-0.137778928959599],[-78.136829780071722,-0.137905017808197],[-78.136844946322356,-0.137780456196392]],[[-78.136835837456019,-0.137778928959599],[-78.136829780071722,-0.137905017808197],[-78.136820671205626,-0.137903490570438],[-78.136835837456019,-0.137778928959599]],[[-78.136829780071722,-0.137905017808197],[-78.136820671205626,-0.137903490570438],[-78.136811577488658,-0.138028815613639],[-78.136829780071722,-0.137905017808197]],[[-78.136820671205626,-0.137903490570438],[-78.136811577488658,-0.138028815613639],[-78.136803227770983,-0.138028052453413],[-78.136820671205626,-0.137903490570438],[-78.136820671205626,-0.137903490570438]]]}},
{"type":"Feature","properties":{"capa_cad":"C3D-Volumen","color":"#DD0000"},"geometry":{"type":"MultiLineString","coordinates":[[[-78.136899500353877,-0.136962787216058],[-78.136907849980659,-0.136962786198053],[-78.136858579346864,-0.137529806649572],[-78.136899500353877,-0.136962787216058]],[[-78.136907849980659,-0.136962786198053],[-78.136858579346864,-0.137529806649572],[-78.136867688122067,-0.13753056971399],[-78.136907849980659,-0.136962786198053],[-78.136907849980659,-0.136962786198053]]]}},
{"type":"Feature","properties":{"capa_cad":"C3D-Volumen","color":"#DD0000"},"geometry":{"type":"MultiLineString","coordinates":[[[-78.133187259388038,-0.146084348065449],[-78.133184224112156,-0.14609275425796],[-78.132696111976045,-0.145736707661511],[-78.133187259388038,-0.146084348065449]],[[-78.133184224112156,-0.14609275425796],[-78.132696111976045,-0.145736707661511],[-78.132690799454537,-0.145744349943308],[-78.133184224112156,-0.14609275425796]],[[-78.132696111976045,-0.145736707661511],[-78.132690799454537,-0.145744349943308],[-78.131932430039186,-0.145085724361909],[-78.132696111976045,-0.145736707661511]],[[-78.132690799454537,-0.145744349943308],[-78.131932430039186,-0.145085724361909],[-78.131924840104574,-0.145091074401045],[-78.132690799454537,-0.145744349943308]],[[-78.131932430039186,-0.145085724361909],[-78.131924840104574,-0.145091074401045],[-78.131253664406458,-0.143575808835765],[-78.131932430039186,-0.145085724361909]],[[-78.131924840104574,-0.145091074401045],[-78.131253664406458,-0.143575808835765],[-78.131245315080918,-0.14357810230302],[-78.131924840104574,-0.145091074401045]],[[-78.131253664406458,-0.143575808835765],[-78.131245315080918,-0.14357810230302],[-78.131109325790419,-0.142543436560725],[-78.131253664406458,-0.143575808835765]],[[-78.131245315080918,-0.14357810230302],[-78.131109325790419,-0.142543436560725],[-78.131100217239009,-0.142544201790813],[-78.131245315080918,-0.14357810230302]],[[-78.131109325790419,-0.142543436560725],[-78.131100217239009,-0.142544201790813],[-78.131132040941296,-0.142054367311612],[-78.131109325790419,-0.142543436560725]],[[-78.131100217239009,-0.142544201790813],[-78.131132040941296,-0.142054367311612],[-78.131123691090039,-0.142052075790513],[-78.131100217239009,-0.142544201790813]],[[-78.131132040941296,-0.142054367311612],[-78.131123691090039,-0.142052075790513],[-78.131830946086168,-0.140480101313786],[-78.131132040941296,-0.142054367311612]],[[-78.131123691090039,-0.142052075790513],[-78.131830946086168,-0.140480101313786],[-78.131822596048281,-0.14047628146908],[-78.131123691090039,-0.142052075790513]],[[-78.131830946086168,-0.140480101313786],[-78.131822596048281,-0.14047628146908],[-78.132465363445462,-0.139190111389682],[-78.131830946086168,-0.140480101313786]],[[-78.131822596048281,-0.14047628146908],[-78.132465363445462,-0.139190111389682],[-78.132457772272446,-0.13918476312675],[-78.131822596048281,-0.14047628146908]],[[-78.132465363445462,-0.139190111389682],[-78.132457772272446,-0.13918476312675],[-78.135170379701009,-0.137044764083178],[-78.132465363445462,-0.139190111389682]],[[-78.132457772272446,-0.13918476312675],[-78.135170379701009,-0.137044764083178],[-78.135171896343522,-0.137032537190045],[-78.132457772272446,-0.13918476312675]],[[-78.135170379701009,-0.137044764083178],[-78.135171896343522,-0.137032537190045],[-78.135420907863946,-0.137375618942771],[-78.135170379701009,-0.137044764083178]],[[-78.135171896343522,-0.137032537190045],[-78.135420907863946,-0.137375618942771],[-78.13543001607799,-0.137371796988905],[-78.135171896343522,-0.137032537190045]],[[-78.135420907863946,-0.137375618942771],[-78.13543001607799,-0.137371796988905],[-78.135478645789888,-0.137790555957071],[-78.135420907863946,-0.137375618942771]],[[-78.13543001607799,-0.137371796988905],[-78.135478645789888,-0.137790555957071],[-78.135486994675858,-0.137784441589826],[-78.13543001607799,-0.137371796988905]],[[-78.135478645789888,-0.137790555957071],[-78.135486994675858,-0.137784441589826],[-78.136507216564667,-0.138203847403436],[-78.135478645789888,-0.137790555957071]],[[-78.135486994675858,-0.137784441589826],[-78.136507216564667,-0.138203847403436],[-78.13651176990318,-0.138195440981381],[-78.135486994675858,-0.137784441589826]],[[-78.136507216564667,-0.138203847403436],[-78.13651176990318,-0.138195440981381],[-78.136746343682077,-0.138407087821068],[-78.136507216564667,-0.138203847403436]],[[-78.13651176990318,-0.138195440981381],[-78.136746343682077,-0.138407087821068],[-78.136753174466662,-0.138400973634244],[-78.13651176990318,-0.138195440981381]],[[-78.136746343682077,-0.138407087821068],[-78.136753174466662,-0.138400973634244],[-78.136971826673701,-0.138769277426411],[-78.136746343682077,-0.138407087821068]],[[-78.136753174466662,-0.138400973634244],[-78.136971826673701,-0.138769277426411],[-78.136980175847981,-0.138765455569231],[-78.136753174466662,-0.138400973634244]],[[-78.136971826673701,-0.138769277426411],[-78.136980175847981,-0.138765455569231],[-78.137061434834706,-0.139101680830247],[-78.136971826673701,-0.138769277426411]],[[-78.136980175847981,-0.138765455569231],[-78.137061434834706,-0.139101680830247],[-78.13707054343007,-0.139100915566227],[-78.136980175847981,-0.138765455569231]],[[-78.137061434834706,-0.139101680830247],[-78.13707054343007,-0.139100915566227],[-78.136925742456341,-0.140620103811016],[-78.137061434834706,-0.139101680830247]],[[-78.13707054343007,-0.139100915566227],[-78.136925742456341,-0.140620103811016],[-78.136934850783703,-0.14061704604794],[-78.13707054343007,-0.139100915566227]],[[-78.136925742456341,-0.140620103811016],[-78.136934850783703,-0.14061704604794],[-78.137497386200053,-0.141249712714152],[-78.136925742456341,-0.140620103811016]],[[-78.136934850783703,-0.14061704604794],[-78.137497386200053,-0.141249712714152],[-78.137504217004818,-0.141243598540147],[-78.136934850783703,-0.14061704604794]],[[-78.137497386200053,-0.141249712714152],[-78.137504217004818,-0.141243598540147],[-78.137715267508327,-0.141522496004616],[-78.137497386200053,-0.141249712714152]],[[-78.137504217004818,-0.141243598540147],[-78.137715267508327,-0.141522496004616],[-78.137722098404822,-0.141517146002005],[-78.137504217004818,-0.141243598540147]],[[-78.137715267508327,-0.141522496004616],[-78.137722098404822,-0.141517146002005],[-78.138366667359662,-0.142628175206607],[-78.137715267508327,-0.141522496004616]],[[-78.137722098404822,-0.141517146002005],[-78.138366667359662,-0.142628175206607],[-78.138375016558101,-0.142624353372555],[-78.137722098404822,-0.141517146002005]],[[-78.138366667359662,-0.142628175206607],[-78.138375016558101,-0.142624353372555],[-78.138589160707411,-0.143403783313905],[-78.138366667359662,-0.142628175206607]],[[-78.138375016558101,-0.142624353372555],[-78.138589160707411,-0.143403783313905],[-78.138599788137824,-0.143409131278574],[-78.138375016558101,-0.142624353372555]],[[-78.138589160707411,-0.143403783313905],[-78.138599788137824,-0.143409131278574],[-78.137530324749292,-0.143839483858641],[-78.138589160707411,-0.143403783313905]],[[-78.138599788137824,-0.143409131278574],[-78.137530324749292,-0.143839483858641],[-78.137533361941038,-0.143847889386063],[-78.138599788137824,-0.143409131278574],[-78.138599788137824,-0.143409131278574]]]}},
{"type":"Feature","properties":{"capa_cad":"C3D-Volumen","color":"#DD0000"},"geometry":{"type":"MultiLineString","coordinates":[[[-78.137535638414818,-0.143841775755342],[-78.137528048362924,-0.143846361660197],[-78.137676090454079,-0.144072539104151],[-78.137535638414818,-0.143841775755342]],[[-78.137528048362924,-0.143846361660197],[-78.137676090454079,-0.144072539104151],[-78.137668500487521,-0.144077889179032],[-78.137528048362924,-0.143846361660197]],[[-78.137676090454079,-0.144072539104151],[-78.137668500487521,-0.144077889179032],[-78.137814265555136,-0.144305595285152],[-78.137676090454079,-0.144072539104151]],[[-78.137668500487521,-0.144077889179032],[-78.137814265555136,-0.144305595285152],[-78.137806675499448,-0.144310181188145],[-78.137668500487521,-0.144077889179032]],[[-78.137814265555136,-0.144305595285152],[-78.137806675499448,-0.144310181188145],[-78.137950163715757,-0.144540944297818],[-78.137814265555136,-0.144305595285152]],[[-78.137806675499448,-0.144310181188145],[-78.137950163715757,-0.144540944297818],[-78.137941814513312,-0.144544766116225],[-78.137806675499448,-0.144310181188145]],[[-78.137950163715757,-0.144540944297818],[-78.137941814513312,-0.144544766116225],[-78.138082266644076,-0.144777057973903],[-78.137950163715757,-0.144540944297818]],[[-78.137941814513312,-0.144544766116225],[-78.138082266644076,-0.144777057973903],[-78.138074676584637,-0.144781643874904],[-78.137941814513312,-0.144544766116225]],[[-78.138082266644076,-0.144777057973903],[-78.138074676584637,-0.144781643874904],[-78.138212092541096,-0.14501470030821],[-78.138082266644076,-0.144777057973903]],[[-78.138074676584637,-0.144781643874904],[-78.138212092541096,-0.14501470030821],[-78.138203743421656,-0.145019286295413],[-78.138074676584637,-0.144781643874904]],[[-78.138212092541096,-0.14501470030821],[-78.138203743421656,-0.145019286295413],[-78.138338882433274,-0.145254635558376],[-78.138212092541096,-0.14501470030821]],[[-78.138203743421656,-0.145019286295413],[-78.138338882433274,-0.145254635558376],[-78.138330533225428,-0.145258457372979],[-78.138203743421656,-0.145019286295413]],[[-78.138338882433274,-0.145254635558376],[-78.138330533225428,-0.145258457372979],[-78.138462636145519,-0.145495335380305],[-78.138338882433274,-0.145254635558376]],[[-78.138330533225428,-0.145258457372979],[-78.138462636145519,-0.145495335380305],[-78.138454287022213,-0.145499921365084],[-78.138330533225428,-0.145258457372979]],[[-78.138462636145519,-0.145495335380305],[-78.138454287022213,-0.145499921365084],[-78.138583353848588,-0.145738328115501],[-78.138462636145519,-0.145495335380305]],[[-78.138454287022213,-0.145499921365084],[-78.138583353848588,-0.145738328115501],[-78.138575004637204,-0.145742149927468],[-78.138454287022213,-0.145499921365084]]]}},
{"type":"Feature","properties":{"capa_cad":"C3D-Volumen","color":"#DD0000"},"geometry":{"type":"MultiLineString","coordinates":[[[-78.138574245578823,-0.14574215001422],[-78.138584112820794,-0.145737563857197],[-78.138518885754152,-0.146199130909226],[-78.138574245578823,-0.14574215001422]],[[-78.138584112820794,-0.145737563857197],[-78.138518885754152,-0.146199130909226],[-78.138527235997159,-0.146204479158985],[-78.138584112820794,-0.145737563857197]],[[-78.138518885754152,-0.146199130909226],[-78.138527235997159,-0.146204479158985],[-78.137861599573299,-0.146718077911655],[-78.138518885754152,-0.146199130909226]],[[-78.138527235997159,-0.146204479158985],[-78.137861599573299,-0.146718077911655],[-78.137866154775864,-0.146725719105931],[-78.138527235997159,-0.146204479158985]],[[-78.137861599573299,-0.146718077911655],[-78.137866154775864,-0.146725719105931],[-78.135750008986264,-0.147675821832423],[-78.137861599573299,-0.146718077911655]],[[-78.137866154775864,-0.146725719105931],[-78.135750008986264,-0.147675821832423],[-78.13575380520173,-0.147684227271791],[-78.137866154775864,-0.146725719105931]],[[-78.135750008986264,-0.147675821832423],[-78.13575380520173,-0.147684227271791],[-78.135430460284596,-0.147802709892779],[-78.135750008986264,-0.147675821832423]],[[-78.13575380520173,-0.147684227271791],[-78.135430460284596,-0.147802709892779],[-78.135426666188494,-0.147813408691152],[-78.13575380520173,-0.147684227271791]],[[-78.135430460284596,-0.147802709892779],[-78.135426666188494,-0.147813408691152],[-78.134678106235839,-0.146639729266388],[-78.135430460284596,-0.147802709892779]],[[-78.135426666188494,-0.147813408691152],[-78.134678106235839,-0.146639729266388],[-78.134672034472857,-0.146645843305908],[-78.135426666188494,-0.147813408691152]],[[-78.134678106235839,-0.146639729266388],[-78.134672034472857,-0.146645843305908],[-78.1340685281818,-0.146136211273043],[-78.134678106235839,-0.146639729266388]],[[-78.134672034472857,-0.146645843305908],[-78.1340685281818,-0.146136211273043],[-78.134064733848106,-0.146144617558381],[-78.134672034472857,-0.146645843305908]],[[-78.1340685281818,-0.146136211273043],[-78.134064733848106,-0.146144617558381],[-78.133187259388038,-0.146084348065449],[-78.1340685281818,-0.146136211273043]],[[-78.134064733848106,-0.146144617558381],[-78.133187259388038,-0.146084348065449],[-78.133184224112156,-0.14609275425796],[-78.134064733848106,-0.146144617558381],[-78.134064733848106,-0.146144617558381]]]}}
]
}
