{"type": "FeatureCollection", "features": [{"type": "Feature", "properties": {"nombre": "CAYAMBE COCA", "categoria": "PARQUE NACIONAL", "area_canton_ha": 42867.4, "escala_fuente": "1:250.000", "fuente": "Decreto Supremo Nº 818 (17/11/1970) y registros oficiales posteriores"}, "geometry": {"type": "Polygon", "coordinates": [[[-77.96690742204083, 0.168653533549246, 0.0], [-77.96667536463458, 0.168458743795981, 0.0], [-77.96607785124228, 0.167191714806263, 0.0], [-77.9663979384484, 0.16599181205848, 0.0], [-77.96624841840922, 0.165548370614705, 0.0], [-77.96641112324137, 0.164780883615223, 0.0], [-77.96599939068358, 0.16366709128924, 0.0], [-77.96624052359405, 0.162789852646586, 0.0], [-77.96610643257895, 0.162375098730699, 0.0], [-77.96623973408137, 0.161075518121245, 0.0], [-77.96637257950266, 0.160930144144252, 0.0], [-77.96651547291306, 0.159970761354668, 0.0], [-77.96580774532897, 0.159072723389236, 0.0], [-77.96485833127865, 0.157243474845642, 0.0], [-77.96487515171664, 0.156644234565416, 0.0], [-77.96463542557048, 0.15621650471046, 0.0], [-77.96456062467387, 0.1552895253406, 0.0], [-77.96461772292847, 0.15449735761393, 0.0], [-77.96487284736926, 0.154009375774137, 0.0], [-77.96473908295961, 0.152616614272334, 0.0], [-77.96501215649008, 0.151852738660362, 0.0], [-77.96696959089267, 0.150087492831472, 0.0], [-77.96781677407428, 0.148625269859267, 0.0], [-77.96849579237582, 0.148031929142818, 0.0], [-77.9706247105516, 0.146805687040104, 0.0], [-77.97105390425193, 0.145296586259054, 0.0], [-77.97157965498157, 0.144581833047541, 0.0], [-77.972041603487, 0.143337806738657, 0.0], [-77.97196774934041, 0.142300407507175, 0.0], [-77.97211534827916, 0.141276671605331, 0.0], [-77.97258155154117, 0.140860696646135, 0.0], [-77.97055295104698, 0.137926606908094, 0.0], [-77.97047721830783, 0.136823535943178, 0.0], [-77.97103046676759, 0.135865659879108, 0.0], [-77.97324744117142, 0.133235161623807, 0.0], [-77.97336288748166, 0.132497195697307, 0.0], [-77.9739360723212, 0.131701928494439, 0.0], [-77.9743140572262, 0.131444090651103, 0.0], [-77.97481003200414, 0.130255355986795, 0.0], [-77.97529485458278, 0.127706621521523, 0.0], [-77.97454306749347, 0.126983275962274, 0.0], [-77.9735984424568, 0.125479173002283, 0.0], [-77.97274086017897, 0.123444128998671, 0.0], [-77.97315354471355, 0.122884084042969, 0.0], [-77.97453209244709, 0.122505085590326, 0.0], [-77.97474966011451, 0.122233269474444, 0.0], [-77.97486437116609, 0.120394635984371, 0.0], [-77.97480659004677, 0.116794618837077, 0.0], [-77.97557512655746, 0.11598546343534, 0.0], [-77.97612070791902, 0.114757648021678, 0.0], [-77.97619849120552, 0.114195741047148, 0.0], [-77.97603768069304, 0.113417987762065, 0.0], [-77.97645805389843, 0.112352114132452, 0.0], [-77.97725222973664, 0.110964454420874, 0.0], [-77.9782652421994, 0.11035542005952, 0.0], [-77.97875309345388, 0.109864549512656, 0.0], [-77.97674423666517, 0.105588227781961, 0.0], [-77.9765746627775, 0.106132025732125, 0.0], [-77.97612983781018, 0.106562092709652, 0.0], [-77.9758323843352, 0.107489788676147, 0.0], [-77.97484214279162, 0.108537363431374, 0.0], [-77.97291464892655, 0.109725253013223, 0.0], [-77.97248126119769, 0.110450995347704, 0.0], [-77.97153382005324, 0.111005475722103, 0.0], [-77.97023918895512, 0.111618635720607, 0.0], [-77.96959110948639, 0.111515910351793, 0.0], [-77.96934941702716, 0.111663725248991, 0.0], [-77.96830916410714, 0.111791211437421, 0.0], [-77.96765549026814, 0.11099717452611, 0.0], [-77.96767545300602, 0.110822342485793, 0.0], [-77.96745535931794, 0.110693954966331, 0.0], [-77.96697201955143, 0.110998669591752, 0.0], [-77.96656314661426, 0.111007232744831, 0.0], [-77.96605788842018, 0.110876568974957, 0.0], [-77.96567437575555, 0.110566957121206, 0.0], [-77.96519829052899, 0.110748578223501, 0.0], [-77.96443019448094, 0.111947405002321, 0.0], [-77.96293350667273, 0.112752685376642, 0.0], [-77.96225679584207, 0.11284583868371, 0.0], [-77.96159796692832, 0.112230484939238, 0.0], [-77.96099962433651, 0.112204605302414, 0.0], [-77.96062073314431, 0.111612803113907, 0.0], [-77.95955155018028, 0.111591177922018, 0.0], [-77.95894034997637, 0.111328034519961, 0.0], [-77.95859688069557, 0.110909581153949, 0.0], [-77.95757838216134, 0.110994573205948, 0.0], [-77.95745102222155, 0.11035092779304, 0.0], [-77.95698105719788, 0.109933089307646, 0.0], [-77.95706087345145, 0.109564024004644, 0.0], [-77.95664838759411, 0.109334442167834, 0.0], [-77.9562530664439, 0.109211679432374, 0.0], [-77.9558767085849, 0.109407651789519, 0.0], [-77.95523089192045, 0.109278505973934, 0.0], [-77.95490088158574, 0.109001188648717, 0.0], [-77.95448181231932, 0.108931825522331, 0.0], [-77.954277646101, 0.108636594219763, 0.0], [-77.95360726260118, 0.108432436274841, 0.0], [-77.95363152596333, 0.107987830352087, 0.0], [-77.95325403089709, 0.107683738189318, 0.0], [-77.95330961254012, 0.107471478731273, 0.0], [-77.95301270114037, 0.106638705093017, 0.0], [-77.95258199783866, 0.106559301863081, 0.0], [-77.95245095163462, 0.106369972275631, 0.0], [-77.95205372654041, 0.106302524162853, 0.0], [-77.951647248013, 0.106002309531561, 0.0], [-77.95156299539437, 0.105419896993653, 0.0], [-77.95110953593033, 0.105170410093555, 0.0], [-77.95116491654552, 0.10473894784906, 0.0], [-77.95011093825153, 0.104014805934603, 0.0], [-77.94998424173612, 0.10357114889484, 0.0], [-77.94905479001395, 0.102419384631015, 0.0], [-77.94904602628223, 0.102027580691089, 0.0], [-77.9482530454188, 0.101445692478923, 0.0], [-77.94789450799423, 0.101543663505617, 0.0], [-77.94748379388176, 0.101015833553426, 0.0], [-77.94693888841529, 0.100918973110414, 0.0], [-77.94668637276885, 0.100314987148436, 0.0], [-77.9467137090921, 0.099742881054528, 0.0], [-77.94629383412202, 0.099682315971017, 0.0], [-77.94597059970395, 0.099296151963741, 0.0], [-77.94533402245956, 0.099447641577712, 0.0], [-77.94502679792171, 0.099810169394695, 0.0], [-77.94460648387155, 0.099856800680736, 0.0], [-77.94420726445479, 0.099616916327079, 0.0], [-77.9439562166771, 0.099659705797018, 0.0], [-77.94334326999495, 0.100398861999989, 0.0], [-77.9424202275352, 0.100575063153286, 0.0], [-77.94205701562615, 0.101059719619831, 0.0], [-77.94144818557236, 0.10105124637156, 0.0], [-77.94071804764587, 0.101352957232856, 0.0], [-77.93990030941256, 0.102145276493073, 0.0], [-77.93919096685136, 0.102243809893177, 0.0], [-77.93891191277277, 0.102974627743835, 0.0], [-77.93822036761671, 0.103186702718811, 0.0], [-77.937634145389, 0.103789607225387, 0.0], [-77.93676857499402, 0.103870077091089, 0.0], [-77.93633243870444, 0.103449363361118, 0.0], [-77.93534578016055, 0.103174936709068, 0.0], [-77.93483362539504, 0.102015736114992, 0.0], [-77.93441222795947, 0.101536436186102, 0.0], [-77.93430397709801, 0.100711763369741, 0.0], [-77.93345264515082, 0.100578090195564, 0.0], [-77.93256879292728, 0.09987437921164, 0.0], [-77.9323483212515, 0.099017820129714, 0.0], [-77.93204140676472, 0.098977970303776, 0.0], [-77.92994714747982, 0.09713217620635, 0.0], [-77.92986314441242, 0.096599223310572, 0.0], [-77.93014810991811, 0.096072041550618, 0.0], [-77.92969270035371, 0.095612773684294, 0.0], [-77.92917226958978, 0.094266914013066, 0.0], [-77.92912973843508, 0.09369177190755, 0.0], [-77.92882719674401, 0.093476726857518, 0.0], [-77.92817395239035, 0.09333460427074, 0.0], [-77.92746767039426, 0.092460166915256, 0.0], [-77.92690260260638, 0.092247380834587, 0.0], [-77.92640167217185, 0.091678443935642, 0.0], [-77.92520863543848, 0.091062598497015, 0.0], [-77.92509350927874, 0.090737985282266, 0.0], [-77.9252550067098, 0.090207351813115, 0.0], [-77.92514345331978, 0.089746969404066, 0.0], [-77.92421037425548, 0.089474396522432, 0.0], [-77.92439686504508, 0.088165483146969, 0.0], [-77.92381519511359, 0.087753346517464, 0.0], [-77.92343299406123, 0.086998458033916, 0.0], [-77.92266969739003, 0.086494999100269, 0.0], [-77.92255338643263, 0.086126882969976, 0.0], [-77.92205480782579, 0.085828056067983, 0.0], [-77.92175184485727, 0.084834555413571, 0.0], [-77.92105417667062, 0.084125606585529, 0.0], [-77.92068142516734, 0.083958257033284, 0.0], [-77.92030988958709, 0.083424235566193, 0.0], [-77.91971632044714, 0.083378773152717, 0.0], [-77.91898269478602, 0.08297666862927, 0.0], [-77.91824438464539, 0.081763301091693, 0.0], [-77.91742737310346, 0.081660499904146, 0.0], [-77.91688395615824, 0.081255498522732, 0.0], [-77.91578213134183, 0.081465396545064, 0.0], [-77.91522554331824, 0.080934595704324, 0.0], [-77.91487415026569, 0.080927397493301, 0.0], [-77.91403368338592, 0.080549669518291, 0.0], [-77.91340568712332, 0.08054723117107, 0.0], [-77.91233961205923, 0.080869836683362, 0.0], [-77.91176143956365, 0.081347847283557, 0.0], [-77.91146225125522, 0.081746043896913, 0.0], [-77.91117726937797, 0.08263998296904, 0.0], [-77.91003169275379, 0.082517990141024, 0.0], [-77.90961855471572, 0.082711568712113, 0.0], [-77.90846464657808, 0.082883577856399, 0.0], [-77.90780224423219, 0.082651670414946, 0.0], [-77.90734339086328, 0.082998820109564, 0.0], [-77.90605830529131, 0.083201890709362, 0.0], [-77.90511454705856, 0.083067363570218, 0.0], [-77.90448836850823, 0.08265200743459, 0.0], [-77.9039304173848, 0.082660927162894, 0.0], [-77.90357129472002, 0.082873033898867, 0.0], [-77.90320026390145, 0.08356020303428, 0.0], [-77.90262676468585, 0.083527171601676, 0.0], [-77.90238458136335, 0.083653836226894, 0.0], [-77.90246051376675, 0.084210770681656, 0.0], [-77.90216188960274, 0.084472650664867, 0.0], [-77.90143859029331, 0.084667550736863, 0.0], [-77.90053324012983, 0.084366072300985, 0.0], [-77.89991353611383, 0.084681535357503, 0.0], [-77.89906291455773, 0.084813796493992, 0.0], [-77.89842781446514, 0.084679891567584, 0.0], [-77.89790072448291, 0.084780239026026, 0.0], [-77.89710536786747, 0.084596125935289, 0.0], [-77.89471077007788, 0.084534706284541, 0.0], [-77.89331373864138, 0.084240153593057, 0.0], [-77.89216465600997, 0.08366353831968, 0.0], [-77.89006825667808, 0.083110273143522, 0.0], [-77.88962906392162, 0.082614028081143, 0.0], [-77.88818086544944, 0.081608109261106, 0.0], [-77.887549407016, 0.080507125730897, 0.0], [-77.88623299216604, 0.07933103817311, 0.0], [-77.88606841273096, 0.078379629616231, 0.0], [-77.88455694796633, 0.077283456246389, 0.0], [-77.88441074247602, 0.076645896782129, 0.0], [-77.88390509386707, 0.075828407732749, 0.0], [-77.8822974005574, 0.075976646491247, 0.0], [-77.88158449299206, 0.076574750483782, 0.0], [-77.88084651762614, 0.075881665982267, 0.0], [-77.87908370495806, 0.075430508001549, 0.0], [-77.87891991359976, 0.075028942706671, 0.0], [-77.87836260924902, 0.074473898587009, 0.0], [-77.87839113930963, 0.073907423629727, 0.0], [-77.87733708779407, 0.07258294211776, 0.0], [-77.87729438204572, 0.072149118522078, 0.0], [-77.87761135953009, 0.071815708604068, 0.0], [-77.8776897324069, 0.071460052680401, 0.0], [-77.87751881869056, 0.071029805767517, 0.0], [-77.8768493373848, 0.070410939561866, 0.0], [-77.87618139950897, 0.070496123660275, 0.0], [-77.87584348235096, 0.07033859872637, 0.0], [-77.87570619231907, 0.069977042414433, 0.0], [-77.87552457225885, 0.069887398023796, 0.0], [-77.87477667182759, 0.070346264170302, 0.0], [-77.87426895806927, 0.070442785471261, 0.0], [-77.87347682643488, 0.069997687540826, 0.0], [-77.8727610188547, 0.069857813257708, 0.0], [-77.87251533205769, 0.06923395868045, 0.0], [-77.87205237040023, 0.069162222563969, 0.0], [-77.87131670599503, 0.069348787228513, 0.0], [-77.87091072737083, 0.069242636397725, 0.0], [-77.87081239890203, 0.068905016670849, 0.0], [-77.8700230492573, 0.067904077244442, 0.0], [-77.86974111948528, 0.067847291832592, 0.0], [-77.86908078695127, 0.068068339990334, 0.0], [-77.86852286676329, 0.06789501609093, 0.0], [-77.86796201569426, 0.067140282716329, 0.0], [-77.86725126707523, 0.066831306802259, 0.0], [-77.86598713984866, 0.064929845852106, 0.0], [-77.86485054221774, 0.064354940020538, 0.0], [-77.86365761122777, 0.062909414642747, 0.0], [-77.86308485224932, 0.062783896908644, 0.0], [-77.86224647196713, 0.062852563447817, 0.0], [-77.86150452125536, 0.063273783919625, 0.0], [-77.86104751032282, 0.063028764422795, 0.0], [-77.86085167562408, 0.062480211448975, 0.0], [-77.86024927695178, 0.061733252039654, 0.0], [-77.86003262691715, 0.061870672419901, 0.0], [-77.85985453796619, 0.062330766650767, 0.0], [-77.85937526097874, 0.062247082790611, 0.0], [-77.85941491939803, 0.060077176487587, 0.0], [-77.85830945282555, 0.059004320777938, 0.0], [-77.85807089672764, 0.058173251897454, 0.0], [-77.8583451502432, 0.057474865117949, 0.0], [-77.85779675595448, 0.056833079136176, 0.0], [-77.85802231248213, 0.056612719910313, 0.0], [-77.8580526002954, 0.056281685386352, 0.0], [-77.8573136943817, 0.055375778683894, 0.0], [-77.85756898241326, 0.054097062031508, 0.0], [-77.85710011832133, 0.053487550479586, 0.0], [-77.85713871155414, 0.053227623775199, 0.0], [-77.85786691917255, 0.052208816929799, 0.0], [-77.8585415852533, 0.051867411443852, 0.0], [-77.8588797759859, 0.051455180492876, 0.0], [-77.85860189147033, 0.051017405276258, 0.0], [-77.85888094426247, 0.049130394114924, 0.0], [-77.85839665954751, 0.048217572135798, 0.0], [-77.85873856791176, 0.047553603723787, 0.0], [-77.8588490069147, 0.046650848427255, 0.0], [-77.85821516486591, 0.045357987335132, 0.0], [-77.85837546474015, 0.044308956523752, 0.0], [-77.8582321382725, 0.043146838852352, 0.0], [-77.8579303849115, 0.042524929237951, 0.0], [-77.85790433049695, 0.041286952642171, 0.0], [-77.85832630627243, 0.039824369631523, 0.0], [-77.8580984799208, 0.039343645692372, 0.0], [-77.85753522318372, 0.039070908434386, 0.0], [-77.85743196542784, 0.038590484158918, 0.0], [-77.85747477218176, 0.036573438953449, 0.0], [-77.85766323678169, 0.035875526287317, 0.0], [-77.85752286689748, 0.034490488097143, 0.0], [-77.85779537425721, 0.033825016584776, 0.0], [-77.85784525074534, 0.033229870658734, 0.0], [-77.85744999130578, 0.032060357818122, 0.0], [-77.85710100576789, 0.031566304103467, 0.0], [-77.85666550298727, 0.030021011443129, 0.0], [-77.8558101530616, 0.028455011653786, 0.0], [-77.85526888371558, 0.027116038717902, 0.0], [-77.85505050899374, 0.025220170284332, 0.0], [-77.85466400108763, 0.024448924228879, 0.0], [-77.85447005591183, 0.024302874489545, 0.0], [-77.85383972019352, 0.024244007693425, 0.0], [-77.85349547821454, 0.023863967661301, 0.0], [-77.85211255930838, 0.023122036649832, 0.0], [-77.85144305100424, 0.023231968298627, 0.0], [-77.85046370784636, 0.023784067305407, 0.0], [-77.8500458649738, 0.023611967621814, 0.0], [-77.84881604785353, 0.02435431417301, 0.0], [-77.84837446014463, 0.024344742672349, 0.0], [-77.84814179243135, 0.024488623347666, 0.0], [-77.84721348691997, 0.025410711317631, 0.0], [-77.84725858199818, 0.025955661805111, 0.0], [-77.84678492579259, 0.026675554902334, 0.0], [-77.84527614630031, 0.027634910891195, 0.0], [-77.84476096674452, 0.027460418545808, 0.0], [-77.84467195280553, 0.026859539926659, 0.0], [-77.84440843010496, 0.026685054573408, 0.0], [-77.84368194353976, 0.026921657395212, 0.0], [-77.8427168673118, 0.026857098783777, 0.0], [-77.84187881188952, 0.026589384214175, 0.0], [-77.84143959426936, 0.026859455786205, 0.0], [-77.84053268059029, 0.026962206843901, 0.0], [-77.83982760161746, 0.027272783247089, 0.0], [-77.83948986831298, 0.026500722432667, 0.0], [-77.83956394985104, 0.026158460970305, 0.0], [-77.8400027868175, 0.02582062234478, 0.0], [-77.84000555251659, 0.025408934016069, 0.0], [-77.8410199925206, 0.024443231034565, 0.0], [-77.8411065443261, 0.023780634085836, 0.0], [-77.84151654385353, 0.023516966263839, 0.0], [-77.84214962374202, 0.023552354915068, 0.0], [-77.84248062314835, 0.022894562983496, 0.0], [-77.842563257804, 0.022211373951177, 0.0], [-77.84423008491507, 0.021674549740707, 0.0], [-77.8446032630543, 0.020985438477061, 0.0], [-77.84456298728936, 0.02054915011238, 0.0], [-77.84427549794982, 0.020259795905784, 0.0], [-77.84255860737693, 0.019878868841621, 0.0], [-77.84208339335939, 0.019240914236891, 0.0], [-77.84135739898998, 0.018701739468238, 0.0], [-77.84006686180835, 0.016984518506012, 0.0], [-77.8407183372407, 0.015774623212292, 0.0], [-77.84114821664943, 0.01528782759398, 0.0], [-77.84169591968306, 0.01560070213666, 0.0], [-77.84233669737206, 0.015305652015316, 0.0], [-77.8429875554759, 0.015575534491343, 0.0], [-77.84349781482403, 0.01548014758239, 0.0], [-77.84391138972418, 0.015223933050232, 0.0], [-77.84397622073672, 0.014003118015457, 0.0], [-77.84428486902996, 0.012999749464452, 0.0], [-77.84348504934273, 0.011229380350513, 0.0], [-77.84361800182721, 0.01105012290767, 0.0], [-77.84469300674176, 0.010581671274979, 0.0], [-77.84464881544174, 0.009942895415911, 0.0], [-77.84430291291214, 0.009190458272405, 0.0], [-77.84437440955126, 0.008719374389951, 0.0], [-77.84391348612596, 0.007885238909724, 0.0], [-77.84497041390664, 0.00713522734137, 0.0], [-77.84506407078177, 0.006599168739942, 0.0], [-77.84452289314527, 0.006102498713956, 0.0], [-77.8444661366658, 0.005835164489109, 0.0], [-77.84460266799498, 0.005429345902386, 0.0], [-77.84452432463411, 0.004846539041983, 0.0], [-77.84493856347332, 0.004297291075245, 0.0], [-77.84487446363092, 0.003857031097397, 0.0], [-77.84543214636015, 0.003463523462879, 0.0], [-77.84563556675103, 0.002942467459378, 0.0], [-77.84612700975302, 0.00316331669509, 0.0], [-77.84642966258922, 0.003135018311742, 0.0], [-77.84877095044916, 0.001427011331912, 0.0], [-77.84997012448086, -2.8625518402e-05, 0.0], [-77.85161289772114, -0.000750444522911, 0.0], [-77.8516730421866, -0.001162982254636, 0.0], [-77.8511649773207, -0.001497600179436, 0.0], [-77.85117922102619, -0.002119035203423, 0.0], [-77.85179823503819, -0.002887385659559, 0.0], [-77.85238986419434, -0.003282879835786, 0.0], [-77.85272420798715, -0.004103291268736, 0.0], [-77.85307448784384, -0.004222833101346, 0.0], [-77.85316338508305, -0.003808477625641, 0.0], [-77.85376000615739, -0.003800950327613, 0.0], [-77.85518670619176, -0.004141551084504, 0.0], [-77.85598837314406, -0.004626356206568, 0.0], [-77.85679024214765, -0.004369418591634, 0.0], [-77.85736236186791, -0.004478149607263, 0.0], [-77.85843394488776, -0.004258881045066, 0.0], [-77.858965160381, -0.004605455735186, 0.0], [-77.85929225958942, -0.004646465364433, 0.0], [-77.85975023081686, -0.005043455107666, 0.0], [-77.8602763799218, -0.005142506124552, 0.0], [-77.86108152197495, -0.00493188879277, 0.0], [-77.86202144899663, -0.005282649371308, 0.0], [-77.86336730072381, -0.005443992116268, 0.0], [-77.86371452033187, -0.005775629048206, 0.0], [-77.86402315514123, -0.006845229523417, 0.0], [-77.86470870284145, -0.007814882158983, 0.0], [-77.86687559328844, -0.007052605126709, 0.0], [-77.86761039927337, -0.007040659421808, 0.0], [-77.86806485745757, -0.007193892274525, 0.0], [-77.86874494933569, -0.008131732116015, 0.0], [-77.86907258452365, -0.008284706237113, 0.0], [-77.87030786703407, -0.00839466377689, 0.0], [-77.87092742214136, -0.009228244842833, 0.0], [-77.87125860711929, -0.010668331145541, 0.0], [-77.87207628188051, -0.011243540591452, 0.0], [-77.87325571036868, -0.012876146947942, 0.0], [-77.87398064890056, -0.013053214000269, 0.0], [-77.875907709884, -0.013093228856922, 0.0], [-77.87632841005397, -0.013568882578888, 0.0], [-77.8774371519255, -0.014076812840708, 0.0], [-77.87869500403225, -0.013816298591029, 0.0], [-77.87909095678192, -0.013871173356331, 0.0], [-77.88023907623425, -0.014395923162667, 0.0], [-77.88015180803977, -0.015584150357713, 0.0], [-77.88068920142335, -0.016022282322246, 0.0], [-77.88113349184222, -0.016116734139041, 0.0], [-77.88187808658317, -0.015846023454847, 0.0], [-77.88301252310526, -0.015702693512038, 0.0], [-77.88362164546261, -0.015795258008825, 0.0], [-77.88447783373206, -0.016485444545701, 0.0], [-77.88551892606374, -0.016494424353838, 0.0], [-77.88575931138695, -0.016724486293462, 0.0], [-77.88609406234676, -0.017526408000601, 0.0], [-77.88705709280832, -0.018139814218788, 0.0], [-77.88771000283182, -0.018139825535492, 0.0], [-77.8887546672172, -0.017663293379837, 0.0], [-77.8896271786704, -0.018547690367188, 0.0], [-77.89021162565996, -0.018959484891299, 0.0], [-77.89077391836034, -0.019121364590955, 0.0], [-77.89107098627194, -0.019479007988568, 0.0], [-77.89249789020374, -0.019830398010778, 0.0], [-77.89279822274469, -0.020243913458869, 0.0], [-77.8934986210973, -0.020200902893659, 0.0], [-77.89399293215529, -0.020425594472058, 0.0], [-77.89466660905462, -0.02103690987165, 0.0], [-77.8950583431495, -0.021742037730772, 0.0], [-77.89532306762491, -0.02187350608689, 0.0], [-77.89605017864757, -0.021807789310666, 0.0], [-77.89680577115902, -0.022217133633644, 0.0], [-77.89816264227694, -0.022560759432929, 0.0], [-77.89853206873731, -0.022802182217476, 0.0], [-77.89924553531108, -0.022517280470682, 0.0], [-77.89970851203805, -0.022581827358544, 0.0], [-77.9017301505749, -0.02406669452536, 0.0], [-77.90336102365428, -0.024094816788639, 0.0], [-77.90378245707645, -0.023930496755496, 0.0], [-77.90445279822212, -0.025239177023084, 0.0], [-77.90667175029515, -0.026437230079395, 0.0], [-77.90697564628753, -0.026838801915683, 0.0], [-77.90763568548759, -0.027059678689322, 0.0], [-77.90799560843321, -0.027655341950028, 0.0], [-77.90933113148589, -0.027693023756169, 0.0], [-77.91010578958702, -0.027961264798931, 0.0], [-77.91109551368817, -0.027555629214536, 0.0], [-77.91160954006116, -0.027684119977881, 0.0], [-77.91323444572595, -0.027221046707944, 0.0], [-77.91408976818566, -0.027624428050164, 0.0], [-77.91495044527666, -0.027597560531024, 0.0], [-77.91542884194968, -0.028374414086636, 0.0], [-77.91625388944067, -0.028949299277611, 0.0], [-77.91647113415199, -0.0290210136092, 0.0], [-77.91737010493941, -0.028753028064642, 0.0], [-77.91776541472065, -0.029072141720281, 0.0], [-77.91844209277959, -0.028835521789852, 0.0], [-77.91916506344766, -0.028842712815876, 0.0], [-77.91955539073392, -0.029065020535697, 0.0], [-77.91982248784376, -0.029455840003466, 0.0], [-77.92022136466335, -0.029606439692547, 0.0], [-77.92112831852708, -0.030515972529891, 0.0], [-77.92224008895509, -0.030272193869193, 0.0], [-77.92293455336682, -0.030887716136725, 0.0], [-77.92317196557309, -0.031496253025737, 0.0], [-77.9236052653887, -0.031807004919156, 0.0], [-77.92421068945121, -0.032556980332231, 0.0], [-77.92456679849256, -0.033731347260424, 0.0], [-77.92577293025258, -0.034171201517833, 0.0], [-77.92632611615406, -0.035000177735703, 0.0], [-77.92704837581404, -0.03512625058962, 0.0], [-77.92758115321801, -0.03564257488871, 0.0], [-77.92793729514796, -0.035778355892693, 0.0], [-77.92856883713512, -0.03650025189853, 0.0], [-77.92950810461926, -0.036801463115025, 0.0], [-77.93021345680349, -0.037296880329693, 0.0], [-77.93022590490422, -0.03776861012905, 0.0], [-77.93050843786743, -0.038069799365557, 0.0], [-77.9310663947715, -0.038270008440739, 0.0], [-77.93147001740537, -0.038592715715793, 0.0], [-77.93157625204348, -0.039030546689808, 0.0], [-77.93272730678082, -0.039446504878903, 0.0], [-77.93283888253701, -0.039904972726023, 0.0], [-77.9333534847715, -0.040763117650186, 0.0], [-77.93403164735193, -0.040828877063624, 0.0], [-77.93453469255657, -0.041208360562056, 0.0], [-77.935358361037, -0.042355131763417, 0.0], [-77.93539395198052, -0.042946738995168, 0.0], [-77.93569310055157, -0.043366253831425, 0.0], [-77.93553280121176, -0.044164377027037, 0.0], [-77.93585687960858, -0.044581502831942, 0.0], [-77.93591028449211, -0.044993836486588, 0.0], [-77.93668192235171, -0.0454480323659, 0.0], [-77.93703544620513, -0.046143717610513, 0.0], [-77.93696965538855, -0.046833010247143, 0.0], [-77.93717438528935, -0.04811363891567, 0.0], [-77.93805935561724, -0.049465411428041, 0.0], [-77.93945187719596, -0.049999716280472, 0.0], [-77.94006448163785, -0.050727065323079, 0.0], [-77.94025440298866, -0.051266493376101, 0.0], [-77.9404111069832, -0.051307137339185, 0.0], [-77.94083486742437, -0.050877852534984, 0.0], [-77.94119006533593, -0.050954360524838, 0.0], [-77.94144333332515, -0.05216579710358, 0.0], [-77.9416427767671, -0.052180148887411, 0.0], [-77.94205119589914, -0.05151565402909, 0.0], [-77.9425488737425, -0.051166687537567, 0.0], [-77.94278630241276, -0.051286216167824, 0.0], [-77.942957217661, -0.052079819029482, 0.0], [-77.94339407990702, -0.052424049326681, 0.0], [-77.94343144919507, -0.052970644152492, 0.0], [-77.94330975856087, -0.053087166827256, 0.0], [-77.94294767374916, -0.053024402506422, 0.0], [-77.94280727017257, -0.053445394451949, 0.0], [-77.94223009617701, -0.05367304546754, 0.0], [-77.94138177232946, -0.054691925236151, 0.0], [-77.94111137563495, -0.05544566499472, 0.0], [-77.93950015964009, -0.056840832830694, 0.0], [-77.93935282894749, -0.057599585085947, 0.0], [-77.93851823315954, -0.057928210072995, 0.0], [-77.93861316236867, -0.058734953373069, 0.0], [-77.9384825064039, -0.059965968099106, 0.0], [-77.93806696557188, -0.060545600488642, 0.0], [-77.9380966238746, -0.06091610377268, 0.0], [-77.93789477619599, -0.061439574404522, 0.0], [-77.93739614758367, -0.06177419251292, 0.0], [-77.93738717146137, -0.062684489427099, 0.0], [-77.93691226109961, -0.063437415281056, 0.0], [-77.93708793280405, -0.063922663543516, 0.0], [-77.93666528330795, -0.064242941964797, 0.0], [-77.9367222390727, -0.064711449694236, 0.0], [-77.93650686464095, -0.065423994187841, 0.0], [-77.9360865870304, -0.065768175816313, 0.0], [-77.93626179694647, -0.066023473245886, 0.0], [-77.93589606032829, -0.066454729562806, 0.0], [-77.93542118875723, -0.066564655292557, 0.0], [-77.93493677410181, -0.067404106866292, 0.0], [-77.93504120799267, -0.067985440797346, 0.0], [-77.93529855972872, -0.068371096632986, 0.0], [-77.93528551041499, -0.069472876749134, 0.0], [-77.93516676659077, -0.069897152472397, 0.0], [-77.93450193639909, -0.07018753284646, 0.0], [-77.934780891048, -0.070623786052245, 0.0], [-77.93463837386143, -0.071502220399261, 0.0], [-77.93499452158314, -0.07150822053907, 0.0], [-77.93492326314238, -0.071940864878259, 0.0], [-77.93508945424009, -0.072120150672905, 0.0], [-77.93598358872919, -0.072675125594874, 0.0], [-77.93673904126486, -0.072952280862395, 0.0], [-77.93676705645636, -0.073562589453387, 0.0], [-77.9369522267672, -0.07397134836378, 0.0], [-77.93686672440197, -0.074358576010521, 0.0], [-77.936980577198, -0.076005043791487, 0.0], [-77.93685229747165, -0.076937263264431, 0.0], [-77.93723689668136, -0.077518140774589, 0.0], [-77.93816284053018, -0.078163598657115, 0.0], [-77.93824829031561, -0.078522155090495, 0.0], [-77.93851894186598, -0.078823356512301, 0.0], [-77.93879903999975, -0.079821102786736, 0.0], [-77.938817975203, -0.08062425676888, 0.0], [-77.93908385202688, -0.081274447936871, 0.0], [-77.93903510236937, -0.083276089636823, 0.0], [-77.93873402828736, -0.083920521780334, 0.0], [-77.938282871005, -0.084356721512543, 0.0], [-77.93800383002132, -0.085079774826336, 0.0], [-77.93721436291939, -0.085091664067895, 0.0], [-77.93689975088124, -0.085264937557753, 0.0], [-77.93678695058315, -0.085515913097133, 0.0], [-77.93597967102062, -0.085599509337081, 0.0], [-77.93581345105231, -0.085820601196173, 0.0], [-77.935457304972, -0.085778741884147, 0.0], [-77.93531483083417, -0.085963981150894, 0.0], [-77.93454671392134, -0.086240001212645, 0.0], [-77.93412527538646, -0.086180208882399, 0.0], [-77.93378933249703, -0.08588139109104, 0.0], [-77.93337462925831, -0.086021845892344, 0.0], [-77.93274344928828, -0.085804816121384, 0.0], [-77.93245852614378, -0.085869332066891, 0.0], [-77.93225430876971, -0.086193203744812, 0.0], [-77.9324028714148, -0.087055404226627, 0.0], [-77.93226533042565, -0.087626225442401, 0.0], [-77.93206772533459, -0.087741227904979, 0.0], [-77.93168815951371, -0.087571654268842, 0.0], [-77.93129377020566, -0.087642376197318, 0.0], [-77.93116578357152, -0.087882352394515, 0.0], [-77.9311160228206, -0.088093577199023, 0.0], [-77.93149255923257, -0.08847650092632, 0.0], [-77.93139719030822, -0.088966380800324, 0.0], [-77.93100404495937, -0.089704543666925, 0.0], [-77.93109456991108, -0.090175419190589, 0.0], [-77.93097407828877, -0.090386186137765, 0.0], [-77.93145517359582, -0.09111037406147, 0.0], [-77.93152009853637, -0.092053545879842, 0.0], [-77.93212826420067, -0.092834337533267, 0.0], [-77.9321135546448, -0.093173712729337, 0.0], [-77.9327610857054, -0.094257014978162, 0.0], [-77.93285449247665, -0.095181777960646, 0.0], [-77.93364589531126, -0.096727491873953, 0.0], [-77.93281589495813, -0.1004393123683, 0.0], [-77.93357404845007, -0.099726326125511, 0.0], [-77.93387613100909, -0.09965908978934, 0.0], [-77.93575619423858, -0.099910927091079, 0.0], [-77.94049531019873, -0.098422761032946, 0.0], [-77.94178393494235, -0.096651635977157, 0.0], [-77.94322200585235, -0.09561174424278, 0.0], [-77.94444442794831, -0.095100282104848, 0.0], [-77.94534032333111, -0.095066103668258, 0.0], [-77.94636602611823, -0.095257423110498, 0.0], [-77.94875928043379, -0.096347638998935, 0.0], [-77.95127428913986, -0.09542865496579, 0.0], [-77.95204994345454, -0.095447787776628, 0.0], [-77.95388803074756, -0.094933003907714, 0.0], [-77.95489475418034, -0.095047830807131, 0.0], [-77.95602054137166, -0.097263083387587, 0.0], [-77.95800800253578, -0.099154583354446, 0.0], [-77.9587595124554, -0.100619483606587, 0.0], [-77.95878470569684, -0.102037405119537, 0.0], [-77.95978421408587, -0.103869137365568, 0.0], [-77.96159318616091, -0.104996737204803, 0.0], [-77.96199901731221, -0.107460663815504, 0.0], [-77.96272254863013, -0.109828858042416, 0.0], [-77.96430680561062, -0.111009614026263, 0.0], [-77.96481531038997, -0.111178206802585, 0.0], [-77.96666440112885, -0.111087562184187, 0.0], [-77.96725341277019, -0.111728848066298, 0.0], [-77.96781719137759, -0.113103386054439, 0.0], [-77.96846977731079, -0.116659175759413, 0.0], [-77.96912251839534, -0.118691088551596, 0.0], [-77.9692411668956, -0.119348461741468, 0.0], [-77.96918158224267, -0.121380297173312, 0.0], [-77.96941064942274, -0.122628304112969, 0.0], [-77.96975542080622, -0.122841705838908, 0.0], [-77.97101233447967, -0.122252890934366, 0.0], [-77.97176906395966, -0.121560676722503, 0.0], [-77.97281228551911, -0.120082752417578, 0.0], [-77.97312657408985, -0.119865193513026, 0.0], [-77.9746150286648, -0.11943077420827, 0.0], [-77.9758186594366, -0.119504818170153, 0.0], [-77.97639176381513, -0.120106107695699, 0.0], [-77.97647409538104, -0.120783132612206, 0.0], [-77.97719910348478, -0.121635318688476, 0.0], [-77.97745083416513, -0.121671761224701, 0.0], [-77.98002964983328, -0.119188387832865, 0.0], [-77.98094488142073, -0.118586901771539, 0.0], [-77.98204814446723, -0.118105096850562, 0.0], [-77.98451030129063, -0.117847466958228, 0.0], [-77.98528473140834, -0.117574949889482, 0.0], [-77.98635330653745, -0.116857934569793, 0.0], [-77.9879205923203, -0.115423836937854, 0.0], [-77.9899020959403, -0.112382752948033, 0.0], [-77.99074837676315, -0.110622380203291, 0.0], [-77.99102309590447, -0.110399810858794, 0.0], [-77.99546424424965, -0.111160034363631, 0.0], [-77.99619220834522, -0.112294277129811, 0.0], [-77.99770539661483, -0.115623876614311, 0.0], [-77.99905766220354, -0.117284281419373, 0.0], [-77.99974251877491, -0.118976368290702, 0.0], [-78.0006118185502, -0.119504860480648, 0.0], [-78.00018621677306, -0.120265626037005, 0.0], [-77.99994063979439, -0.122782146004013, 0.0], [-77.99986382247525, -0.124550032118921, 0.0], [-78.00005842495982, -0.126395921051511, 0.0], [-78.00003151143297, -0.128275591917919, 0.0], [-78.0009132386099, -0.128803952209599, 0.0], [-78.00125524704073, -0.128086851340689, 0.0], [-78.00270851548932, -0.127326850870022, 0.0], [-78.00488819027177, -0.128187679418804, 0.0], [-78.00560047681314, -0.128689764624191, 0.0], [-78.00691331073924, -0.128745922632367, 0.0], [-78.00821128601285, -0.129227423922113, 0.0], [-78.00908829269457, -0.129771327244865, 0.0], [-78.00903877407994, -0.131057829589237, 0.0], [-78.00915913157817, -0.131876826748599, 0.0], [-78.01019122172113, -0.132533710519726, 0.0], [-78.011454509086, -0.13208445066878, 0.0], [-78.01201488879398, -0.132103642799197, 0.0], [-78.01228621208587, -0.132547032468434, 0.0], [-78.01373385243276, -0.133566837142013, 0.0], [-78.01496387440466, -0.135428786523613, 0.0], [-78.01479314225706, -0.137700155343648, 0.0], [-78.01512516556183, -0.138389768581984, 0.0], [-78.01544388687395, -0.138841016642522, 0.0], [-78.0159757400816, -0.139135116321406, 0.0], [-78.01693617058385, -0.139598997445625, 0.0], [-78.01753300987517, -0.139629030999204, 0.0], [-78.01889430921334, -0.141043386488622, 0.0], [-78.02039164793032, -0.140824856803136, 0.0], [-78.021915419182, -0.140283651582266, 0.0], [-78.02283238273529, -0.1395541108849, 0.0], [-78.02361026064455, -0.139288273110734, 0.0], [-78.02515634418656, -0.1396081918301, 0.0], [-78.0256448156828, -0.138518094829308, 0.0], [-78.02625969872388, -0.138187576554991, 0.0], [-78.02784580565857, -0.138069146213089, 0.0], [-78.02850764177083, -0.13860112304329, 0.0], [-78.02944211714707, -0.138557272873136, 0.0], [-78.03055601383402, -0.138795612711179, 0.0], [-78.0308765418037, -0.13907534609805, 0.0], [-78.03109259035669, -0.13974436573, 0.0], [-78.03235641172557, -0.140488082715098, 0.0], [-78.03334891717087, -0.140791062865626, 0.0], [-78.03566481084415, -0.139657871529798, 0.0], [-78.03686973238116, -0.139501115028992, 0.0], [-78.03797240659425, -0.138862443986563, 0.0], [-78.03861688643488, -0.139004672647215, 0.0], [-78.03895727389633, -0.138934414034627, 0.0], [-78.03941593498382, -0.138586188351425, 0.0], [-78.04024281362246, -0.138297814167917, 0.0], [-78.04104702746902, -0.138550087690992, 0.0], [-78.04167645724576, -0.139185923362606, 0.0], [-78.04249862376811, -0.13943385868091, 0.0], [-78.04306094800418, -0.140084698183458, 0.0], [-78.0434291085806, -0.140291263216798, 0.0], [-78.04448334888505, -0.140836447540886, 0.0], [-78.0458296833024, -0.141223891163222, 0.0], [-78.04699668967162, -0.142926447428691, 0.0], [-78.04904817357155, -0.144112439571874, 0.0], [-78.05324626169283, -0.145509089945752, 0.0], [-78.05432904384409, -0.14575785347546, 0.0], [-78.05738748907787, -0.146026003096647, 0.0], [-78.05774840297045, -0.146217298316982, 0.0], [-78.05833721668044, -0.146886743543331, 0.0], [-78.05928493379716, -0.148593438580561, 0.0], [-78.05955552420241, -0.149458872513094, 0.0], [-78.05724683516901, -0.150897135597236, 0.0], [-78.05679724499346, -0.151647325758949, 0.0], [-78.05650170146305, -0.152818900263295, 0.0], [-78.05650965057467, -0.154560716745568, 0.0], [-78.05562719933482, -0.155139820582707, 0.0], [-78.05562589460048, -0.156269534215507, 0.0], [-78.05514047024722, -0.157102636398094, 0.0], [-78.05504976925435, -0.158305289436554, 0.0], [-78.05464581110341, -0.158864131524291, 0.0], [-78.05457607379856, -0.160001324496528, 0.0], [-78.0542375928995, -0.161158306990711, 0.0], [-78.05469157749482, -0.162005147965897, 0.0], [-78.0550987316601, -0.163771594913499, 0.0], [-78.0572199431697, -0.164772515208604, 0.0], [-78.0575689110512, -0.165367876275618, 0.0], [-78.05750718301438, -0.165768460828006, 0.0], [-78.0576246844672, -0.16604817804186, 0.0], [-78.05887371977995, -0.166090201535716, 0.0], [-78.06002297132021, -0.16648243192696, 0.0], [-78.06123958818722, -0.167444276972913, 0.0], [-78.0616643210809, -0.168508059745657, 0.0], [-78.0618302137198, -0.16956530010344, 0.0], [-78.06136219791924, -0.171994467093819, 0.0], [-78.06211032816479, -0.174161524659268, 0.0], [-78.06223108040007, -0.175100752149041, 0.0], [-78.0639527392027, -0.175078672241865, 0.0], [-78.06492223333763, -0.175480268245875, 0.0], [-78.06657704924439, -0.175849282540582, 0.0], [-78.06948362362397, -0.175870635982967, 0.0], [-78.06970880921685, -0.17594934738218, 0.0], [-78.07021527240587, -0.176518897652568, 0.0], [-78.07033981035525, -0.177675620513194, 0.0], [-78.07019106904983, -0.179736553332597, 0.0], [-78.07045739543014, -0.180905791043151, 0.0], [-78.07085886913639, -0.181804252878086, 0.0], [-78.07059199214987, -0.182159635207645, 0.0], [-78.07036744776633, -0.183038151900291, 0.0], [-78.07104773911898, -0.183285694165938, 0.0], [-78.07210915804528, -0.184495154698058, 0.0], [-78.07340491640618, -0.185132432616594, 0.0], [-78.07376775340471, -0.185064635921646, 0.0], [-78.07396731550648, -0.184498089291913, 0.0], [-78.07448028894817, -0.184189782891721, 0.0], [-78.07592922009363, -0.184649024449795, 0.0], [-78.07726670917769, -0.182998523534447, 0.0], [-78.07765044019557, -0.182720063706433, 0.0], [-78.07864613479111, -0.18255825421468, 0.0], [-78.07920465978601, -0.182817274499768, 0.0], [-78.07977935968239, -0.183509148928907, 0.0], [-78.08071376727328, -0.185468014934369, 0.0], [-78.08072791622699, -0.186070459682408, 0.0], [-78.0824979383438, -0.188682987621589, 0.0], [-78.08346673067778, -0.189094343121409, 0.0], [-78.08449929672506, -0.189845664436192, 0.0], [-78.08589174261024, -0.188734175979557, 0.0], [-78.08650514636338, -0.188536459931866, 0.0], [-78.08702008218468, -0.187887681751795, 0.0], [-78.08795055767342, -0.187405593495542, 0.0], [-78.08847072452136, -0.18644893094102, 0.0], [-78.08882712047051, -0.185258440744615, 0.0], [-78.08868568766798, -0.183831018840984, 0.0], [-78.090013591908, -0.182435566041203, 0.0], [-78.09056781239278, -0.1803691775353, 0.0], [-78.09079582033486, -0.180125366696255, 0.0], [-78.0915080879359, -0.180971778074328, 0.0], [-78.09324610250265, -0.182535558109051, 0.0], [-78.09401173848671, -0.184035036738605, 0.0], [-78.09441301825949, -0.18439294954939, 0.0], [-78.095992443449, -0.186708147640561, 0.0], [-78.09674872863957, -0.187239232855982, 0.0], [-78.09727579829008, -0.187913493282546, 0.0], [-78.0983311081284, -0.189894703996956, 0.0], [-78.10034024142371, -0.19124359563716, 0.0], [-78.10050883187195, -0.191478493469229, 0.0], [-78.10186801831274, -0.190892099941766, 0.0], [-78.1020248561565, -0.190246640371364, 0.0], [-78.10260905379934, -0.190117642094098, 0.0], [-78.10360663215555, -0.188898556295039, 0.0], [-78.1042050881057, -0.188712182892026, 0.0], [-78.10436186336712, -0.188439669480092, 0.0], [-78.10431916140507, -0.188181466778313, 0.0], [-78.10511926330467, -0.187243975202159, 0.0], [-78.1061761556504, -0.185117391642647, 0.0], [-78.10635882336138, -0.183725466736621, 0.0], [-78.10632987391584, -0.182706523365311, 0.0], [-78.10651015728469, -0.182077216059064, 0.0], [-78.1074239880634, -0.18082855936713, 0.0], [-78.10783092473396, -0.179544060974343, 0.0], [-78.10864713486185, -0.180376311998067, 0.0], [-78.10903583124008, -0.180537839839642, 0.0], [-78.11135386144775, -0.180901733297104, 0.0], [-78.11237148695618, -0.180790305905256, 0.0], [-78.11296030314637, -0.180567644549355, 0.0], [-78.1145217595869, -0.179813801905099, 0.0], [-78.11583145580893, -0.17889983933615, 0.0], [-78.11689249158022, -0.178949165621158, 0.0], [-78.11920013360103, -0.179660440731185, 0.0], [-78.12047579558414, -0.180837320286039, 0.0], [-78.12156855947244, -0.180702841289758, 0.0], [-78.12406387876959, -0.180987207968575, 0.0], [-78.12475708457477, -0.180926068310958, 0.0], [-78.12548751045215, -0.180142454824772, 0.0], [-78.12827243028599, -0.178930474396186, 0.0], [-78.12920584432129, -0.178060388415808, 0.0], [-78.1305831162125, -0.176310314889198, 0.0], [-78.1309452859359, -0.174587629640088, 0.0], [-78.13059784396805, -0.171174226842639, 0.0], [-78.13074996687524, -0.170237074800132, 0.0], [-78.13206615355972, -0.167361433547882, 0.0], [-78.13230122130108, -0.167598152916263, 0.0], [-78.1327424885985, -0.167729785379921, 0.0], [-78.13430226860683, -0.16772820204706, 0.0], [-78.13697017414722, -0.167079407151759, 0.0], [-78.13807551167496, -0.167087802967065, 0.0], [-78.13859887343422, -0.166944111373739, 0.0], [-78.139542227497, -0.167240212740382, 0.0], [-78.14018332052538, -0.166857113078941, 0.0], [-78.14070882090029, -0.166808543065192, 0.0], [-78.14166452324704, -0.168656736299556, 0.0], [-78.14374940629088, -0.171245151427608, 0.0], [-78.1454423234653, -0.171250467473897, 0.0], [-78.14619161322474, -0.171688040579569, 0.0], [-78.14746706523752, -0.172100199282296, 0.0], [-78.14850237457799, -0.172779818126216, 0.0], [-78.14971786271863, -0.173343542969057, 0.0], [-78.15427976597364, -0.172952795696933, 0.0], [-78.1552633188044, -0.172753793369031, 0.0], [-78.15589603116777, -0.174030365353961, 0.0], [-78.15666712254871, -0.174743232867842, 0.0], [-78.15690212734563, -0.17541747664998, 0.0], [-78.15811667489538, -0.177555997715609, 0.0], [-78.1583284703731, -0.178759987744919, 0.0], [-78.15792466973198, -0.179794508746609, 0.0], [-78.15809689421994, -0.181616071174215, 0.0], [-78.15840084304904, -0.182552718808387, 0.0], [-78.15944062215875, -0.18396221117306, 0.0], [-78.16222820964376, -0.186841407124602, 0.0], [-78.16253720128634, -0.186989702609932, 0.0], [-78.16535322199299, -0.187291882231577, 0.0], [-78.1669432230941, -0.186807475756885, 0.0], [-78.16706235450823, -0.186891241534959, 0.0], [-78.16762521133359, -0.185244626342217, 0.0], [-78.16818918779998, -0.182827879580202, 0.0], [-78.16814346779039, -0.1818019141323, 0.0], [-78.1689433494259, -0.180473634695724, 0.0], [-78.1651039797908, -0.177747371152993, 0.0], [-78.16606119561887, -0.174145618060021, 0.0], [-78.1659730061496, -0.173413336725157, 0.0], [-78.16608966214095, -0.173103415358529, 0.0], [-78.16634217411517, -0.17278489744786, 0.0], [-78.1668687285349, -0.172593548705374, 0.0], [-78.16698923944394, -0.172350493518955, 0.0], [-78.16759134259117, -0.172215466558209, 0.0], [-78.16795080575156, -0.172402639055312, 0.0], [-78.16814691794075, -0.172357623938318, 0.0], [-78.16831286014492, -0.172068491571696, 0.0], [-78.16986366730794, -0.170852626613538, 0.0], [-78.17002626391196, -0.170589233621134, 0.0], [-78.169999114831, -0.169283479935369, 0.0], [-78.17034347816312, -0.168616989179461, 0.0], [-78.17190250194801, -0.167390870476987, 0.0], [-78.17266240115237, -0.167179357888996, 0.0], [-78.17296059165115, -0.166739511240446, 0.0], [-78.17338838323482, -0.166596183496847, 0.0], [-78.17370100288177, -0.165993978149983, 0.0], [-78.17400063179456, -0.165852924981958, 0.0], [-78.17414660687298, -0.165598874095398, 0.0], [-78.17441634085243, -0.165592606443095, 0.0], [-78.17455719720037, -0.165318306287082, 0.0], [-78.17476254709071, -0.165324399044029, 0.0], [-78.17476219380751, -0.165042380586285, 0.0], [-78.17503606432746, -0.164938149652084, 0.0], [-78.17507881432452, -0.164421336789185, 0.0], [-78.17523924640244, -0.164436282115988, 0.0], [-78.17526986621829, -0.164246152115156, 0.0], [-78.17578569507936, -0.16383752680828, 0.0], [-78.17581091828445, -0.163469686323953, 0.0], [-78.17602420940253, -0.163224290132137, 0.0], [-78.17593647968874, -0.162968882533309, 0.0], [-78.17626299589178, -0.162723709119122, 0.0], [-78.17606711780756, -0.162059047056978, 0.0], [-78.17635383628614, -0.162000152874882, 0.0], [-78.17636305774572, -0.16161290547315, 0.0], [-78.1768188969065, -0.160789123703463, 0.0], [-78.17710152026119, -0.16061598585557, 0.0], [-78.17726920755044, -0.160154725192457, 0.0], [-78.17751883183494, -0.160089621919136, 0.0], [-78.17748298889504, -0.15989818280224, 0.0], [-78.17785519242088, -0.159864627577524, 0.0], [-78.17822324120074, -0.159152431659042, 0.0], [-78.17877829077443, -0.158884670295619, 0.0], [-78.17883482678242, -0.158301463388924, 0.0], [-78.17956694379414, -0.157983869815267, 0.0], [-78.17995723711613, -0.157020877724719, 0.0], [-78.18022377373102, -0.156917697885636, 0.0], [-78.18104408347641, -0.157328359615912, 0.0], [-78.18128938717223, -0.157198123090101, 0.0], [-78.1816595069835, -0.156686663031633, 0.0], [-78.18156365283218, -0.156520917152158, 0.0], [-78.18182088594394, -0.156292615585723, 0.0], [-78.1819335498581, -0.155495919367005, 0.0], [-78.1828142294872, -0.154760063262498, 0.0], [-78.18312649350064, -0.154680908134095, 0.0], [-78.18378032296425, -0.153939273320314, 0.0], [-78.18517823265978, -0.153490089225521, 0.0], [-78.18583514605601, -0.153494971001002, 0.0], [-78.18712632110875, -0.152785586220289, 0.0], [-78.18757275164202, -0.15284867178263, 0.0], [-78.18788443414559, -0.152307202710018, 0.0], [-78.18830105041289, -0.152510658438756, 0.0], [-78.18845463129773, -0.152366595869291, 0.0], [-78.18904946183687, -0.152276305108512, 0.0], [-78.18926079596643, -0.152398640847565, 0.0], [-78.18983455163097, -0.152293545691702, 0.0], [-78.19005992791395, -0.151679666561257, 0.0], [-78.19082909815982, -0.151353018430838, 0.0], [-78.19176670822202, -0.151241875877426, 0.0], [-78.19217992068177, -0.151521520704908, 0.0], [-78.19238389389555, -0.151312616294909, 0.0], [-78.19316214680777, -0.151269867213463, 0.0], [-78.19335857230212, -0.15105381019387, 0.0], [-78.1938847786306, -0.150881051342669, 0.0], [-78.19418148932276, -0.150554618540184, 0.0], [-78.19562893707653, -0.150064852267867, 0.0], [-78.19613442610482, -0.149587425563099, 0.0], [-78.19689517849021, -0.149182046888003, 0.0], [-78.19720262612734, -0.148751561599831, 0.0], [-78.19783166602397, -0.148770338440954, 0.0], [-78.19791128719298, -0.148358035626971, 0.0], [-78.19848456469879, -0.147945075356075, 0.0], [-78.19884190803135, -0.147412764829866, 0.0], [-78.19948444037293, -0.146922635910545, 0.0], [-78.19967706292154, -0.146944450698272, 0.0], [-78.20061130420133, -0.146359065840153, 0.0], [-78.2009273653496, -0.145693610164747, 0.0], [-78.20133121640998, -0.145577241418687, 0.0], [-78.20192449692576, -0.144942445056457, 0.0], [-78.20278751478466, -0.144624799777118, 0.0], [-78.2030888266192, -0.14417574755972, 0.0], [-78.20444778488461, -0.143117865728676, 0.0], [-78.2048707576499, -0.14315630009993, 0.0], [-78.20521745647666, -0.142797586300231, 0.0], [-78.20642296208851, -0.142386330596277, 0.0], [-78.20669239450692, -0.142013291049129, 0.0], [-78.20723119253944, -0.14176378671524, 0.0], [-78.20786827527311, -0.141599790193174, 0.0], [-78.20821422682744, -0.141675709877226, 0.0], [-78.20893660399189, -0.141166296619349, 0.0], [-78.21005461794839, -0.140927067102184, 0.0], [-78.21080811400822, -0.140924230183219, 0.0], [-78.21134299602514, -0.140512302264384, 0.0], [-78.21350963586664, -0.139799381518202, 0.0], [-78.21436935039031, -0.139082686126685, 0.0], [-78.21521339302934, -0.138847896538437, 0.0], [-78.21638619478094, -0.138789431750268, 0.0], [-78.21669175915066, -0.138474616765963, 0.0], [-78.21726917964725, -0.138417695915358, 0.0], [-78.21776095391384, -0.138014397409262, 0.0], [-78.21861863344742, -0.137872285243189, 0.0], [-78.21916821518703, -0.138265157729082, 0.0], [-78.21962487908013, -0.137908941299972, 0.0], [-78.22089534720413, -0.13767289752691, 0.0], [-78.22190223664919, -0.136924221567116, 0.0], [-78.2240384378895, -0.136055628281236, 0.0], [-78.22487257783558, -0.135451342390832, 0.0], [-78.22595840413052, -0.135134664729374, 0.0], [-78.22631715166942, -0.134869295289091, 0.0], [-78.22700227797957, -0.134742866291284, 0.0], [-78.22738130453894, -0.134288175543891, 0.0], [-78.22795956924773, -0.134294945008027, 0.0], [-78.229926542742, -0.133498556445719, 0.0], [-78.23132012909201, -0.133402925753948, 0.0], [-78.23198295659854, -0.133598296321726, 0.0], [-78.23315734707947, -0.13464334897421, 0.0], [-78.2334927815709, -0.134658486742512, 0.0], [-78.23367584824057, -0.134864513689045, 0.0], [-78.23404668993619, -0.134797436948027, 0.0], [-78.23453053403409, -0.134319872590948, 0.0], [-78.23546223591944, -0.134178950946941, 0.0], [-78.23567269008205, -0.133932298806588, 0.0], [-78.23568843308216, -0.133495107053697, 0.0], [-78.23633887912479, -0.133017644302456, 0.0], [-78.23627406524673, -0.132783399808535, 0.0], [-78.23639317035678, -0.132676879330736, 0.0], [-78.23682159223615, -0.132597885127872, 0.0], [-78.23762218593941, -0.132827125815596, 0.0], [-78.23785598657715, -0.13260433436502, 0.0], [-78.23854460544213, -0.13247952406686, 0.0], [-78.23890653846611, -0.132162460098677, 0.0], [-78.23956098317531, -0.132453921397353, 0.0], [-78.24013186149331, -0.131903434192202, 0.0], [-78.24136780890976, -0.1316139025831, 0.0], [-78.24195399798418, -0.131289480342985, 0.0], [-78.24275458981703, -0.131283470387285, 0.0], [-78.24329491272913, -0.130651510262993, 0.0], [-78.24374900492134, -0.130388828833512, 0.0], [-78.24406495548385, -0.129071764924971, 0.0], [-78.24480146538342, -0.129095327404938, 0.0], [-78.24494583822249, -0.128622867486828, 0.0], [-78.24520622066991, -0.128537020116346, 0.0], [-78.24556097500484, -0.128113484429469, 0.0], [-78.24707917217405, -0.127841942904582, 0.0], [-78.24723886155284, -0.127685712924976, 0.0], [-78.24761608452272, -0.127704171529353, 0.0], [-78.24809448050812, -0.127412882718504, 0.0], [-78.24866140250934, -0.127473852748647, 0.0], [-78.25027298003272, -0.124823190690593, 0.0], [-78.24813854127498, -0.124449258427676, 0.0], [-78.24493679050823, -0.124892714625155, 0.0], [-78.2412477181049, -0.12645725256539, 0.0], [-78.23608817181149, -0.129940733831323, 0.0], [-78.23187428337548, -0.130286786120164, 0.0], [-78.22881176864327, -0.130800304072616, 0.0], [-78.22616696024404, -0.130449667245569, 0.0], [-78.22250114581716, -0.131944091918225, 0.0], [-78.21735049530193, -0.133718621321551, 0.0], [-78.21032069993497, -0.135119218070816, 0.0], [-78.20284348775907, -0.136416244358126, 0.0], [-78.20117971537377, -0.136846541333072, 0.0], [-78.19704996126505, -0.138434281580992, 0.0], [-78.19215456504034, -0.140582463860581, 0.0], [-78.18686486960273, -0.142053257943164, 0.0], [-78.17995151059942, -0.14118826562545, 0.0], [-78.17795644013486, -0.14048735679472, 0.0], [-78.1759149117379, -0.140323624426334, 0.0], [-78.17266692116937, -0.141023907141328, 0.0], [-78.16990618772293, -0.141163709810614, 0.0], [-78.16370672911201, -0.141959906103396, 0.0], [-78.16004635650103, -0.142727335376906, 0.0], [-78.15747124189275, -0.142913864376503, 0.0], [-78.1555225876884, -0.142399812020643, 0.0], [-78.1546201830456, -0.140883519930537, 0.0], [-78.15250719497965, -0.138429063086968, 0.0], [-78.15041924735246, -0.138825854458773, 0.0], [-78.14800663630923, -0.13824169098079, 0.0], [-78.14504702893704, -0.13775592912931, 0.0], [-78.14274057466714, -0.137750613038408, 0.0], [-78.14046693593843, -0.139174997498328, 0.0], [-78.13881954145273, -0.141627066001032, 0.0], [-78.13960797819963, -0.144242913310473, 0.0], [-78.1405820989028, -0.146064719498876, 0.0], [-78.13783023430767, -0.146772900781989, 0.0], [-78.13702072007223, -0.147116162284586, 0.0], [-78.13526938444012, -0.147909084503757, 0.0], [-78.12735816208237, -0.152135273483261, 0.0], [-78.12582702121402, -0.152485391776051, 0.0], [-78.1239246166985, -0.153559453825105, 0.0], [-78.12318218965589, -0.154166573893365, 0.0], [-78.12206778577215, -0.15556271201317, 0.0], [-78.11974857303387, -0.15619795920671, 0.0], [-78.11691837064505, -0.156337703280143, 0.0], [-78.11550319396189, -0.156991436282712, 0.0], [-78.11390485651887, -0.159067465508489, 0.0], [-78.11255451815414, -0.159979884073662, 0.0], [-78.11130382969397, -0.16068085026767, 0.0], [-78.11002789418735, -0.160984277985737, 0.0], [-78.10889122476547, -0.160727221082761, 0.0], [-78.10774129184749, -0.161894774477952, 0.0], [-78.10661759280184, -0.162361700903784, 0.0], [-78.10598296768306, -0.16006029152578, 0.0], [-78.10578330776748, -0.156196067695377, 0.0], [-78.10460067022673, -0.152739484535316, 0.0], [-78.104740445434, -0.148185433322995, 0.0], [-78.10504579141202, -0.145946502915216, 0.0], [-78.10555287667506, -0.144168612575218, 0.0], [-78.10440566122593, -0.142115315107279, 0.0], [-78.10279285495675, -0.139801037991955, 0.0], [-78.10181894119548, -0.136437922486478, 0.0], [-78.09907127098002, -0.130702713366052, 0.0], [-78.09597366556113, -0.131462822687077, 0.0], [-78.09402516880864, -0.130458379428115, 0.0], [-78.092030042527, -0.131579142480595, 0.0], [-78.08961741625373, -0.132209420388891, 0.0], [-78.08799362990389, -0.131812217245135, 0.0], [-78.08778508040542, -0.129780409119518, 0.0], [-78.06855445900075, -0.129754874912774, 0.0], [-78.0482803435818, -0.129495676924739, 0.0], [-78.04797891972781, -0.128304638755663, 0.0], [-78.05099473809639, -0.126156496764063, 0.0], [-78.05199239238253, -0.124405124703941, 0.0], [-78.05018357996764, -0.119313959042678, 0.0], [-78.04985906761237, -0.11695526679421, 0.0], [-78.05076385053344, -0.115881117510633, 0.0], [-78.05152950997189, -0.114223126278385, 0.0], [-78.05213280177908, -0.112448350803746, 0.0], [-78.0539656251101, -0.109599448246269, 0.0], [-78.05494006944893, -0.107731288470533, 0.0], [-78.05519538338584, -0.10611994419812, 0.0], [-78.05405889609749, -0.104368353131862, 0.0], [-78.0544302747171, -0.101799539831567, 0.0], [-78.05382725046545, -0.100725241667428, 0.0], [-78.05443042374812, -0.100094759678137, 0.0], [-78.05565984779545, -0.100211633060603, 0.0], [-78.05665736418959, -0.099627890453757, 0.0], [-78.05815021796401, -0.099951070550808, 0.0], [-78.0599745299244, -0.099581471711129, 0.0], [-78.0601602367685, -0.098040171953043, 0.0], [-78.05948774622274, -0.095377843407439, 0.0], [-78.05948788044647, -0.093719761742788, 0.0], [-78.05844414523673, -0.092131655846264, 0.0], [-78.05628693631124, -0.090800351527767, 0.0], [-78.0547095877341, -0.09030981047152, 0.0], [-78.05281057982168, -0.088810189673227, 0.0], [-78.0517637525614, -0.088207799004623, 0.0], [-78.0497457962944, -0.086035810704922, 0.0], [-78.04703187987656, -0.084681133076071, 0.0], [-78.0444107031649, -0.08402705725304, 0.0], [-78.04250859730865, -0.083816742127656, 0.0], [-78.04095436876108, -0.084610626385352, 0.0], [-78.03907546049643, -0.084447017038386, 0.0], [-78.0379387325119, -0.085801396429301, 0.0], [-78.03645410468766, -0.086501868359738, 0.0], [-78.03531753428926, -0.085754493823928, 0.0], [-78.03394894520656, -0.085754391515929, 0.0], [-78.03283550012934, -0.085987834866015, 0.0], [-78.03204691757684, -0.084703378171173, 0.0], [-78.03200066119524, -0.082811807740901, 0.0], [-78.03747522686828, -0.079846398385322, 0.0], [-78.03921501414113, -0.079122581968418, 0.0], [-78.04097805495653, -0.077581414496244, 0.0], [-78.04304288479867, -0.072373852836474, 0.0], [-78.04307555602864, -0.067965387684923, 0.0], [-78.04332175731626, -0.063499761715366, 0.0], [-78.04380903352458, -0.060697436203897, 0.0], [-78.04520090553532, -0.059226272596297, 0.0], [-78.04559531999611, -0.057778408113051, 0.0], [-78.04668561814286, -0.056634166821347, 0.0], [-78.0481006569776, -0.055770172591608, 0.0], [-78.05100031476977, -0.054322419057351, 0.0], [-78.0536215706351, -0.053902183616959, 0.0], [-78.05553596923623, -0.053970541227114, 0.0], [-78.05656765553114, -0.051987355554081, 0.0], [-78.05735645697655, -0.049441890058173, 0.0], [-78.05744932546425, -0.047410163253613, 0.0], [-78.05313480457025, -0.045004619850778, 0.0], [-78.05250852566492, -0.044047118386715, 0.0], [-78.05097751628327, -0.044654242526016, 0.0], [-78.04926098530792, -0.043930233753738, 0.0], [-78.04670941700131, -0.04201519482697, 0.0], [-78.04538725271149, -0.040684029153599, 0.0], [-78.04360978933414, -0.037002009289853, 0.0], [-78.04137450621306, -0.031716386982247, 0.0], [-78.03937969777432, -0.027769706280489, 0.0], [-78.0372330527246, -0.025066468639386, 0.0], [-78.03622504572654, -0.024430189952847, 0.0], [-78.03520443766925, -0.022515245393582, 0.0], [-78.03383588137886, -0.020576945710437, 0.0], [-78.03051882884029, -0.018825445213546, 0.0], [-78.02854717311476, -0.016560214258011, 0.0], [-78.02715542074509, -0.014365055011576, 0.0], [-78.02562448368484, -0.012823771292033, 0.0], [-78.02325848026355, -0.011749536170588, 0.0], [-78.02144919311364, -0.010091497747052, 0.0], [-78.0198254778034, -0.007569427028284, 0.0], [-78.01875846555482, -0.004813839067607, 0.0], [-78.01834093720046, -0.00287559119983, 0.0], [-78.0170383491536, 0.001035808086413, 0.0], [-78.01611845800052, 0.003366810963097, 0.0], [-78.01532542272112, 0.004854027692964, 0.0], [-78.01836408040538, 0.007516223442087, 0.0], [-78.02237699615911, 0.00847371522064, 0.0], [-78.02467340764916, 0.009337782354361, 0.0], [-78.02759611576833, 0.010668913683618, 0.0], [-78.03446219766612, 0.013004275159669, 0.0], [-78.03608593214051, 0.014055172994361, 0.0], [-78.03490288635419, 0.015713199915674, 0.0], [-78.03418375784555, 0.017978401087719, 0.0], [-78.03286150416587, 0.02089746308954, 0.0], [-78.0313321848487, 0.022349513039272, 0.0], [-78.02898761972243, 0.025007438611943, 0.0], [-78.02365246153381, 0.02596475322572, 0.0], [-78.02383796421296, 0.028393419385003, 0.0], [-78.02483533555811, 0.030588585143128, 0.0], [-78.02597189153737, 0.032456825006377, 0.0], [-78.02773474875225, 0.034184974433934, 0.0], [-78.02921924115282, 0.036193350286741, 0.0], [-78.02891759730524, 0.038692070379425, 0.0], [-78.02736335207769, 0.041120678768518, 0.0], [-78.02536841533878, 0.042615160527015, 0.0], [-78.02273896982837, 0.043138765844713, 0.0], [-78.01919810422845, 0.045767476738709, 0.0], [-78.01692484273403, 0.046818230902324, 0.0], [-78.01467808150646, 0.04653554471443, 0.0], [-78.01272642966539, 0.045440253668606, 0.0], [-78.01010528935416, 0.045463488819657, 0.0], [-78.00840150740326, 0.048893352460812, 0.0], [-78.00681120250515, 0.05132472921074, 0.0], [-78.00486272498769, 0.051931786078837, 0.0], [-78.0023806963388, 0.053542950947077, 0.0], [-77.99996824509493, 0.055410984773855, 0.0], [-77.99646554902361, 0.058213025533518, 0.0], [-77.99556083710871, 0.059684144101736, 0.0], [-77.99525921933478, 0.060991833158824, 0.0], [-77.99379788733373, 0.061178561257428, 0.0], [-77.99222049167273, 0.062859798799073, 0.0], [-77.99173335261389, 0.063396860930799, 0.0], [-77.99060358383791, 0.066269766620833, 0.0], [-77.99000046427035, 0.067241122269859, 0.0], [-77.98894957983799, 0.06839396553869, 0.0], [-77.98577797275873, 0.076086583979225, 0.0], [-77.9820132165903, 0.081610517452463, 0.0], [-77.98106213392597, 0.082567857045464, 0.0], [-77.98043572240202, 0.084319174908225, 0.0], [-77.97980921224465, 0.087238069947418, 0.0], [-77.97855636904347, 0.090787397814473, 0.0], [-77.97832421239322, 0.093122530793451, 0.0], [-77.97621313352585, 0.096625064440602, 0.0], [-77.97607372379532, 0.09919371497997, 0.0], [-77.97642110403348, 0.104868159286914, 0.0], [-77.97765047189932, 0.104658119541382, 0.0], [-77.97834631779438, 0.104774947300225, 0.0], [-77.97911188936168, 0.103467337386248, 0.0], [-77.97999334129996, 0.103140502633816, 0.0], [-77.98203450809577, 0.103350868802486, 0.0], [-77.98393600014646, 0.102828991686313, 0.0], [-77.98634163697638, 0.102892469954389, 0.0], [-77.98769414260587, 0.103748406065143, 0.0], [-77.98945683372304, 0.105429908251645, 0.0], [-77.98978146101811, 0.106527474456388, 0.0], [-77.99082529525586, 0.106153952146594, 0.0], [-77.99161400598773, 0.105523532354669, 0.0], [-77.99384070540656, 0.106271014966935, 0.0], [-77.99643858611354, 0.106551501136998, 0.0], [-77.99878123399921, 0.107672633497419, 0.0], [-77.99938425416224, 0.108349903183447, 0.0], [-77.99683264660365, 0.109166956720385, 0.0], [-77.99636870012097, 0.109493836996969, 0.0], [-77.99762117673295, 0.110357988587453, 0.0], [-78.00249214914716, 0.111596157964288, 0.0], [-78.003860626932, 0.112296864426453, 0.0], [-78.00624980911931, 0.112180356900587, 0.0], [-78.0082910973313, 0.111690179107079, 0.0], [-78.00887096470217, 0.111970466077819, 0.0], [-78.0108193793937, 0.112391012387595, 0.0], [-78.01190947376713, 0.113488684424598, 0.0], [-78.01281391353182, 0.115403667532842, 0.0], [-78.01520290345158, 0.117248760856528, 0.0], [-78.01722074002201, 0.119257287745206, 0.0], [-78.01903005274701, 0.119117376059609, 0.0], [-78.02172070514695, 0.120028423581391, 0.0], [-78.02399365905032, 0.122480693184952, 0.0], [-78.02626602570439, 0.129907069466005, 0.0], [-78.02710069915959, 0.133153178235104, 0.0], [-78.02549587927028, 0.131663694762768, 0.0], [-78.02376094973047, 0.128902606676456, 0.0], [-78.02147982201096, 0.12666686896821, 0.0], [-78.01889022606635, 0.124862051570061, 0.0], [-78.01571246103592, 0.123997642440388, 0.0], [-78.01367142201552, 0.122129220776683, 0.0], [-78.0121924094356, 0.12156105699296, 0.0], [-78.011212894288, 0.119933827553204, 0.0], [-78.00882376994333, 0.119419809210191, 0.0], [-78.0061097317945, 0.120493701084155, 0.0], [-78.00355804781199, 0.121754422902045, 0.0], [-78.0016093997202, 0.123528953373999, 0.0], [-77.99720185728621, 0.126587541931746, 0.0], [-77.99647764518504, 0.127368595508352, 0.0], [-77.99574027814015, 0.12871239043381, 0.0], [-77.99088045609993, 0.132418318540061, 0.0], [-77.9881312242069, 0.136067261156536, 0.0], [-77.98692493987294, 0.137001174919713, 0.0], [-77.98551000015948, 0.137141101352308, 0.0], [-77.98089379023318, 0.139685824113428, 0.0], [-77.97980362206846, 0.139592273591672, 0.0], [-77.97771586525062, 0.140969736017821, 0.0], [-77.97511794591513, 0.141366362984457, 0.0], [-77.97407420189435, 0.141062653892091, 0.0], [-77.97321594065765, 0.141366107825683, 0.0], [-77.97321572833913, 0.142954003186391, 0.0], [-77.97163813304691, 0.145358982188581, 0.0], [-77.97133638142998, 0.146923483219869, 0.0], [-77.97189289752727, 0.148137833279963, 0.0], [-77.96825113785522, 0.149048021103633, 0.0], [-77.96774060408461, 0.150775944643057, 0.0], [-77.96604722334496, 0.15177980642645, 0.0], [-77.96658064885914, 0.152200207078835, 0.0], [-77.96660372365785, 0.153040855460644, 0.0], [-77.96534611019138, 0.154124975573495, 0.0], [-77.96493331634917, 0.155562546057176, 0.0], [-77.96504407845404, 0.156049276163668, 0.0], [-77.96596490576967, 0.157222012743346, 0.0], [-77.96680089117484, 0.158877335680601, 0.0], [-77.96737577918886, 0.159513707442608, 0.0], [-77.96687421750522, 0.164829874064613, 0.0], [-77.96822543037904, 0.168697971884548, 0.0], [-77.96690742204083, 0.168653533549246, 0.0]]]}}]}