{
"type": "FeatureCollection",
"name": "tuberia",
"crs": { "type": "name", "properties": { "name": "urn:ogc:def:crs:OGC:1.3:CRS84" } },
"features": [
{"type":"Feature","properties":{"capa_cad":"ACAD-TOP-BASE PRESA POROTOG-Model|TOP-DERECHO DE PASO TUBERIA","color":"#000000"},"geometry":{"type":"LineString","coordinates":[[-78.133621897048101,-0.136963186600894],[-78.133629499345091,-0.137060999209855]]}},
{"type":"Feature","properties":{"capa_cad":"ACAD-TOP-BASE PRESA POROTOG-Model|TOP-DERECHO DE PASO TUBERIA","color":"#000000"},"geometry":{"type":"LineString","coordinates":[[-78.133645427746828,-0.136963183735219],[-78.133665932966593,-0.137052588925022]]}},
{"type":"Feature","properties":{"capa_cad":"ACAD-TOP-BASE PRESA POROTOG-Model|TOP-DERECHO DE PASO TUBERIA","color":"#000000"},"geometry":{"type":"LineString","coordinates":[[-78.134115346015761,-0.137490402813144],[-78.134327841625563,-0.137157963639032],[-78.134443194627281,-0.136963086566144]]}},
{"type":"Feature","properties":{"capa_cad":"ACAD-TOP-BASE PRESA POROTOG-Model|TOP-DERECHO DE PASO TUBERIA","color":"#000000"},"geometry":{"type":"LineString","coordinates":[[-78.134477352118012,-0.136963082405106],[-78.134120666353354,-0.137548478978929],[-78.134115359093343,-0.137599678916631],[-78.134113097735195,-0.137731880352621],[-78.134094904686989,-0.137935151391399],[-78.134087370577262,-0.138408936802245],[-78.133944701172254,-0.138686347145884],[-78.133894611608582,-0.138754364159859],[-78.13370942221492,-0.138923267615269],[-78.133477203489676,-0.13936345634183],[-78.133018844896966,-0.140301909280207],[-78.132915639806299,-0.140526586863834],[-78.13287618890763,-0.140697000947582],[-78.132846608367643,-0.140890338882965],[-78.132822352126993,-0.14117766880579],[-78.132837601506381,-0.14176531197115],[-78.132833078958342,-0.142039648707676],[-78.132849814721993,-0.142356012178075],[-78.132871850221193,-0.142554693208994],[-78.132862771400184,-0.142813747127265],[-78.132843070232425,-0.143111774830598],[-78.132817279037795,-0.143256969692337],[-78.132812747650107,-0.143457182153026],[-78.132754303519903,-0.143483934802174]]}},
{"type":"Feature","properties":{"capa_cad":"ACAD-TOP-BASE PRESA POROTOG-Model|TOP-DERECHO DE PASO TUBERIA","color":"#000000"},"geometry":{"type":"LineString","coordinates":[[-78.132140571469961,-0.139895476649813],[-78.132290088469034,-0.139754087878294],[-78.13255724381581,-0.139485069046566],[-78.132715872081292,-0.139365839937431],[-78.133193267888885,-0.138947782954796],[-78.133382241330523,-0.138684886456362],[-78.133527190742754,-0.138431929359936],[-78.133874015195076,-0.137897733854782],[-78.134006064845323,-0.137680694027994],[-78.134074367922466,-0.137581343841595],[-78.13409561616217,-0.137537019488931],[-78.134094854546063,-0.137515622861832],[-78.134051578889355,-0.137436154585381],[-78.133957440496374,-0.137306257373876],[-78.133818520606312,-0.137199290680192],[-78.133693266371807,-0.137114483229311],[-78.133629499345091,-0.137060999209855]]}},
{"type":"Feature","properties":{"capa_cad":"ACAD-TOP-BASE PRESA POROTOG-Model|TOP-DERECHO DE PASO TUBERIA","color":"#000000"},"geometry":{"type":"LineString","coordinates":[[-78.133665932966593,-0.137052588925022],[-78.133714517522591,-0.137094612268284],[-78.133980969461774,-0.137291735314136],[-78.134115346015761,-0.137490402813144]]}},
{"type":"Feature","properties":{"capa_cad":"ACAD-TOP-BASE PRESA POROTOG-Model|TOP-DERECHO DE PASO TUBERIA","color":"#000000"},"geometry":{"type":"LineString","coordinates":[[-78.132751266515001,-0.14347705764567],[-78.132801360608411,-0.143446485126802],[-78.132796025337981,-0.143255443826889],[-78.13282257558653,-0.143110248879558],[-78.132843793280159,-0.142798465985989],[-78.132848319356725,-0.142553167622701],[-78.13280954880193,-0.142044236473462],[-78.132814830317031,-0.141769135485755],[-78.132812516782252,-0.141455827005415],[-78.132803375411385,-0.141174614375093],[-78.132821558591658,-0.140881936001566],[-78.132849621110324,-0.140689362417822],[-78.13289666228296,-0.140516654934207],[-78.13300669930841,-0.140295797380797],[-78.133117490866951,-0.140036731299508],[-78.133125835080108,-0.139990880232069],[-78.133210832302098,-0.139847206532888],[-78.133461262166662,-0.13935352406381],[-78.133696517104653,-0.138913334977002],[-78.13388094662389,-0.138737554097666],[-78.133921928795147,-0.138680236537484],[-78.134070671182414,-0.138407410477976],[-78.134078238088264,-0.138208725745117],[-78.134076686816698,-0.137930568583582],[-78.134094879955285,-0.137728061716524],[-78.134097900276771,-0.137595096022066],[-78.134088032285888,-0.137592804712891],[-78.134033391650348,-0.137687568233446],[-78.133888437878397,-0.137903081288947],[-78.133710096771864,-0.138211826852685],[-78.133555277404838,-0.138445681003251],[-78.133403495949935,-0.138694053917361],[-78.133214523317179,-0.138963827930897],[-78.1329390162756,-0.13921527218977],[-78.132739403575428,-0.139372714631091],[-78.132563320213649,-0.139518691691299],[-78.132148164703551,-0.13991840076243]]}},
{"type":"Feature","properties":{"capa_cad":"ACAD-TOP-BASE PRESA POROTOG-Model|TOP-TUBERIA 3P","color":"#0037DD"},"geometry":{"type":"LineString","coordinates":[[-78.13213374169159,-0.139909996640934],[-78.132523092866009,-0.139540093187881],[-78.132687790681487,-0.139396410001063],[-78.132898028963851,-0.13922903211835],[-78.133076387601548,-0.139067007169715],[-78.133275235012661,-0.138856837124859],[-78.133407287596356,-0.138663486737809],[-78.133502149927793,-0.138499179174592],[-78.133760940523686,-0.138103308813743],[-78.133841383490818,-0.137961927946427],[-78.134108520556637,-0.137540838766461],[-78.134127491995827,-0.137499571362238],[-78.134163921519473,-0.137456773500524],[-78.134459893844834,-0.136963084531867]]}},
{"type":"Feature","properties":{"capa_cad":"ACAD-TOP-BASE PRESA POROTOG-Model|TOP-DERECHO DE PASO TUBERIA","color":"#000000"},"geometry":{"type":"LineString","coordinates":[[-78.132067652456925,-0.139472136714753],[-78.1321534261739,-0.139477475634548],[-78.132316620608933,-0.139459116114288],[-78.132418334299786,-0.139462924793176],[-78.13253978764277,-0.139502646985553]]}},
{"type":"Feature","properties":{"capa_cad":"ACAD-TOP-BASE PRESA POROTOG-Model|TOP-DERECHO DE PASO TUBERIA","color":"#000000"},"geometry":{"type":"LineString","coordinates":[[-78.132063101557648,-0.139501175611687],[-78.132265766785792,-0.139482811379862],[-78.132418336462635,-0.139481264811118],[-78.132498044710246,-0.139545445352703]]}}
]
}
