{
"type": "FeatureCollection",
"name": "vialidad",
"crs": { "type": "name", "properties": { "name": "urn:ogc:def:crs:OGC:1.3:CRS84" } },
"features": [
{"type":"Feature","properties":{"capa_cad":"ACAD-TOP-BASE PRESA POROTOG-Model|TOP-CAMINO","color":"#DCDCDC"},"geometry":{"type":"LineString","coordinates":[[-78.136767424447498,-0.136962803318629],[-78.136768971216355,-0.137201224279308],[-78.136741667177006,-0.13738462848198],[-78.136732604160514,-0.137765950575917],[-78.136733384132199,-0.137940945485992],[-78.136821481857638,-0.138336010910049],[-78.136847339685715,-0.138755537339292],[-78.136892168541067,-0.139130739626332],[-78.136898265772643,-0.139340121593905],[-78.136897527122031,-0.139512824200723],[-78.136921839581788,-0.139704628074238],[-78.13695528452395,-0.140098936041389],[-78.136989463554656,-0.140281568716904],[-78.137051726060619,-0.140450442995888],[-78.137240004223898,-0.140723229542815],[-78.137397149840027,-0.140900498518308],[-78.137526207647298,-0.141054845739721],[-78.137655266698118,-0.141219891388426],[-78.13777369626294,-0.141362013198243],[-78.137926282802198,-0.141498781809441],[-78.138039395403709,-0.141610337459334],[-78.138129734136356,-0.141703555703174],[-78.138215519763961,-0.141807472895955],[-78.138277023511748,-0.141980168382787],[-78.138345353713532,-0.142109305316397],[-78.138474406790152,-0.142223151709432],[-78.138592078152456,-0.14237291552612],[-78.138736316552027,-0.142522676261719],[-78.138901044502759,-0.142628876845901],[-78.139077152263013,-0.142682348267964],[-78.139411902541397,-0.142728923602022]]}},
{"type":"Feature","properties":{"capa_cad":"ACAD-TOP-BASE PRESA POROTOG-Model|TOP-CAMINO","color":"#DCDCDC"},"geometry":{"type":"LineString","coordinates":[[-78.139411908272621,-0.142778594789178],[-78.139376990067802,-0.142765607946192],[-78.139068807292645,-0.142722850354445],[-78.138882831157446,-0.142664030878626],[-78.138714307037759,-0.142550189018892],[-78.13857158587723,-0.142392786389151],[-78.138455432901466,-0.14224531490924],[-78.138324102654877,-0.142131468782936],[-78.138254252568061,-0.141987048602119],[-78.138189714276933,-0.141828872730245],[-78.138105446591481,-0.141723427016821],[-78.138021180325381,-0.14163020805754],[-78.137906549789889,-0.141520180928655],[-78.137750168145402,-0.141384941106932],[-78.137374380171707,-0.140918077143464],[-78.137210404297718,-0.140751507368139],[-78.137025160224269,-0.140460380370342],[-78.136963656599065,-0.140289977663423],[-78.136927959097079,-0.140104288490884],[-78.136899068410287,-0.139709215818293],[-78.13687096021556,-0.139513591550687],[-78.13687473500427,-0.13934012441366],[-78.136866360782918,-0.139132271064488],[-78.136823809100449,-0.138757068511829],[-78.13681088016061,-0.138546923213969],[-78.136789601920441,-0.138339835610129],[-78.136752382081255,-0.138121287386049],[-78.136708335802481,-0.137945533540053],[-78.13670148255423,-0.137763661837218],[-78.136706772082405,-0.137564212745676],[-78.136717377540222,-0.137386159774865],[-78.136741644617786,-0.137196642583136],[-78.13673706217233,-0.13696280702027]]}},
{"type":"Feature","properties":{"capa_cad":"ACAD-TOP-BASE PRESA POROTOG-Model|TOP-CAMINO","color":"#DCDCDC"},"geometry":{"type":"LineString","coordinates":[[-78.131753960269208,-0.137761204337372],[-78.131712220076608,-0.137826163578809],[-78.131662892262852,-0.137915577073979],[-78.131632539597192,-0.137995054099753],[-78.13157866100147,-0.138114270638048],[-78.131546797763107,-0.138257173682349],[-78.131511132973927,-0.138347349666143],[-78.131475474440776,-0.138490253152039],[-78.13140793737098,-0.138647679629529],[-78.131319168139839,-0.138985451975132],[-78.131293381648888,-0.13916579840075],[-78.131298705852657,-0.1392574977638],[-78.131269872920896,-0.139351493712301],[-78.13126077374551,-0.139431732298221],[-78.131269893194371,-0.139523431206599],[-78.131256252640995,-0.139713710329754],[-78.131171265447847,-0.139941442107829],[-78.131164447786645,-0.140059124572963],[-78.131137129043438,-0.140120261147612],[-78.131131835738941,-0.140291435086131],[-78.131145503173244,-0.140329641791549],[-78.131110599071704,-0.140435100918268],[-78.131134180708045,-0.140871437226752],[-78.131108399797014,-0.141102218570837],[-78.131117529691082,-0.141284853298274],[-78.13109554280976,-0.141505700018109],[-78.131097846741511,-0.141736478040528],[-78.131022725693398,-0.141954274313196],[-78.13096051830739,-0.142256891519833],[-78.130929411148131,-0.14237839762063],[-78.130880089078531,-0.142520538334533],[-78.130843671247632,-0.142665734196187],[-78.130840650857394,-0.142803284493492],[-78.130812581171341,-0.142936252707776],[-78.1307450414116,-0.143075338835627],[-78.130660802559433,-0.143215191052618],[-78.130601610868752,-0.143341285350808]]}}
]
}
