{"type": "FeatureCollection", "features": [{"type": "Feature", "properties": {"fid": 41, "clave_cata": "1702520490079", "area_predi": 8195.445602022472, "apellidos": "ACERO FARINANGO", "nombres": "BARTOLO", "comunidad": "CALDERA"}, "geometry": null}, {"type": "Feature", "properties": {"fid": 171, "clave_cata": "1702521010015", "area_predi": 5228.384566452791, "apellidos": "AIGAJE IMBAQUINGO", "nombres": "MARIA ORFELINA", "comunidad": "LARCACHACA"}, "geometry": null}, {"type": "Feature", "properties": {"fid": 172, "clave_cata": "1702521010016", "area_predi": 3417.6372299746477, "apellidos": "AIGAJE QUINATOA", "nombres": "IVAN GEOVANNY", "comunidad": "LARCACHACA"}, "geometry": null}, {"type": "Feature", "properties": {"fid": 189, "clave_cata": "1702520680087", "area_predi": 1074.9679753784776, "apellidos": "ASCANTA ULCUANGO", "nombres": "JOSE MANUEL", "comunidad": "SAN ANTONIO NINA RUMI"}, "geometry": null}, {"type": "Feature", "properties": {"fid": 191, "clave_cata": "1702520680088", "area_predi": 8957.153279293032, "apellidos": "ASCANTA AIGAJE", "nombres": "FRANCISCO", "comunidad": "SAN ANTONIO NINA RUMI"}, "geometry": null}, {"type": "Feature", "properties": {"fid": 192, "clave_cata": "1702520530011", "area_predi": 6394.0004331259115, "apellidos": "SALAZAR GARCIA", "nombres": "SEGUNDO FRANCISCO", "comunidad": "LIBERTAD SAN PEDRO"}, "geometry": null}, {"type": "Feature", "properties": {"fid": 193, "clave_cata": "1702521010018", "area_predi": 5640.318783078857, "apellidos": "SOPALO LANCHIMBA", "nombres": "SEGUNDO JACINTO", "comunidad": "LARCACHACA"}, "geometry": null}, {"type": "Feature", "properties": {"fid": 194, "clave_cata": "1702521010017", "area_predi": 5642.273041114491, "apellidos": "IMBAQUINGO AIGAJE", "nombres": "LUIS GERMAN", "comunidad": "LARCACHACA"}, "geometry": null}, {"type": "Feature", "properties": {"fid": 196, "clave_cata": "1702521010019", "area_predi": 1693.4139117584232, "apellidos": "FARINANGO ASCANTA", "nombres": "DEICY ELIZABETH", "comunidad": "CANGAHUA - LARCACHACA"}, "geometry": null}, {"type": "Feature", "properties": {"fid": 208, "clave_cata": "1702520680091", "area_predi": 1562.9848022491522, "apellidos": "LANCHIMBA SALAZAR", "nombres": "MARIA BARTOLA", "comunidad": "SAN ANTONIO NINA RUMI"}, "geometry": null}, {"type": "Feature", "properties": {"fid": 210, "clave_cata": "1702520680093", "area_predi": 2889.9894556683216, "apellidos": "LANCHIMBA LANCHIMBA", "nombres": "SEGUNDO EDWIN", "comunidad": "CANGAHUA - SAN ANTONIO NINA RUMI"}, "geometry": null}, {"type": "Feature", "properties": {"fid": 470, "clave_cata": "1702520560058", "area_predi": 6778.786418616653, "apellidos": "ACERO LINCANGO", "nombres": "MARIA MERCEDES", "comunidad": "SAN JOSE"}, "geometry": null}, {"type": "Feature", "properties": {"fid": 1017, "clave_cata": "1702520690010", "area_predi": 4480.504386993694, "apellidos": "SALAZAR TUGULINAGO", "nombres": "MARIA REGINA", "comunidad": "MULA POTRERO"}, "geometry": null}, {"type": "Feature", "properties": {"fid": 1018, "clave_cata": "1702520690011", "area_predi": 5338.546261342524, "apellidos": "TOAPANTA TOAPANTA", "nombres": "JORGE ALBERTO", "comunidad": "MULA POTRERO"}, "geometry": null}, {"type": "Feature", "properties": {"fid": 1046, "clave_cata": "1702521070039", "area_predi": 2910.438849265003, "apellidos": "LANCHIMBA TANDAYAMO", "nombres": "JOSE MARIA", "comunidad": "CARRERA - SECTOR 3 ACERO LOMA"}, "geometry": null}, {"type": "Feature", "properties": {"fid": 1050, "clave_cata": "1702521020004", "area_predi": 3875.627249213214, "apellidos": "MALDONADO LINCANGO", "nombres": "SEGUNDO VIRGILIO", "comunidad": "LA LIBERTAD"}, "geometry": null}, {"type": "Feature", "properties": {"fid": 1061, "clave_cata": "1702521020003", "area_predi": 3268.173783489442, "apellidos": "MALDONADO LINCANGO", "nombres": "SEGUNDO RENE", "comunidad": "LA LIBERTAD"}, "geometry": null}, {"type": "Feature", "properties": {"fid": 1065, "clave_cata": "1702520680007", "area_predi": 595.2944358219085, "apellidos": "ASCANTA LANCHIMBA", "nombres": "JUAN VICENTE", "comunidad": "SAN ANTONIO NINA RUMI"}, "geometry": null}, {"type": "Feature", "properties": {"fid": 1073, "clave_cata": "1702520680002", "area_predi": 424.68636642604235, "apellidos": "IMBAQUINGO SOPALO", "nombres": "MARIA MARTINA", "comunidad": "SAN ANTONIO NINA RUMI"}, "geometry": null}, {"type": "Feature", "properties": {"fid": 1074, "clave_cata": "1702520680004", "area_predi": 380.13105075819607, "apellidos": "ANDRANGO PILCA", "nombres": "SEGUNDO ACIENCIO", "comunidad": "SAN ANTONIO NINA RUMI"}, "geometry": null}, {"type": "Feature", "properties": {"fid": 1089, "clave_cata": "1702520690012", "area_predi": 3970.3110674016093, "apellidos": "CHOLANGO AIGAJE", "nombres": "MANUEL", "comunidad": "MULA POTRERO"}, "geometry": null}, {"type": "Feature", "properties": {"fid": 1107, "clave_cata": "1702520690020", "area_predi": 5272.836607440405, "apellidos": "MALDONADO TIPANLUISA", "nombres": "ROSA", "comunidad": "MULA POTRERO"}, "geometry": null}, {"type": "Feature", "properties": {"fid": 1108, "clave_cata": "1702520690019", "area_predi": 5415.3027268112455, "apellidos": "QUINATOA CALUGUILLIN", "nombres": "PASTORA", "comunidad": "CANGAHUA - MULA POTRERO"}, "geometry": null}, {"type": "Feature", "properties": {"fid": 1112, "clave_cata": "1702520680022", "area_predi": 7506.303711130657, "apellidos": "AULES SIETE", "nombres": "MELCHORA", "comunidad": "SAN ANTONIO NINA RUMI"}, "geometry": null}, {"type": "Feature", "properties": {"fid": 1123, "clave_cata": "1702520680024", "area_predi": 3662.5664410872023, "apellidos": "ANDRANGO MERA", "nombres": "LUIS ALFONSO", "comunidad": "SAN ANTONIO NINA RUMI"}, "geometry": null}, {"type": "Feature", "properties": {"fid": 1130, "clave_cata": "1702520690021", "area_predi": 8149.871905649818, "apellidos": "SALAZAR AIGAJE", "nombres": "SEGUNDO CAMILO", "comunidad": "MULA POTRERO"}, "geometry": null}, {"type": "Feature", "properties": {"fid": 1135, "clave_cata": "1702520680008", "area_predi": 653.2117025058561, "apellidos": "ASCANTA IMBAQUINGO", "nombres": "MERY PAULINA", "comunidad": "SAN ANTONIO NINA RUMI"}, "geometry": null}, {"type": "Feature", "properties": {"fid": 1138, "clave_cata": "1702520690014", "area_predi": 2777.667454168322, "apellidos": "IMBAQUINGO CHOLANGO", "nombres": "MARIA NICOLASA", "comunidad": "MULA POTRERO"}, "geometry": null}, {"type": "Feature", "properties": {"fid": 1147, "clave_cata": "1702520530001", "area_predi": 23029.224823745233, "apellidos": "LANCHIMBA TANDAYAMO", "nombres": "ASIENCIO", "comunidad": "LIBERTAD SAN PEDRO"}, "geometry": null}, {"type": "Feature", "properties": {"fid": 1156, "clave_cata": "1702520530002", "area_predi": 22554.79578365984, "apellidos": "IMBAQUINGO CHOLANGO", "nombres": "MARIA NICOLASA", "comunidad": "LIBERTAD SAN PEDRO"}, "geometry": null}, {"type": "Feature", "properties": {"fid": 1157, "clave_cata": "1702520690018", "area_predi": 5463.394883513324, "apellidos": "QUINATOA CALUGUILLIN", "nombres": "PASTORA", "comunidad": "MULA POTRERO"}, "geometry": null}, {"type": "Feature", "properties": {"fid": 1168, "clave_cata": "1702521020028", "area_predi": 7082.93985431156, "apellidos": "SALAZAR QUINATOA", "nombres": "ESTHER SOLEDAD", "comunidad": "LA LIBERTAD"}, "geometry": null}, {"type": "Feature", "properties": {"fid": 1170, "clave_cata": "1702521020030", "area_predi": 7002.183232236813, "apellidos": "ACERO SALAZAR", "nombres": "MARIA JUANA", "comunidad": "LA LIBERTAD"}, "geometry": null}, {"type": "Feature", "properties": {"fid": 1173, "clave_cata": "1702521020023", "area_predi": 1640.2964841299802, "apellidos": "LANCHIMBA TANDAYAMO", "nombres": "ASIENCIO", "comunidad": "LA LIBERTAD"}, "geometry": null}, {"type": "Feature", "properties": {"fid": 1175, "clave_cata": "1702521020006", "area_predi": 8676.670951611548, "apellidos": "MALDONADO LINCANGO", "nombres": "SEGUNDO RENE", "comunidad": "LA LIBERTAD"}, "geometry": null}, {"type": "Feature", "properties": {"fid": 1176, "clave_cata": "1702521020008", "area_predi": 10388.111763551859, "apellidos": "MALDONADO LINCANGO", "nombres": "RAUL JOAQUIN", "comunidad": "LA LIBERTAD"}, "geometry": null}, {"type": "Feature", "properties": {"fid": 1177, "clave_cata": "1702521020016", "area_predi": 3308.6451153118055, "apellidos": "ASCANTA LANCHIMBA", "nombres": "MANUEL FRANCISCO", "comunidad": "LA LIBERTAD"}, "geometry": null}, {"type": "Feature", "properties": {"fid": 1181, "clave_cata": "1702521020020", "area_predi": 3496.864491319223, "apellidos": "QUISHPE SALAZAR", "nombres": "SEGUNDO VICTOR", "comunidad": "LA LIBERTAD-MULA POTRERO"}, "geometry": null}, {"type": "Feature", "properties": {"fid": 1198, "clave_cata": "1702521020026", "area_predi": 7680.125055041146, "apellidos": "SALAZAR MALDONADO", "nombres": "ROSA MARIA", "comunidad": "LA LIBERTAD"}, "geometry": null}, {"type": "Feature", "properties": {"fid": 1202, "clave_cata": "1702521020025", "area_predi": 8140.367809480927, "apellidos": "SALAZAR MALDONADO", "nombres": "LORENZO", "comunidad": "LA LIBERTAD"}, "geometry": null}, {"type": "Feature", "properties": {"fid": 1204, "clave_cata": "1702520690026", "area_predi": 1813.5873249313718, "apellidos": "SALAZAR GARCIA", "nombres": "MANUEL", "comunidad": "MULA POTRERO"}, "geometry": null}, {"type": "Feature", "properties": {"fid": 1217, "clave_cata": "1702520690031", "area_predi": 30546.340720772627, "apellidos": "HEREDEROS DE TONTA AIGAJE", "nombres": "MARIA ISABEL", "comunidad": "MULA POTRERO"}, "geometry": null}, {"type": "Feature", "properties": {"fid": 1222, "clave_cata": "1702521020037", "area_predi": 16803.52751101056, "apellidos": "LANCHIMBA QUINATOA", "nombres": "FAUSTO IVAN", "comunidad": "CANGAHUA - LA LIBERTAD"}, "geometry": null}, {"type": "Feature", "properties": {"fid": 1223, "clave_cata": "1702521020034", "area_predi": 6423.819408058467, "apellidos": "LANCHIMBA TANDAYAMO", "nombres": "ASIENCIO", "comunidad": "LA LIBERTAD"}, "geometry": null}, {"type": "Feature", "properties": {"fid": 1226, "clave_cata": "1702520540009", "area_predi": 25283.296408929702, "apellidos": "QUINATOA MALDONADO", "nombres": "VICTOR LEONIDAS", "comunidad": "CRUZ LOMA"}, "geometry": null}, {"type": "Feature", "properties": {"fid": 1227, "clave_cata": "1702520540007", "area_predi": 13314.397440346022, "apellidos": "QUILUMBAQUIN PACHECO", "nombres": "SEGUNDO MANUEL", "comunidad": "CRUZ LOMA SECTOR LA CALDERA"}, "geometry": null}, {"type": "Feature", "properties": {"fid": 1228, "clave_cata": "1702520540006", "area_predi": 15948.360843129884, "apellidos": "ASCANTA QUINATOA", "nombres": "NANCY SUSANA", "comunidad": "CANGAHUA - COMUNA SAN ANTONIO - CRUZ LOMA"}, "geometry": null}, {"type": "Feature", "properties": {"fid": 1229, "clave_cata": "1702520680038", "area_predi": 2972.597237579203, "apellidos": "ACERO CUMBAL", "nombres": "SEGUNDO ROGELIO", "comunidad": "SAN ANTONIO NINA RUMI"}, "geometry": null}, {"type": "Feature", "properties": {"fid": 1231, "clave_cata": "1702520680037", "area_predi": 2071.79659894177, "apellidos": "ASERO CUMBAL", "nombres": "ASCIENCIO", "comunidad": "SAN ANTONIO NINA RUMI"}, "geometry": null}, {"type": "Feature", "properties": {"fid": 1234, "clave_cata": "1702520680036", "area_predi": 3039.4474459657336, "apellidos": "ACERO CUMBAL", "nombres": "MARIA JOSEFINA", "comunidad": "SAN ANTONIO NINA RUMI"}, "geometry": null}, {"type": "Feature", "properties": {"fid": 1239, "clave_cata": "1702520680021", "area_predi": 3013.5465077148256, "apellidos": "ASCANTA AIGAJE", "nombres": "JUAN VICENTE", "comunidad": "SAN ANTONIO NINA RUMI"}, "geometry": null}, {"type": "Feature", "properties": {"fid": 1240, "clave_cata": "1702520680035", "area_predi": 191.63550382132158, "apellidos": "ACERO CUMBAL", "nombres": "SEGUNDO TEODORO", "comunidad": "SAN ANTONIO NINA RUMI"}, "geometry": null}, {"type": "Feature", "properties": {"fid": 1241, "clave_cata": "1702520680033", "area_predi": 7593.333882411306, "apellidos": "ULCUANGO ACERO", "nombres": "JOSE DOMINGO", "comunidad": "SAN ANTONIO NINA RUMI"}, "geometry": null}, {"type": "Feature", "properties": {"fid": 1242, "clave_cata": "1702520680027", "area_predi": 6019.209051813729, "apellidos": "ULCUANGO PILLAJO", "nombres": "RAMIRO EFRAIN", "comunidad": "SAN ANTONIO NINA RUMI"}, "geometry": null}, {"type": "Feature", "properties": {"fid": 1243, "clave_cata": "1702520680018", "area_predi": 12890.53507677809, "apellidos": "IMBAQUINGO SOPALO", "nombres": "MARIA MARTINA", "comunidad": "SAN ANTONIO NINA RUMI"}, "geometry": null}, {"type": "Feature", "properties": {"fid": 1245, "clave_cata": "1702520680015", "area_predi": 37846.14272605869, "apellidos": "ASCANTA AIGAJE", "nombres": "SEGUNDO MIGUEL", "comunidad": "SAN ANTONIO NINA RUMI"}, "geometry": null}, {"type": "Feature", "properties": {"fid": 1246, "clave_cata": "1702520680014", "area_predi": 3335.8624271231097, "apellidos": "ASCANTA TIPANLUISA", "nombres": "SEGUNDO FRANCISCO", "comunidad": "SAN ANTONIO NINA RUMI"}, "geometry": null}, {"type": "Feature", "properties": {"fid": 1261, "clave_cata": "1702520690037", "area_predi": 1462.0792457018367, "apellidos": "MALDONADO ULCUANGO", "nombres": "LUZ MARIA", "comunidad": "MULA POTRERO"}, "geometry": null}, {"type": "Feature", "properties": {"fid": 1262, "clave_cata": "1702521020039", "area_predi": 2540.6297417538067, "apellidos": "QUINATOA ULCUANGO", "nombres": "MARIA ENCARNACION", "comunidad": "LA LIBERTAD"}, "geometry": null}, {"type": "Feature", "properties": {"fid": 1267, "clave_cata": "1702520520039", "area_predi": 186322.8237341879, "apellidos": "AVELLANEDA ACOSTA", "nombres": "MARCELO WALTER", "comunidad": "LA LIBERTAD"}, "geometry": null}, {"type": "Feature", "properties": {"fid": 1269, "clave_cata": "1702521020038", "area_predi": 2948.496750895993, "apellidos": "QUINATOA MALDONADO", "nombres": "SUSANA ESTHELA", "comunidad": "LA LIBERTAD"}, "geometry": null}, {"type": "Feature", "properties": {"fid": 1276, "clave_cata": "1702520690035", "area_predi": 833.8524965695891, "apellidos": "ANDRANGO TUGULINAGO", "nombres": "MARIA AURORA", "comunidad": "LA LIBERTAD"}, "geometry": null}, {"type": "Feature", "properties": {"fid": 1277, "clave_cata": "1702520690034", "area_predi": 855.1678524833147, "apellidos": "ANDRANGO TUGULINAGO", "nombres": "SEGUNDO PABLO", "comunidad": "MULA POTRERO"}, "geometry": null}, {"type": "Feature", "properties": {"fid": 1278, "clave_cata": "1702520690036", "area_predi": 4595.967323431751, "apellidos": "ANDRANGO PILLAJO", "nombres": "MARIANO ASIENCIO", "comunidad": "MULA POTRERO"}, "geometry": null}, {"type": "Feature", "properties": {"fid": 1280, "clave_cata": "1702520540014", "area_predi": 21631.020235988795, "apellidos": "MALDONADO CHIMARRO", "nombres": "CIPRIANO", "comunidad": "PISAMBILLA - CRUZ LOMA"}, "geometry": null}, {"type": "Feature", "properties": {"fid": 1290, "clave_cata": "1702520530014", "area_predi": 22239.615027673724, "apellidos": "QUISHPE QUISHPE", "nombres": "MANUEL MARIA", "comunidad": "LIBERTAD SAN PEDRO"}, "geometry": null}, {"type": "Feature", "properties": {"fid": 1291, "clave_cata": "1702520530015", "area_predi": 6425.816748473973, "apellidos": "UMAQUINGA TONTAC", "nombres": "MARIA VICENTA", "comunidad": "LIBERTAD SAN PEDRO"}, "geometry": null}, {"type": "Feature", "properties": {"fid": 1295, "clave_cata": "1702520530010", "area_predi": 6935.659256281271, "apellidos": "SALAZAR AIGAJE", "nombres": "SEGUNDO CAMILO", "comunidad": "LIBERTAD SAN PEDRO"}, "geometry": null}, {"type": "Feature", "properties": {"fid": 1315, "clave_cata": "1702521020054", "area_predi": 4427.952316529183, "apellidos": "PILCA TANDAYAMO", "nombres": "SEGUNDO FRANCISCO", "comunidad": "ÑAVIPOGYO"}, "geometry": null}, {"type": "Feature", "properties": {"fid": 1316, "clave_cata": "1702521020055", "area_predi": 10547.138129625784, "apellidos": "PILCA ANDRANGO", "nombres": "HILARIO", "comunidad": "ÑAVIPOGYO"}, "geometry": null}, {"type": "Feature", "properties": {"fid": 1327, "clave_cata": "1702521020058", "area_predi": 2850.8927664368607, "apellidos": "TANGUILA HUATATOCA", "nombres": "CARLOS PAULINO", "comunidad": "ÑAVIPOGYO"}, "geometry": null}, {"type": "Feature", "properties": {"fid": 1328, "clave_cata": "1702521020056", "area_predi": 13512.158698571013, "apellidos": "ACERO SALAZAR", "nombres": "MARIA JUANA", "comunidad": "ÑAVIPOGYO"}, "geometry": null}, {"type": "Feature", "properties": {"fid": 1331, "clave_cata": "1702521020048", "area_predi": 5883.15986091094, "apellidos": "ACERO SOPALO", "nombres": "SEGUNDO ALEJO", "comunidad": "ÑAVIPOGYO"}, "geometry": null}, {"type": "Feature", "properties": {"fid": 1332, "clave_cata": "1702520530016", "area_predi": 32056.005270645826, "apellidos": "IMBAQUINGO CHOLANGO", "nombres": "JOSE PEDRO", "comunidad": "LIBERTAD SAN PEDRO"}, "geometry": null}, {"type": "Feature", "properties": {"fid": 1334, "clave_cata": "1702521020045", "area_predi": 2709.1223880733387, "apellidos": "QUINATOA ULCUANGO", "nombres": "JUAN CARLOS", "comunidad": "LA LIBERTAD"}, "geometry": null}, {"type": "Feature", "properties": {"fid": 1338, "clave_cata": "1702520530023", "area_predi": 6058.871803875145, "apellidos": "CHOLANGO AIGAJE", "nombres": "MANUEL", "comunidad": "LIBERTAD SAN PEDRO"}, "geometry": null}, {"type": "Feature", "properties": {"fid": 1339, "clave_cata": "1702521020049", "area_predi": 5933.695140106256, "apellidos": "ACERO SOPALO", "nombres": "BENEDICTO", "comunidad": "ÑAVIPOGYO"}, "geometry": null}, {"type": "Feature", "properties": {"fid": 1340, "clave_cata": "1702521020050", "area_predi": 8169.5376176595355, "apellidos": "AIGAJE QUINATOA", "nombres": "BLANCA NIEVES", "comunidad": "ÑAVIPOGYO"}, "geometry": null}, {"type": "Feature", "properties": {"fid": 1342, "clave_cata": "1702520530020", "area_predi": 6343.517445632708, "apellidos": "UMAQUINGA TONTAG", "nombres": "REGINA", "comunidad": "LIBERTAD SAN PEDRO"}, "geometry": null}, {"type": "Feature", "properties": {"fid": 1343, "clave_cata": "1702520530021", "area_predi": 6240.039300706914, "apellidos": "SALAZAR SALAZAR", "nombres": "ALEX FRANCISCO", "comunidad": "CANGAHUA - LIBERTAD SAN PEDRO"}, "geometry": null}, {"type": "Feature", "properties": {"fid": 1344, "clave_cata": "1702520530022", "area_predi": 25235.68821123209, "apellidos": "CHOLANGO AIGAJE", "nombres": "MANUEL", "comunidad": "LIBERTAD SAN PEDRO"}, "geometry": null}, {"type": "Feature", "properties": {"fid": 1351, "clave_cata": "1702521020040", "area_predi": 2453.2592626238943, "apellidos": "QUINATOA ULCUANGO", "nombres": "MARIA CARMEN", "comunidad": "LA LIBERTAD"}, "geometry": null}, {"type": "Feature", "properties": {"fid": 1358, "clave_cata": "1702520530031", "area_predi": 16631.977943455888, "apellidos": "ANDRANGO PILLAJO", "nombres": "MARIANO ASIENCIO", "comunidad": "LIBERTAD SAN PEDRO"}, "geometry": null}, {"type": "Feature", "properties": {"fid": 1359, "clave_cata": "1702520530032", "area_predi": 23910.11462353987, "apellidos": "AIGAJE MALDONADO", "nombres": "JOSE ATANACIO", "comunidad": "LIBERTAD SAN PEDRO"}, "geometry": null}, {"type": "Feature", "properties": {"fid": 1361, "clave_cata": "1702520530030", "area_predi": 6137.286784313014, "apellidos": "MALDONADO UMAQUINGA", "nombres": "JUAN CESAR", "comunidad": "LIBERTAD SAN PEDRO"}, "geometry": null}, {"type": "Feature", "properties": {"fid": 1367, "clave_cata": "1702520530038", "area_predi": 21524.91156248983, "apellidos": "LANCHIMBA ACERO", "nombres": "JOSE LUIS", "comunidad": "LIBERTAD SAN PEDRO"}, "geometry": null}, {"type": "Feature", "properties": {"fid": 1368, "clave_cata": "1702520530039", "area_predi": 25426.54891121615, "apellidos": "ACERO SALAZAR", "nombres": "SEGUNDO JUAN CRUZ", "comunidad": "LIBERTAD SAN PEDRO"}, "geometry": null}, {"type": "Feature", "properties": {"fid": 1386, "clave_cata": "1702520530027", "area_predi": 17602.100460625494, "apellidos": "UMAQUINGA TONTAG", "nombres": "JOSE CARLOS", "comunidad": "LIBERTAD SAN PEDRO"}, "geometry": null}, {"type": "Feature", "properties": {"fid": 1387, "clave_cata": "1702520530025", "area_predi": 10458.492835249404, "apellidos": "SALAZAR MALDONADO", "nombres": "JAIME ALEJANDRO", "comunidad": "LIBERTAD SAN PEDRO"}, "geometry": null}, {"type": "Feature", "properties": {"fid": 1402, "clave_cata": "1702521020060", "area_predi": 5761.065434213577, "apellidos": "ACERO SOPALO", "nombres": "MARIA CARMEN", "comunidad": "ÑAVIPOGYO"}, "geometry": null}, {"type": "Feature", "properties": {"fid": 1564, "clave_cata": "1702521010040", "area_predi": 780.4902314365985, "apellidos": "SOPALO IMBAQUINGO", "nombres": "CLEVER MAURO", "comunidad": "LARCACHACA"}, "geometry": null}, {"type": "Feature", "properties": {"fid": 1566, "clave_cata": "1702521010036", "area_predi": 8139.597963372988, "apellidos": "IMBAQUINGO ULCUANGO", "nombres": "CESAR", "comunidad": "LARCACHACA"}, "geometry": null}, {"type": "Feature", "properties": {"fid": 1567, "clave_cata": "1702521010037", "area_predi": 6596.551554680266, "apellidos": "SOPALO TIPANLUISA", "nombres": "SEGUNDO JOAQUIN", "comunidad": "LARCACHACA"}, "geometry": null}, {"type": "Feature", "properties": {"fid": 1586, "clave_cata": "1702521010033", "area_predi": 6420.780241219062, "apellidos": "IMBAQUINGO ULCUANGO", "nombres": "ROGELIO", "comunidad": "LARCACHACA"}, "geometry": null}, {"type": "Feature", "properties": {"fid": 1589, "clave_cata": "1702521010034", "area_predi": 8096.089670511519, "apellidos": "SOPALO TIPANLUISA", "nombres": "MARIA AVELINA", "comunidad": "LARCACHACA"}, "geometry": null}, {"type": "Feature", "properties": {"fid": 1617, "clave_cata": "1702521010042", "area_predi": 6017.685839798092, "apellidos": "SOPALO TIPANLUISA", "nombres": "FRANCISCO", "comunidad": "LARCACHACA"}, "geometry": null}, {"type": "Feature", "properties": {"fid": 1628, "clave_cata": "1702521010078", "area_predi": 1486.0235667999182, "apellidos": "TIPANLUISA SOPALO", "nombres": "CLARA", "comunidad": "LARCACHACA"}, "geometry": null}, {"type": "Feature", "properties": {"fid": 1630, "clave_cata": "1702521010081", "area_predi": 1308.8407357793783, "apellidos": "TANGUILA HUATATOCA", "nombres": "CARLOS PAULINO", "comunidad": "LARCACHACA"}, "geometry": null}, {"type": "Feature", "properties": {"fid": 1632, "clave_cata": "1702521010079", "area_predi": 5458.002905232101, "apellidos": "BEDOYA LANCHIMBA", "nombres": "SEGUNDO CARLOS", "comunidad": "LARCACHACA"}, "geometry": null}, {"type": "Feature", "properties": {"fid": 1633, "clave_cata": "1702521010084", "area_predi": 4282.596368860908, "apellidos": "SOPALO TIPANLUISA", "nombres": "MARIA AVELINA", "comunidad": "LARCACHACA"}, "geometry": null}, {"type": "Feature", "properties": {"fid": 1674, "clave_cata": "1702521040095", "area_predi": 2738.3725100308893, "apellidos": "IMBAQUINGO SOPALO", "nombres": "BLANCA SUSANA", "comunidad": "LARCACHACA"}, "geometry": null}, {"type": "Feature", "properties": {"fid": 1682, "clave_cata": "1702521040093", "area_predi": 5941.75281335202, "apellidos": "QUINATOA CHURACO", "nombres": "VIRGILIO", "comunidad": "LARCACHACA"}, "geometry": null}, {"type": "Feature", "properties": {"fid": 1684, "clave_cata": "1702521040094", "area_predi": 9559.911478254819, "apellidos": "ULCUANGO TIPANLUIZA", "nombres": "JUAN CRUZ", "comunidad": "LARCACHACA"}, "geometry": null}, {"type": "Feature", "properties": {"fid": 1728, "clave_cata": "1702521010056", "area_predi": 6131.357748452419, "apellidos": "ACERO ACERO", "nombres": "PETRONA MARIA", "comunidad": "LARCACHACA"}, "geometry": null}, {"type": "Feature", "properties": {"fid": 1733, "clave_cata": "1702521010055", "area_predi": 6540.841677340954, "apellidos": "FARINANGO ASCANTA", "nombres": "XAVIER ISIDRO", "comunidad": "LARCACHACA-CANGAHUA"}, "geometry": null}, {"type": "Feature", "properties": {"fid": 1734, "clave_cata": "1702521010054", "area_predi": 6861.325398356301, "apellidos": "SOPALO UMAQUINGA", "nombres": "PASCUAL", "comunidad": "LARCACHACA"}, "geometry": null}, {"type": "Feature", "properties": {"fid": 1738, "clave_cata": "1702521040089", "area_predi": 3626.207807843528, "apellidos": "SOPALO PILCA", "nombres": "ANGEL OSWALDO", "comunidad": "LARCACHACA"}, "geometry": null}, {"type": "Feature", "properties": {"fid": 1794, "clave_cata": "1702521040087", "area_predi": 4123.75223260936, "apellidos": "SOPALO PILCA", "nombres": "JAIME RODRIGO", "comunidad": "LARCACHACA"}, "geometry": null}, {"type": "Feature", "properties": {"fid": 1796, "clave_cata": "1702521040085", "area_predi": 3742.622388868866, "apellidos": "SOPALO TIPANLUISA", "nombres": "JUAN", "comunidad": "LARCACHACA"}, "geometry": null}, {"type": "Feature", "properties": {"fid": 1797, "clave_cata": "1702521040084", "area_predi": 3930.4325585987003, "apellidos": "IMBAQUINGO ULCUANGO", "nombres": "ESTHER AVELINA", "comunidad": "LARCACHACA"}, "geometry": null}, {"type": "Feature", "properties": {"fid": 1806, "clave_cata": "1702521040075", "area_predi": 2174.844192185298, "apellidos": "ACERO SALAZAR", "nombres": "ROSA MARIA", "comunidad": "LARCACHACA"}, "geometry": null}, {"type": "Feature", "properties": {"fid": 1809, "clave_cata": "1702521040081", "area_predi": 2139.217564159615, "apellidos": "IMBAQUINGO LANCHIMBA", "nombres": "CARLOS", "comunidad": "LARCACHACA"}, "geometry": null}, {"type": "Feature", "properties": {"fid": 1814, "clave_cata": "1702521040074", "area_predi": 1834.919752449245, "apellidos": "TOAPANTA TOAPANTA", "nombres": "LUIS ANIBAL", "comunidad": "LARCACHACA"}, "geometry": null}, {"type": "Feature", "properties": {"fid": 1817, "clave_cata": "1702521040072", "area_predi": 7904.152436921401, "apellidos": "AIGAJE TIPANLUISA", "nombres": "MAGDALENO", "comunidad": "LARCACHACA"}, "geometry": null}, {"type": "Feature", "properties": {"fid": 1819, "clave_cata": "1702521040073", "area_predi": 3688.5794605861856, "apellidos": "AIGAJE IMBAQUINGO", "nombres": "MARIA JOSEFINA", "comunidad": "LARCACHACA"}, "geometry": null}, {"type": "Feature", "properties": {"fid": 1835, "clave_cata": "1702521040064", "area_predi": 4226.04660586659, "apellidos": "SOPALO TIPANLUISA", "nombres": "MARIA AVELINA", "comunidad": "LARCACHACA"}, "geometry": null}, {"type": "Feature", "properties": {"fid": 1837, "clave_cata": "1702521040067", "area_predi": 7861.586665517258, "apellidos": "SOPALO TIPANLUISA", "nombres": "FRANCISCO", "comunidad": "LARCACHACA"}, "geometry": null}, {"type": "Feature", "properties": {"fid": 1838, "clave_cata": "1702521040068", "area_predi": 3141.014776631257, "apellidos": "IMBAQUINGO SOPALO", "nombres": "SEGUNDO CRISTOBAL", "comunidad": "LARCACHACA"}, "geometry": null}, {"type": "Feature", "properties": {"fid": 1839, "clave_cata": "1702521040069", "area_predi": 1939.0221479713066, "apellidos": "QUINATOA ULCUANGO", "nombres": "JUAN CARLOS", "comunidad": "LARCACHACA"}, "geometry": null}, {"type": "Feature", "properties": {"fid": 1842, "clave_cata": "1702521010022", "area_predi": 4845.90506611752, "apellidos": "MALDONADO SOPALO", "nombres": "ANGEL LEONIDAS", "comunidad": "LARCACHACA"}, "geometry": null}, {"type": "Feature", "properties": {"fid": 1843, "clave_cata": "1702521010030", "area_predi": 2138.074020300026, "apellidos": "IMBAQUINGO SOPALO", "nombres": "SEGUNDO JORGE", "comunidad": "LARCACHACA"}, "geometry": null}, {"type": "Feature", "properties": {"fid": 1844, "clave_cata": "1702521010029", "area_predi": 2839.8468173724377, "apellidos": "SOPALO MALDONADO", "nombres": "MARIA ORFELINA", "comunidad": "LARCACHACA"}, "geometry": null}, {"type": "Feature", "properties": {"fid": 1845, "clave_cata": "1702521010027", "area_predi": 9695.648509595192, "apellidos": "SOPALO UMAQUINGA", "nombres": "MARIA JUANA", "comunidad": "LARCACHACA"}, "geometry": null}, {"type": "Feature", "properties": {"fid": 1855, "clave_cata": "1702521040060", "area_predi": 7864.592714439744, "apellidos": "SOPALO UMAQUINGA", "nombres": "SEGUNDO ESTEBAN", "comunidad": "LARCACHACA"}, "geometry": null}, {"type": "Feature", "properties": {"fid": 1857, "clave_cata": "1702521010023", "area_predi": 7513.887005698187, "apellidos": "SOPALO AIGAJE", "nombres": "JOSE MANUEL", "comunidad": "LARCACHACA"}, "geometry": null}, {"type": "Feature", "properties": {"fid": 1887, "clave_cata": "1702521010069", "area_predi": 5521.288665153409, "apellidos": "IMBAQUINGO SOPALO", "nombres": "JOSE CARLOS", "comunidad": "LARCACHACA"}, "geometry": null}, {"type": "Feature", "properties": {"fid": 1889, "clave_cata": "1702521010076", "area_predi": 1384.6906694552763, "apellidos": "SOPALO PILCA", "nombres": "MELANI SHIRLEY", "comunidad": "CANGAHUA - LARCACHACA"}, "geometry": null}, {"type": "Feature", "properties": {"fid": 1890, "clave_cata": "1702521010070", "area_predi": 3252.617800027352, "apellidos": "IMBAQUINGO SOPALO", "nombres": "LUIS FELIPE", "comunidad": "LARCACHACA"}, "geometry": null}, {"type": "Feature", "properties": {"fid": 1895, "clave_cata": "1702521010052", "area_predi": 9785.79336341465, "apellidos": "SOPALO IMBAGO", "nombres": "MARIA HORTENCIA", "comunidad": "LARCACHACA"}, "geometry": null}, {"type": "Feature", "properties": {"fid": 1896, "clave_cata": "1702521010051", "area_predi": 11034.924136584026, "apellidos": "SOPALO UMAQUINGA", "nombres": "JOSE JOAQUIN", "comunidad": "LARCACHACA"}, "geometry": null}, {"type": "Feature", "properties": {"fid": 1897, "clave_cata": "1702520490039", "area_predi": 10650.518429392898, "apellidos": "TIPANLUISA TIPANLUISA", "nombres": "JOSE LUIS", "comunidad": "CALDERA"}, "geometry": null}, {"type": "Feature", "properties": {"fid": 1898, "clave_cata": "1702521010057", "area_predi": 832.4277673230836, "apellidos": "HEREDEROS DE SOPALO MALDONADO", "nombres": "JOSE ELIAS", "comunidad": "LARCACHACA - POGYO"}, "geometry": null}, {"type": "Feature", "properties": {"fid": 1899, "clave_cata": "1702521010064", "area_predi": 1236.2484301396823, "apellidos": "INGA IMBAQUINGO", "nombres": "MARIA MARTHA", "comunidad": "LARCACHACA"}, "geometry": null}, {"type": "Feature", "properties": {"fid": 1900, "clave_cata": "1702521010063", "area_predi": 1087.3426559553197, "apellidos": "INGA IMBAQUINGO", "nombres": "SEGUNDO SIMON", "comunidad": "LARCACHACA"}, "geometry": null}, {"type": "Feature", "properties": {"fid": 1901, "clave_cata": "1702521010096", "area_predi": 7004.525731983267, "apellidos": "LANCHIMBA ULCUANGO", "nombres": "MARIA MERCEDES", "comunidad": "SAN ANTONIO ÑAVIPOGYO"}, "geometry": null}, {"type": "Feature", "properties": {"fid": 1910, "clave_cata": "1702521010085", "area_predi": 7091.360214721575, "apellidos": "BEDOYA LANCHIMBA", "nombres": "SEGUNDO CARLOS", "comunidad": "LARCACHACA"}, "geometry": null}, {"type": "Feature", "properties": {"fid": 1911, "clave_cata": "1702521010086", "area_predi": 3592.050517691125, "apellidos": "QUINATOA ULCUANGO", "nombres": "JOSE TOBIAS", "comunidad": "LARCACHACA"}, "geometry": null}, {"type": "Feature", "properties": {"fid": 1912, "clave_cata": "1702521010087", "area_predi": 3430.3536211867154, "apellidos": "IMBAQUINGO SOPALO", "nombres": "MARIA TERESA", "comunidad": "LARCACHACA"}, "geometry": null}, {"type": "Feature", "properties": {"fid": 1913, "clave_cata": "1702521010088", "area_predi": 3541.990010423964, "apellidos": "IMBAQUINGO SOPALO", "nombres": "SEGUNDO MARCELO", "comunidad": "LARCACHACA"}, "geometry": null}, {"type": "Feature", "properties": {"fid": 1915, "clave_cata": "1702521010090", "area_predi": 3065.931600765644, "apellidos": "SOPALO UMAQUINGA", "nombres": "SEGUNDO ESTEBAN", "comunidad": "LARCACHACA"}, "geometry": null}, {"type": "Feature", "properties": {"fid": 1916, "clave_cata": "1702521010095", "area_predi": 11759.161847978143, "apellidos": "ACERO ULCUANGO", "nombres": "SERGIO LENIN", "comunidad": "SAN ANTONIO ÑAVIPOGYO"}, "geometry": null}, {"type": "Feature", "properties": {"fid": 1935, "clave_cata": "1702521010043", "area_predi": 2393.760612306335, "apellidos": "IMBAQUINGO SOPALO", "nombres": "ZOILA VICTORIA", "comunidad": "LARCACHACA"}, "geometry": null}, {"type": "Feature", "properties": {"fid": 1957, "clave_cata": "1702521020088", "area_predi": 4231.450259355214, "apellidos": "ASCANTA QUISHPE", "nombres": "WILLIAM ALEXANDER", "comunidad": "CANGAHUA - LA LIBERTAD"}, "geometry": null}, {"type": "Feature", "properties": {"fid": 2007, "clave_cata": "1702520490021", "area_predi": 19009.557347594975, "apellidos": "TIPANLUISA TANDAYAMO", "nombres": "MARIANO", "comunidad": "CALDERA"}, "geometry": null}, {"type": "Feature", "properties": {"fid": 2013, "clave_cata": "1702520980044", "area_predi": 17238.090809662808, "apellidos": "LANCHIMBA LANCHIMBA", "nombres": "SEGUNDO RAMON", "comunidad": "SAN JOSE LOS ANDES"}, "geometry": null}, {"type": "Feature", "properties": {"fid": 2041, "clave_cata": "1702520490014", "area_predi": 6473.3686646179, "apellidos": "ACERO ACERO", "nombres": "CESAR RAUL", "comunidad": "CALDERA"}, "geometry": null}, {"type": "Feature", "properties": {"fid": 2049, "clave_cata": "1702520490006", "area_predi": 7828.883759622763, "apellidos": "ACERO SALAZAR", "nombres": "JOSE JOAQUIN SEGUNDO", "comunidad": "CALDERA"}, "geometry": null}, {"type": "Feature", "properties": {"fid": 2069, "clave_cata": "1702520540022", "area_predi": 23501.532450763232, "apellidos": "QUINATOA ULCUANGO", "nombres": "TEODORO", "comunidad": "CRUZ LOMA"}, "geometry": null}, {"type": "Feature", "properties": {"fid": 2073, "clave_cata": "1702520540020", "area_predi": 22134.09412174786, "apellidos": "MALDONADO CUASCOTA", "nombres": "MARIA LIVIA", "comunidad": "CRUZ LOMA"}, "geometry": null}, {"type": "Feature", "properties": {"fid": 2075, "clave_cata": "1702521040025", "area_predi": 1125.0309856863914, "apellidos": "IMBAQUINGO CABASCANGO", "nombres": "JAIME ROGELIO", "comunidad": "LARCACHACA"}, "geometry": null}, {"type": "Feature", "properties": {"fid": 2077, "clave_cata": "1702521040024", "area_predi": 779.7736867104795, "apellidos": "IMBAQUINGO CABASCANGO", "nombres": "MARIA MERCEDES", "comunidad": "LARCACHACA"}, "geometry": null}, {"type": "Feature", "properties": {"fid": 2079, "clave_cata": "1702521040023", "area_predi": 837.2123114294504, "apellidos": "IMBAQUINGO CABASCANGO", "nombres": "BEATRIZ", "comunidad": "LARCACHACA"}, "geometry": null}, {"type": "Feature", "properties": {"fid": 2081, "clave_cata": "1702521040021", "area_predi": 3019.875270505033, "apellidos": "IMBAQUINGO SOPALO", "nombres": "ROSA CRISTINA", "comunidad": "LARCACHACA"}, "geometry": null}, {"type": "Feature", "properties": {"fid": 2084, "clave_cata": "1702521040020", "area_predi": 3308.3442489691365, "apellidos": "IMBAQUINGO SOPALO", "nombres": "ROSA BEATRIZ", "comunidad": "LARCACHACA"}, "geometry": null}, {"type": "Feature", "properties": {"fid": 2088, "clave_cata": "1702521040019", "area_predi": 2991.426156562679, "apellidos": "ACERO IMBAQUINGO", "nombres": "JOSE LEONARDO", "comunidad": "LARCACHACA"}, "geometry": null}, {"type": "Feature", "properties": {"fid": 2090, "clave_cata": "1702521040018", "area_predi": 3120.308291916787, "apellidos": "ACERO IMBAQUINGO", "nombres": "SEGUNDO RAMIRO", "comunidad": "LARCACHACA"}, "geometry": null}, {"type": "Feature", "properties": {"fid": 2092, "clave_cata": "1702521010001", "area_predi": 6180.538491256586, "apellidos": "ACERO CHIQUIMBA", "nombres": "JOSE TORIBIO", "comunidad": "LARCACHACA"}, "geometry": null}, {"type": "Feature", "properties": {"fid": 2093, "clave_cata": "1702521010002", "area_predi": 4896.132215546985, "apellidos": "BANCO PROCREDIT S.A.", "nombres": "BANCO PROCREDIT S.A.", "comunidad": "LARCACHACA"}, "geometry": null}, {"type": "Feature", "properties": {"fid": 2094, "clave_cata": "1702521040028", "area_predi": 2791.6604445384874, "apellidos": "IMBAQUINGO FARINANGUILLO", "nombres": "ROGELIO", "comunidad": "LARCACHACA"}, "geometry": null}, {"type": "Feature", "properties": {"fid": 2096, "clave_cata": "1702521040027", "area_predi": 922.3172765004479, "apellidos": "IMBAQUINGO CABASCANGO", "nombres": "BLANCA SUSANA", "comunidad": "LARCACHACA"}, "geometry": null}, {"type": "Feature", "properties": {"fid": 2113, "clave_cata": "1702521040026", "area_predi": 1177.4510209164678, "apellidos": "IMBAQUINGO CABASCANGO", "nombres": "MARIA INES", "comunidad": "LARCACHACA"}, "geometry": null}, {"type": "Feature", "properties": {"fid": 2116, "clave_cata": "1702520680104", "area_predi": 4189.729742830296, "apellidos": "ANDRANGO ASCANTA", "nombres": "JUAN OSWALDO", "comunidad": "SAN ANTONIO NINA RUMI"}, "geometry": null}, {"type": "Feature", "properties": {"fid": 2125, "clave_cata": "1702521040009", "area_predi": 720.5413893838751, "apellidos": "SOPALO TIPANLUISA", "nombres": "MARIA ESTHER", "comunidad": "LARCACHACA"}, "geometry": null}, {"type": "Feature", "properties": {"fid": 2133, "clave_cata": "1702520680082", "area_predi": 5356.770516234871, "apellidos": "PILCA TIPANLUISA", "nombres": "JOSE JOAQUIN", "comunidad": "SAN ANTONIO NINA RUMI"}, "geometry": null}, {"type": "Feature", "properties": {"fid": 2139, "clave_cata": "1702520680079", "area_predi": 11950.18741745078, "apellidos": "PILCA ULCUANGO", "nombres": "MARIA ESTERLIA", "comunidad": "SAN ANTONIO NINA RUMI"}, "geometry": null}, {"type": "Feature", "properties": {"fid": 2144, "clave_cata": "1702520680080", "area_predi": 720.0955119165187, "apellidos": "ANDRANGO ULCUANGO", "nombres": "FATIMA SOLEDAD", "comunidad": "SAN ANTONIO NINA RUMI"}, "geometry": null}, {"type": "Feature", "properties": {"fid": 2151, "clave_cata": "1702520680078", "area_predi": 2480.635229995573, "apellidos": "ULCUANGO LANCHIMBA", "nombres": "MARIA ESTEFA", "comunidad": "SAN ANTONIO NINA RUMI"}, "geometry": null}, {"type": "Feature", "properties": {"fid": 2157, "clave_cata": "1702520540015", "area_predi": 25986.75845754431, "apellidos": "SALAZAR PILCA", "nombres": "DIEGO", "comunidad": "CRUZ LOMA"}, "geometry": null}, {"type": "Feature", "properties": {"fid": 2187, "clave_cata": "1702521020085", "area_predi": 6191.675144599348, "apellidos": "ASCANTA ULCUANGO", "nombres": "LUIS ABEL", "comunidad": "LA LIBERTAD"}, "geometry": null}, {"type": "Feature", "properties": {"fid": 2200, "clave_cata": "1702521020084", "area_predi": 390.4732869240936, "apellidos": "ASCANTA ULCUANGO", "nombres": "SEGUNDO SERGIO", "comunidad": "LA LIBERTAD"}, "geometry": null}, {"type": "Feature", "properties": {"fid": 2201, "clave_cata": "1702520680085", "area_predi": 4106.10624931861, "apellidos": "ULCUANGO ULCUANGO", "nombres": "JOSE", "comunidad": "SAN ANTONIO NINA RUMI"}, "geometry": null}, {"type": "Feature", "properties": {"fid": 2204, "clave_cata": "1702521040002", "area_predi": 9963.529646614332, "apellidos": "IMBAQUINGO FARINANGO", "nombres": "RICARDO", "comunidad": "LARCACHACA"}, "geometry": null}, {"type": "Feature", "properties": {"fid": 2209, "clave_cata": "1702521040001", "area_predi": 3653.1333486062604, "apellidos": "IMBAQUINGO LANCHIMBA", "nombres": "JOSE MANUEL", "comunidad": "LARCACHACA"}, "geometry": null}, {"type": "Feature", "properties": {"fid": 2216, "clave_cata": "1702520680074", "area_predi": 2607.6037332125434, "apellidos": "ULCUANGO LANCHIMBA", "nombres": "MANUEL", "comunidad": "SAN ANTONIO NINA RUMI"}, "geometry": null}, {"type": "Feature", "properties": {"fid": 2219, "clave_cata": "1702520680072", "area_predi": 7313.914373642767, "apellidos": "SALAZAR UMAQUINGA", "nombres": "ROSA CARMEN", "comunidad": "SAN ANTONIO NINA RUMI"}, "geometry": null}, {"type": "Feature", "properties": {"fid": 2241, "clave_cata": "1702520680045", "area_predi": 2399.599944535794, "apellidos": "ASCANTA TIPANLUISA", "nombres": "JUAN MELCHOR", "comunidad": "SAN ANTONIO NINA RUMI"}, "geometry": null}, {"type": "Feature", "properties": {"fid": 2242, "clave_cata": "1702521020080", "area_predi": 8356.03510404671, "apellidos": "LANCHIMBA TANDAYAMO", "nombres": "MARIA MARCELA", "comunidad": "CANGAHUA - ÑAVIPOGYO"}, "geometry": null}, {"type": "Feature", "properties": {"fid": 2244, "clave_cata": "1702520680046", "area_predi": 21135.550128320672, "apellidos": "ULCUANGO QUINATOA", "nombres": "MARIA ASUNCION", "comunidad": "SAN ANTONIO NINA RUMI"}, "geometry": null}, {"type": "Feature", "properties": {"fid": 2246, "clave_cata": "1702520680048", "area_predi": 13942.876801337276, "apellidos": "QUILUMBAQUIN LANCHIMBA", "nombres": "SALVADORA", "comunidad": "SAN ANTONIO NINA RUMI"}, "geometry": null}, {"type": "Feature", "properties": {"fid": 2254, "clave_cata": "1702520680040", "area_predi": 3061.785789262868, "apellidos": "ACERO CUMBAL", "nombres": "MARIA MERCEDES", "comunidad": "SAN ANTONIO NINA RUMI"}, "geometry": null}, {"type": "Feature", "properties": {"fid": 2261, "clave_cata": "1702520680054", "area_predi": 4353.980447550446, "apellidos": "ASERO CHIMARRO", "nombres": "ESTHER MARIA", "comunidad": "SAN ANTONIO NINA RUMI"}, "geometry": null}, {"type": "Feature", "properties": {"fid": 2266, "clave_cata": "1702520530040", "area_predi": 18951.311518552324, "apellidos": "QUINATOA CALUGUILLIN", "nombres": "PASTORA", "comunidad": "CANGAHUA - LIBERTAD SAN PEDRO"}, "geometry": null}, {"type": "Feature", "properties": {"fid": 2268, "clave_cata": "1702520530044", "area_predi": 21972.97237188126, "apellidos": "HEREDEROS DE LANCHIMBA", "nombres": "JOSE CECILIO", "comunidad": "LIBERTAD SAN PEDRO"}, "geometry": null}, {"type": "Feature", "properties": {"fid": 2269, "clave_cata": "1702520530042", "area_predi": 6236.231123217865, "apellidos": "HEREDEROS DE SALAZAR", "nombres": "MERCEDES", "comunidad": "LIBERTAD SAN PEDRO"}, "geometry": null}, {"type": "Feature", "properties": {"fid": 2271, "clave_cata": "1702520530029", "area_predi": 5525.527976238937, "apellidos": "QUINATOA CALUGUILLIN", "nombres": "PASTORA", "comunidad": "LIBERTAD - SAN PEDRO"}, "geometry": null}, {"type": "Feature", "properties": {"fid": 2275, "clave_cata": "1702520680049", "area_predi": 3273.025728427468, "apellidos": "QUINATOA ULCUANGO", "nombres": "JUAN CRUZ", "comunidad": "SAN ANTONIO NINA RUMI"}, "geometry": null}, {"type": "Feature", "properties": {"fid": 2277, "clave_cata": "1702520680050", "area_predi": 4442.584409298031, "apellidos": "ASERO CHIMARRO", "nombres": "LUIS ALBERTO", "comunidad": "SAN ANTONIO NINA RUMI"}, "geometry": null}, {"type": "Feature", "properties": {"fid": 2279, "clave_cata": "1702520680051", "area_predi": 4318.013576166053, "apellidos": "LANCHIMBA ULCUANGO", "nombres": "JOSE TELMO", "comunidad": "SAN ANTONIO NINA RUMI"}, "geometry": null}, {"type": "Feature", "properties": {"fid": 2284, "clave_cata": "1702521040057", "area_predi": 7768.231877525106, "apellidos": "SOPALO LANCHIMBA", "nombres": "MARIA DOLORES", "comunidad": "LARCACHACA-CANGAHUA"}, "geometry": null}, {"type": "Feature", "properties": {"fid": 2285, "clave_cata": "1702521040056", "area_predi": 938.5126205549335, "apellidos": "SOPALO LANCHIMBA", "nombres": "GLADYS YOLANDA", "comunidad": "LARCACHACA"}, "geometry": null}, {"type": "Feature", "properties": {"fid": 2289, "clave_cata": "1702521040055", "area_predi": 1851.4612191921492, "apellidos": "SOPALO UMAQUINGA", "nombres": "JOSE JOAQUIN", "comunidad": "LARCACHACA"}, "geometry": null}, {"type": "Feature", "properties": {"fid": 2315, "clave_cata": "1702521030022", "area_predi": 1500.471018949205, "apellidos": "QUINATOA MALDONADO", "nombres": "GLORIA MARIA", "comunidad": "CHAMBITOLA"}, "geometry": null}, {"type": "Feature", "properties": {"fid": 2318, "clave_cata": "1702521030021", "area_predi": 455.706380853536, "apellidos": "TANDAYAMO IMBAQUINGO", "nombres": "MARIA MERCEDES", "comunidad": "CHAMBITOLA"}, "geometry": null}, {"type": "Feature", "properties": {"fid": 2327, "clave_cata": "1702521040048", "area_predi": 8227.4071367837, "apellidos": "IMBAQUINGO LANCHIMBA", "nombres": "RAFAEL FERNANDO", "comunidad": "LARCACHACA"}, "geometry": null}, {"type": "Feature", "properties": {"fid": 2349, "clave_cata": "1702521040052", "area_predi": 734.0357138969938, "apellidos": "IMBAQUINGO CABASCANGO", "nombres": "BEATRIZ", "comunidad": "LARCACHACA"}, "geometry": null}, {"type": "Feature", "properties": {"fid": 2351, "clave_cata": "1702521040053", "area_predi": 1238.0989278725756, "apellidos": "IMBAQUINGO SOPALO", "nombres": "JOSE CARLOS", "comunidad": "LARCACHACA"}, "geometry": null}, {"type": "Feature", "properties": {"fid": 2352, "clave_cata": "1702521040054", "area_predi": 5869.583429323086, "apellidos": "IMBAQUINGO LANCHIMBA", "nombres": "CARLOS", "comunidad": "LARCACHACA"}, "geometry": null}, {"type": "Feature", "properties": {"fid": 2376, "clave_cata": "1702521010010", "area_predi": 6541.217573384504, "apellidos": "IMBAQUINGO SOPALO", "nombres": "MILTON BYRON", "comunidad": "LARCACHACA"}, "geometry": null}, {"type": "Feature", "properties": {"fid": 2377, "clave_cata": "1702521040032", "area_predi": 1459.0201730584704, "apellidos": "ANDRANGO FARINANGO", "nombres": "ALICIA PASTORA", "comunidad": "CANGAHUA - LARCACHACA"}, "geometry": null}, {"type": "Feature", "properties": {"fid": 2380, "clave_cata": "1702521010009", "area_predi": 6669.331447180418, "apellidos": "IMBAQUINGO SOPALO", "nombres": "MARIA ELIZA", "comunidad": "LARCACHACA"}, "geometry": null}, {"type": "Feature", "properties": {"fid": 2381, "clave_cata": "1702521040034", "area_predi": 3379.3909154915978, "apellidos": "SOPALO SOPALO", "nombres": "SEGUNDO LINO", "comunidad": "LARCACHACA"}, "geometry": null}, {"type": "Feature", "properties": {"fid": 2382, "clave_cata": "1702521010012", "area_predi": 6194.91047214582, "apellidos": "AIGAJE TIPANLUISA", "nombres": "MAGDALENO", "comunidad": "LARCACHACA"}, "geometry": null}, {"type": "Feature", "properties": {"fid": 2386, "clave_cata": "1702521040033", "area_predi": 1708.6582062006223, "apellidos": "SOPALO MALDONADO", "nombres": "JAIME ROBERTO", "comunidad": "LARCACHACA"}, "geometry": null}, {"type": "Feature", "properties": {"fid": 2394, "clave_cata": "1702521010014", "area_predi": 370.21402822787593, "apellidos": "AIGAJE IMBAQUINGO", "nombres": "CLEMENTE LEONARDO", "comunidad": "LARCACHACA"}, "geometry": null}, {"type": "Feature", "properties": {"fid": 2395, "clave_cata": "1702521010013", "area_predi": 5999.325861112437, "apellidos": "SOPALO ACERO", "nombres": "JUAN JOSE", "comunidad": "LARCACHACA"}, "geometry": null}, {"type": "Feature", "properties": {"fid": 2407, "clave_cata": "1702521040037", "area_predi": 7575.621369036972, "apellidos": "IMBAQUINGO SOPALO", "nombres": "SEGUNDO EUGENIO", "comunidad": "LARCACHACA"}, "geometry": null}, {"type": "Feature", "properties": {"fid": 2408, "clave_cata": "1702521040038", "area_predi": 6991.563442675688, "apellidos": "GUALAVISI CAIZA", "nombres": "JOSE MIGUEL", "comunidad": "LARCACHACA"}, "geometry": null}, {"type": "Feature", "properties": {"fid": 2410, "clave_cata": "1702521010008", "area_predi": 6404.328615996551, "apellidos": "MALDONADO SOPALO", "nombres": "BLANCA FANNY", "comunidad": "LARCACHACA"}, "geometry": null}, {"type": "Feature", "properties": {"fid": 2412, "clave_cata": "1702520540019", "area_predi": 4183.71743500152, "apellidos": "MALDONADO UMAQUINGA", "nombres": "MARIA NARCISA", "comunidad": "CRUZ LOMA"}, "geometry": null}, {"type": "Feature", "properties": {"fid": 2419, "clave_cata": "1702521040042", "area_predi": 790.6945731314167, "apellidos": "GUALAVISI IMBAQUINGO", "nombres": "JOSE AGUSTIN", "comunidad": "LARCACHACA"}, "geometry": null}, {"type": "Feature", "properties": {"fid": 2429, "clave_cata": "1702521010003", "area_predi": 9799.079729566762, "apellidos": "SOPALO PILCA", "nombres": "FANNY YOLANDA", "comunidad": "LARCACHACA-CANGAHUA"}, "geometry": null}, {"type": "Feature", "properties": {"fid": 2433, "clave_cata": "1702521010006", "area_predi": 5093.6448816542525, "apellidos": "SOPALO TIPANLUISA", "nombres": "VICENTA", "comunidad": "LARCACHACA"}, "geometry": null}, {"type": "Feature", "properties": {"fid": 2434, "clave_cata": "1702521010007", "area_predi": 4506.474889563009, "apellidos": "IMBAQUINGO ULCUANGO", "nombres": "ERCILIA", "comunidad": "LARCACHACA"}, "geometry": null}, {"type": "Feature", "properties": {"fid": 2436, "clave_cata": "1702520540038", "area_predi": 6354.741093759492, "apellidos": "MALDONADO LANCHIMBA", "nombres": "JOSE CARLOS", "comunidad": "SAN ANTONIO-CRUZ LOMA"}, "geometry": null}, {"type": "Feature", "properties": {"fid": 2446, "clave_cata": "1702520540027", "area_predi": 20893.371848865678, "apellidos": "ULCUANGO IMBAQUINGO", "nombres": "VASILIA", "comunidad": "CRUZ LOMA"}, "geometry": null}, {"type": "Feature", "properties": {"fid": 2448, "clave_cata": "1702520540033", "area_predi": 4283.003369491849, "apellidos": "ASCANTA SOPALO", "nombres": "FRANCISCO", "comunidad": "CALDERA"}, "geometry": null}, {"type": "Feature", "properties": {"fid": 2450, "clave_cata": "1702520540032", "area_predi": 11866.82768735117, "apellidos": "SALAZAR QUINATOA", "nombres": "SEGUNDO RAMON", "comunidad": "CRUZ LOMA"}, "geometry": null}, {"type": "Feature", "properties": {"fid": 2452, "clave_cata": "1702520540031", "area_predi": 10921.155262815933, "apellidos": "SALAZAR QUINATOA", "nombres": "LUIS ENRIQUE", "comunidad": "CRUZ LOMA"}, "geometry": null}, {"type": "Feature", "properties": {"fid": 2457, "clave_cata": "1702521010011", "area_predi": 6238.113638356505, "apellidos": "AIGAJE TIPANLUISA", "nombres": "JUAN FABIAN", "comunidad": "LARCACHACA"}, "geometry": null}, {"type": "Feature", "properties": {"fid": 2460, "clave_cata": "1702520540029", "area_predi": 55757.530232295954, "apellidos": "PILCA LANCHIMBA", "nombres": "SEGUNDO JUAN MARIA", "comunidad": "CALDERA"}, "geometry": null}, {"type": "Feature", "properties": {"fid": 2475, "clave_cata": "1702520680100", "area_predi": 11323.172614862833, "apellidos": "QUINATOA ULCUANGO", "nombres": "TEODORO", "comunidad": "SAN ANTONIO NINA RUMI"}, "geometry": null}, {"type": "Feature", "properties": {"fid": 2480, "clave_cata": "1702520680101", "area_predi": 12819.438736443963, "apellidos": "PILCA ASERO", "nombres": "ROSA MARIA", "comunidad": "SAN ANTONIO NINA RUMI"}, "geometry": null}, {"type": "Feature", "properties": {"fid": 2490, "clave_cata": "1702521040031", "area_predi": 1962.3061116064293, "apellidos": "INGA IMBAQUINGO", "nombres": "SEGUNDO SIMON", "comunidad": "LARCACHACA"}, "geometry": null}, {"type": "Feature", "properties": {"fid": 2537, "clave_cata": "1702521410017", "area_predi": 12684.456498762218, "apellidos": "IMBAQUINGO CHOLANGO", "nombres": "MARIA NICOLASA", "comunidad": "CONDOR LOMA ALTO"}, "geometry": null}, {"type": "Feature", "properties": {"fid": 2540, "clave_cata": "1702520510004", "area_predi": 7345.422096237928, "apellidos": "AIGAJE IMBAQUINGO", "nombres": "MARIA ENCARNACION", "comunidad": "SANTA INES"}, "geometry": null}, {"type": "Feature", "properties": {"fid": 2614, "clave_cata": "1702521410037", "area_predi": 13011.0867799822, "apellidos": "SALAZAR MALDONADO", "nombres": "LORENZO", "comunidad": "CONDOR LOMA ALTO"}, "geometry": null}, {"type": "Feature", "properties": {"fid": 2658, "clave_cata": "1702520510001", "area_predi": 15350.776076171716, "apellidos": "ULCUANGO AIGAJE", "nombres": "SEGUNDO JUAN", "comunidad": "SANTA INES"}, "geometry": null}, {"type": "Feature", "properties": {"fid": 2701, "clave_cata": "1702521380012", "area_predi": 16800.55307546035, "apellidos": "TUTILLO TIPANLUISA", "nombres": "SEGUNDO JESUS", "comunidad": "LAS PORTADAS DE IZACATA"}, "geometry": null}, {"type": "Feature", "properties": {"fid": 2709, "clave_cata": "1702521100024", "area_predi": 10964.841674559608, "apellidos": "QUINATOA ULCUANGO", "nombres": "TEODORO", "comunidad": "LA LIBERTAD"}, "geometry": null}, {"type": "Feature", "properties": {"fid": 2710, "clave_cata": "1702521410029", "area_predi": 10243.252644608066, "apellidos": "MALDONADO LINCANGO", "nombres": "DIEGO FRANCISCO", "comunidad": "CONDOR LOMA BAJO"}, "geometry": null}, {"type": "Feature", "properties": {"fid": 2736, "clave_cata": "1702521050005", "area_predi": 2908.7282810717657, "apellidos": "SOPALO AIGAJE", "nombres": "JOSE MANUEL", "comunidad": "MORAS LARCACHACA"}, "geometry": null}, {"type": "Feature", "properties": {"fid": 2845, "clave_cata": "1702521100026", "area_predi": 7309.585768374917, "apellidos": "QUISHPE SALAZAR", "nombres": "SEGUNDO VINICIO", "comunidad": "LA LIBERTAD-TOTORAS"}, "geometry": null}, {"type": "Feature", "properties": {"fid": 2851, "clave_cata": "1702521100025", "area_predi": 6975.300479450231, "apellidos": "QUISHPE SALAZAR", "nombres": "MARIA SALVADORA", "comunidad": "LA LIBERTAD - TOTORAS"}, "geometry": null}, {"type": "Feature", "properties": {"fid": 2872, "clave_cata": "1702520510049", "area_predi": 824.2552209219491, "apellidos": "ASCANTA AIGAJE", "nombres": "JUAN VICENTE", "comunidad": "SAN ANTONIO DE PAILLACHO"}, "geometry": null}, {"type": "Feature", "properties": {"fid": 2920, "clave_cata": "1702521410007", "area_predi": 10997.522281327718, "apellidos": "LINCANGO MALDONADO", "nombres": "JORGE PATRICIO", "comunidad": "CONDOR LOMA BAJO"}, "geometry": null}, {"type": "Feature", "properties": {"fid": 2926, "clave_cata": "1702521410011", "area_predi": 10813.041526636343, "apellidos": "PILCA CHIQUIMBA", "nombres": "MARIA CARMELA", "comunidad": "CONDOR LOMA BAJO"}, "geometry": null}, {"type": "Feature", "properties": {"fid": 2928, "clave_cata": "1702521410010", "area_predi": 5440.895775647347, "apellidos": "UMAQUINGA TONTAG", "nombres": "MARIA LAURA", "comunidad": "CONDOR LOMA BAJO"}, "geometry": null}, {"type": "Feature", "properties": {"fid": 2960, "clave_cata": "1702521410016", "area_predi": 9869.356660824827, "apellidos": "QUINATOA CALUGUILLIN", "nombres": "PASTORA", "comunidad": "CANGAHUA - CONDOR LOMA BAJO"}, "geometry": null}, {"type": "Feature", "properties": {"fid": 2963, "clave_cata": "1702521040096", "area_predi": 4086.94288990716, "apellidos": "IMBAQUINGO ULCUANGO", "nombres": "CESAR", "comunidad": "LARCACHACA"}, "geometry": null}, {"type": "Feature", "properties": {"fid": 2989, "clave_cata": "1702521010106", "area_predi": 4543.15051446409, "apellidos": "ACERO SALAZAR", "nombres": "JOSE ANDRES", "comunidad": "SAN ANTONIO ÑAVIPOGYO"}, "geometry": null}, {"type": "Feature", "properties": {"fid": 2990, "clave_cata": "1702521010104", "area_predi": 6108.28361482908, "apellidos": "ULCUANGO IMBAQUINGO", "nombres": "MARIA GLADYS", "comunidad": "SAN ANTONIO ÑAVIPOGYO"}, "geometry": null}, {"type": "Feature", "properties": {"fid": 2991, "clave_cata": "1702521010103", "area_predi": 6227.284348485258, "apellidos": "ULCUANGO IMBAQUINGO", "nombres": "JOSE ROBERTO", "comunidad": "SAN ANTONIO ÑAVIPOGYO"}, "geometry": null}, {"type": "Feature", "properties": {"fid": 3084, "clave_cata": "1702520490061", "area_predi": 11608.595638921266, "apellidos": "ULCUANGO TIPANLUIZA", "nombres": "JUAN CRUZ", "comunidad": "CALDERA"}, "geometry": null}, {"type": "Feature", "properties": {"fid": 3086, "clave_cata": "1702520490059", "area_predi": 8717.886946062676, "apellidos": "TANDAYAMO TANDAYAMO", "nombres": "SEGUNDO CARLOS", "comunidad": "CALDERA"}, "geometry": null}, {"type": "Feature", "properties": {"fid": 3090, "clave_cata": "1702521010097", "area_predi": 1011.5364921709701, "apellidos": "IMBAQUINGO SOPALO", "nombres": "SEGUNDO MARCELO", "comunidad": "LARCACHACA"}, "geometry": null}, {"type": "Feature", "properties": {"fid": 3101, "clave_cata": "1702521040017", "area_predi": 3578.570166673579, "apellidos": "ACERO IMBAQUINGO", "nombres": "MARIA DE LOURDES", "comunidad": "LARCACHACA"}, "geometry": null}, {"type": "Feature", "properties": {"fid": 3136, "clave_cata": "1702520570003", "area_predi": 2849.284416475388, "apellidos": "TIPANLUISA AIGAJE", "nombres": "ZOILA REGINA", "comunidad": "MISALOMA"}, "geometry": null}, {"type": "Feature", "properties": {"fid": 3206, "clave_cata": "1702521410025", "area_predi": 10576.148707127753, "apellidos": "MALDONADO LANCHIMBA", "nombres": "AMBROCIO", "comunidad": "LA LIBERTAD"}, "geometry": null}, {"type": "Feature", "properties": {"fid": 3214, "clave_cata": "1702521410028", "area_predi": 11119.674889020325, "apellidos": "AIGAJE MALDONADO", "nombres": "JOSE ATANACIO", "comunidad": "CONDOR LOMA BAJO"}, "geometry": null}, {"type": "Feature", "properties": {"fid": 3216, "clave_cata": "1702521410027", "area_predi": 10737.26582483172, "apellidos": "CHOLANGO AIGAJE", "nombres": "MANUEL", "comunidad": "CONDOR LOMA BAJO"}, "geometry": null}, {"type": "Feature", "properties": {"fid": 3238, "clave_cata": "1702520490073", "area_predi": 27716.206379161904, "apellidos": "ASCANTA ULCUANGO", "nombres": "JOSE", "comunidad": "SAN ANTONIO - CALISTOLOMA"}, "geometry": null}, {"type": "Feature", "properties": {"fid": 3241, "clave_cata": "1702520490068", "area_predi": 14809.829000567832, "apellidos": "ASCANTA MALDONADO", "nombres": "CESAR HUGO", "comunidad": "ISACATA"}, "geometry": null}, {"type": "Feature", "properties": {"fid": 3243, "clave_cata": "1702520490069", "area_predi": 15760.057951167515, "apellidos": "ASCANTA PILLAJO", "nombres": "MELCHOR", "comunidad": "ISACATA"}, "geometry": null}, {"type": "Feature", "properties": {"fid": 3244, "clave_cata": "1702520490070", "area_predi": 26094.50475515537, "apellidos": "QUINATOA ULCUANGO", "nombres": "TOBIAS", "comunidad": "CALIXTO LOMA"}, "geometry": null}, {"type": "Feature", "properties": {"fid": 3245, "clave_cata": "1702520490071", "area_predi": 26320.394469715327, "apellidos": "ASCANTA AIGAJE", "nombres": "TEODORO", "comunidad": "SAN ANTONIO - CALISTOLOMA"}, "geometry": null}, {"type": "Feature", "properties": {"fid": 3246, "clave_cata": "1702521410019", "area_predi": 11455.017881153542, "apellidos": "ACERO SALAZAR", "nombres": "SEGUNDO JUAN CRUZ", "comunidad": "CONDOR LOMA BAJO"}, "geometry": null}, {"type": "Feature", "properties": {"fid": 3285, "clave_cata": "1702521410001", "area_predi": 10457.885799411224, "apellidos": "LANCHIMBA TANDAYAMO", "nombres": "JUAN CRUZ", "comunidad": "CONDOR LOMA BAJO"}, "geometry": null}, {"type": "Feature", "properties": {"fid": 3286, "clave_cata": "1702520490010", "area_predi": 8026.294792618151, "apellidos": "ACERO QUIMBIULCO", "nombres": "MARIA ROSA", "comunidad": "CALDERA"}, "geometry": null}, {"type": "Feature", "properties": {"fid": 3303, "clave_cata": "1702521410004", "area_predi": 12691.273967582725, "apellidos": "LANCHIMBA TANDAYAMO", "nombres": "ASIENCIO", "comunidad": "CONDOR LOMA ALTO"}, "geometry": null}, {"type": "Feature", "properties": {"fid": 3308, "clave_cata": "1702521410003", "area_predi": 12222.136660092565, "apellidos": "ACERO SALAZAR", "nombres": "SEGUNDO JUAN CRUZ", "comunidad": "CONDOR LOMA ALTO"}, "geometry": null}, {"type": "Feature", "properties": {"fid": 3337, "clave_cata": "1702521410024", "area_predi": 10758.174030765178, "apellidos": "ULCUANGO SALAZAR", "nombres": "MARIA ENCARNACION", "comunidad": "CONDOR LOMA BAJO"}, "geometry": null}, {"type": "Feature", "properties": {"fid": 3409, "clave_cata": "1702521050022", "area_predi": 3644.00391938651, "apellidos": "SOPALO TIPANLUISA", "nombres": "MARIA AVELINA", "comunidad": "MORAS LARCACHACA"}, "geometry": null}, {"type": "Feature", "properties": {"fid": 3418, "clave_cata": "1702521050019", "area_predi": 14277.281235763989, "apellidos": "IMBAQUINGO SOPALO", "nombres": "SEGUNDO EUGENIO", "comunidad": "MORAS LARCACHACA"}, "geometry": null}, {"type": "Feature", "properties": {"fid": 3426, "clave_cata": "1702521050021", "area_predi": 3789.9691843729984, "apellidos": "SOPALO TIPANLUISA", "nombres": "ZOILA SARA", "comunidad": "MORAS LARCACHACA"}, "geometry": null}, {"type": "Feature", "properties": {"fid": 3432, "clave_cata": "1702521050020", "area_predi": 3384.3649741127488, "apellidos": "SOPALO TIPANLUISA", "nombres": "ROSA CARMEN", "comunidad": "MORAS LARCACHACA"}, "geometry": null}, {"type": "Feature", "properties": {"fid": 3504, "clave_cata": "1702521050024", "area_predi": 12625.046278381124, "apellidos": "SOPALO TIPANLUISA", "nombres": "FRANCISCO", "comunidad": "MORAS CANDELARIA"}, "geometry": null}, {"type": "Feature", "properties": {"fid": 3514, "clave_cata": "1702521050023", "area_predi": 11584.448874825777, "apellidos": "SOPALO TIPANLUISA", "nombres": "SEGUNDO JOAQUIN", "comunidad": "MORAS CANDELARIA"}, "geometry": null}, {"type": "Feature", "properties": {"fid": 3588, "clave_cata": "1702521450007", "area_predi": 10180.916357063123, "apellidos": "AIGAJE TIPANLUISA", "nombres": "MAGDALENO", "comunidad": "MORAS LARCACHACA"}, "geometry": null}, {"type": "Feature", "properties": {"fid": 3649, "clave_cata": "1702521450010", "area_predi": 2908.765408320007, "apellidos": "BEDOYA LANCHIMBA", "nombres": "SEGUNDO CARLOS", "comunidad": "CANGAHUA - MORAS LARCACHACA"}, "geometry": null}, {"type": "Feature", "properties": {"fid": 3654, "clave_cata": "1702521450006", "area_predi": 10890.920715649836, "apellidos": "QUINATOA CHURACO", "nombres": "VIRGILIO", "comunidad": "MORAS LARCACHACA"}, "geometry": null}, {"type": "Feature", "properties": {"fid": 3655, "clave_cata": "1702521450005", "area_predi": 12464.368117036123, "apellidos": "PILCA TANDAYAMO", "nombres": "ROSA ACSIFIA", "comunidad": "LARCACHACA - MORAS"}, "geometry": null}, {"type": "Feature", "properties": {"fid": 3656, "clave_cata": "1702521450004", "area_predi": 11570.024028895867, "apellidos": "SOPALO ACERO", "nombres": "JUAN JOSE", "comunidad": "MORAS LARCACHACA"}, "geometry": null}, {"type": "Feature", "properties": {"fid": 3710, "clave_cata": "1702521050009", "area_predi": 10588.328896035317, "apellidos": "ACERO ACERO", "nombres": "PETRONA MARIA", "comunidad": "MORAS LARCACHACA"}, "geometry": null}, {"type": "Feature", "properties": {"fid": 3711, "clave_cata": "1702521050006", "area_predi": 2812.116741887386, "apellidos": "SOPALO UMAQUINGA", "nombres": "JOSE JOAQUIN", "comunidad": "MORAS LARCACHACA"}, "geometry": null}, {"type": "Feature", "properties": {"fid": 3712, "clave_cata": "1702521050007", "area_predi": 4561.798780294613, "apellidos": "SOPALO UMAQUINGA", "nombres": "SEGUNDO ESTEBAN", "comunidad": "MORAS LARCACHACA"}, "geometry": null}, {"type": "Feature", "properties": {"fid": 3715, "clave_cata": "1702521050010", "area_predi": 10062.588861095202, "apellidos": "IMBAQUINGO FARINANGUILLO", "nombres": "ROGELIO", "comunidad": "MORAS LARCACHACA"}, "geometry": null}, {"type": "Feature", "properties": {"fid": 3716, "clave_cata": "1702521050011", "area_predi": 9990.288706674695, "apellidos": "SOPALO LANCHIMBA", "nombres": "SEGUNDO JACINTO", "comunidad": "MORAS LARCACHACA"}, "geometry": null}, {"type": "Feature", "properties": {"fid": 3728, "clave_cata": "1702521450017", "area_predi": 6358.238085095951, "apellidos": "GUALAVISI CAIZA", "nombres": "JOSE MIGUEL", "comunidad": "MORAS LARCACHACA"}, "geometry": null}, {"type": "Feature", "properties": {"fid": 3731, "clave_cata": "1702521050013", "area_predi": 9666.804784534672, "apellidos": "SOPALO SOPALO", "nombres": "SEGUNDO LINO", "comunidad": "MORAS LARCACHACA"}, "geometry": null}, {"type": "Feature", "properties": {"fid": 3733, "clave_cata": "1702521050015", "area_predi": 11823.679630573552, "apellidos": "MALDONADO", "nombres": "LUIS RAFAEL", "comunidad": "MORAS LARCACHACA"}, "geometry": null}, {"type": "Feature", "properties": {"fid": 3738, "clave_cata": "1702521050017", "area_predi": 10502.546587370016, "apellidos": "SOPALO LANCHIMBA", "nombres": "GLADYS YOLANDA", "comunidad": "CANGAHUA - MORAS LARCACHACA"}, "geometry": null}, {"type": "Feature", "properties": {"fid": 3809, "clave_cata": "1702521050002", "area_predi": 10583.685767434834, "apellidos": "QUINATOA ULCUANGO", "nombres": "JUAN CARLOS", "comunidad": "LARCACHACA - MORAS"}, "geometry": null}, {"type": "Feature", "properties": {"fid": 3810, "clave_cata": "1702521050001", "area_predi": 12346.045316066766, "apellidos": "IMBAQUINGO FARINANGUILLO", "nombres": "VICENTE", "comunidad": "MORAS LARCACHACA"}, "geometry": null}, {"type": "Feature", "properties": {"fid": 3825, "clave_cata": "1702521470029", "area_predi": 14991.664756382495, "apellidos": "IMBAQUINGO ULCUANGO", "nombres": "CESAR", "comunidad": "MORAS"}, "geometry": null}, {"type": "Feature", "properties": {"fid": 3827, "clave_cata": "1702521470027", "area_predi": 5516.311295257025, "apellidos": "IMBAQUINGO ULCUANGO", "nombres": "CESAR", "comunidad": "MORAS"}, "geometry": null}, {"type": "Feature", "properties": {"fid": 3830, "clave_cata": "1702521470025", "area_predi": 9319.909557317309, "apellidos": "IMBAQUINGO ULCUANGO", "nombres": "CESAR", "comunidad": "MORAS"}, "geometry": null}, {"type": "Feature", "properties": {"fid": 3832, "clave_cata": "1702521470024", "area_predi": 10462.801270388423, "apellidos": "SOPALO IMBAGO", "nombres": "MARIA REGINA", "comunidad": "MORAS"}, "geometry": null}, {"type": "Feature", "properties": {"fid": 3839, "clave_cata": "1702521470028", "area_predi": 10348.236051993032, "apellidos": "IMBAQUINGO ULCUANGO", "nombres": "FERNANDO", "comunidad": "MORAS"}, "geometry": null}, {"type": "Feature", "properties": {"fid": 3850, "clave_cata": "1702521470022", "area_predi": 13168.168326629497, "apellidos": "IMBAQUINGO FARINANGO", "nombres": "RICARDO", "comunidad": "CANGAHUA - MORAS"}, "geometry": null}, {"type": "Feature", "properties": {"fid": 3851, "clave_cata": "1702521470021", "area_predi": 8864.514612732455, "apellidos": "IMBAQUINGO LANCHIMBA", "nombres": "CARLOS", "comunidad": "MORAS"}, "geometry": null}, {"type": "Feature", "properties": {"fid": 3861, "clave_cata": "1702520510059", "area_predi": 891.790164480999, "apellidos": "ULCUANGO QUILUMBAQUIN", "nombres": "JOSE MANUEL", "comunidad": "CANGAHUA - SAN ANTONIO DE CACHIUCU"}, "geometry": null}, {"type": "Feature", "properties": {"fid": 3938, "clave_cata": "1702521100086", "area_predi": 10998.890987384733, "apellidos": "HEREDEROS DE ASCANTA SALAZAR", "nombres": "JOSE MIGUEL", "comunidad": "LA LIBERTAD"}, "geometry": null}, {"type": "Feature", "properties": {"fid": 3941, "clave_cata": "1702521100089", "area_predi": 10363.391423812476, "apellidos": "MALDONADO TIPANLUIZA", "nombres": "ASCIENCIO", "comunidad": "LA LIBERTAD- TOTARA"}, "geometry": null}, {"type": "Feature", "properties": {"fid": 3999, "clave_cata": "1702520510025", "area_predi": 10147.474519428759, "apellidos": "ASCANTA ULCUANGO", "nombres": "JUAN MELCHOR", "comunidad": "SAN VICENTE DE PAILLACHO"}, "geometry": null}, {"type": "Feature", "properties": {"fid": 4000, "clave_cata": "1702520510026", "area_predi": 10648.50977148271, "apellidos": "ASCANTA AIGAJE", "nombres": "JUAN VICENTE", "comunidad": "SAN ANTONIO DE PAILLACHO"}, "geometry": null}, {"type": "Feature", "properties": {"fid": 4001, "clave_cata": "1702520510024", "area_predi": 9643.098639945636, "apellidos": "ASCANTA AIGAJE", "nombres": "JUAN VICENTE", "comunidad": "SAN ANTONIO DE PAILLACHO"}, "geometry": null}, {"type": "Feature", "properties": {"fid": 4005, "clave_cata": "1702520510022", "area_predi": 10186.464215922537, "apellidos": "ULCUANGO ULCUANGO", "nombres": "MARIA ROSALIA", "comunidad": "SAN ANTONIO DE PAILLACHO"}, "geometry": null}, {"type": "Feature", "properties": {"fid": 4011, "clave_cata": "1702521450002", "area_predi": 10650.759853389642, "apellidos": "AIGAJE LANCHIMBA", "nombres": "MARIA CLEMENCIA", "comunidad": "CANGAHUA - MORAS LARCACHACA"}, "geometry": null}, {"type": "Feature", "properties": {"fid": 4012, "clave_cata": "1702520510013", "area_predi": 19094.07943913117, "apellidos": "ULCUANGO ACERO", "nombres": "MARIA NATIVIDAD", "comunidad": "SAN ANTONIO DE PAILLACHO"}, "geometry": null}, {"type": "Feature", "properties": {"fid": 4015, "clave_cata": "1702520510010", "area_predi": 10168.773188847059, "apellidos": "ANDRANGO PILCA", "nombres": "LUIS ALFREDO", "comunidad": "SAN ANTONIO DE PAILLACHO"}, "geometry": null}, {"type": "Feature", "properties": {"fid": 4045, "clave_cata": "1702520510007", "area_predi": 27557.02122648955, "apellidos": "MALDONADO ALBAN", "nombres": "MANUEL ESPIRITU", "comunidad": "LA LIBERTAD - SANTA INES"}, "geometry": null}, {"type": "Feature", "properties": {"fid": 4047, "clave_cata": "1702520510008", "area_predi": 24494.946989083288, "apellidos": "MALDONADO ULCUANGO", "nombres": "CESAR", "comunidad": "SANTA INES"}, "geometry": null}, {"type": "Feature", "properties": {"fid": 4056, "clave_cata": "1702520510005", "area_predi": 17362.073652412953, "apellidos": "MALDONADO TIPANLUIZA", "nombres": "ASCIENCIO", "comunidad": "SANTA INES"}, "geometry": null}, {"type": "Feature", "properties": {"fid": 4093, "clave_cata": "1702520690001", "area_predi": 2542.0808756235324, "apellidos": "SALAZAR QUINATOA", "nombres": "LUIS ENRIQUE", "comunidad": "MULA POTRERO"}, "geometry": null}, {"type": "Feature", "properties": {"fid": 4153, "clave_cata": "1702520510035", "area_predi": 10473.161624421828, "apellidos": "SOPALO SOPALO", "nombres": "MARTINA", "comunidad": "SAN ANTONIO DE PAILLACHO"}, "geometry": null}, {"type": "Feature", "properties": {"fid": 4156, "clave_cata": "1702520510036", "area_predi": 9417.928518205796, "apellidos": "ANDRANGO ASCANTA", "nombres": "SEGUNDO JORGE", "comunidad": "SAN ANTONIO DE PAILLACHO"}, "geometry": null}, {"type": "Feature", "properties": {"fid": 4172, "clave_cata": "1702520510030", "area_predi": 10048.470939987405, "apellidos": "PILCA ULCUANGO", "nombres": "JUAN MANUEL", "comunidad": "SAN ANTONIO DE PAILLACHO"}, "geometry": null}, {"type": "Feature", "properties": {"fid": 4176, "clave_cata": "1702520510031", "area_predi": 9567.609434879692, "apellidos": "ULCUANGO QUINATOA", "nombres": "MARIA JUANA", "comunidad": "SAN ANTONIO DE PAILLACHO"}, "geometry": null}, {"type": "Feature", "properties": {"fid": 4210, "clave_cata": "1702521090034", "area_predi": 7950.356724633603, "apellidos": "QUINATOA UMAQUINGA", "nombres": "FERNANDO", "comunidad": "PARAMO DE MORAS"}, "geometry": null}, {"type": "Feature", "properties": {"fid": 4256, "clave_cata": "1702521100087", "area_predi": 11160.767441524442, "apellidos": "SALAZAR LINCANGO", "nombres": "SEGUNDO RAMON", "comunidad": "LA LIBERTAD"}, "geometry": null}, {"type": "Feature", "properties": {"fid": 4292, "clave_cata": "1702521100079", "area_predi": 5785.675402076095, "apellidos": "SALAZAR QUINATOA", "nombres": "LUIS ENRIQUE", "comunidad": "LA LIBERTAD"}, "geometry": null}, {"type": "Feature", "properties": {"fid": 4303, "clave_cata": "1702521100076", "area_predi": 10971.102370160186, "apellidos": "ACERO MALDONADO", "nombres": "WILLIAN FAUSTO", "comunidad": "LA LIBERTAD"}, "geometry": null}, {"type": "Feature", "properties": {"fid": 4305, "clave_cata": "1702521100075", "area_predi": 10721.857152337858, "apellidos": "MALDONADO ALBAN", "nombres": "CARLOS LORENZO", "comunidad": "LA LIBERTAD"}, "geometry": null}, {"type": "Feature", "properties": {"fid": 4475, "clave_cata": "1702521450069", "area_predi": 5817.834864511856, "apellidos": "SOPALO UMAQUINGA", "nombres": "JOSE JOAQUIN", "comunidad": "GUALIMBURO"}, "geometry": null}, {"type": "Feature", "properties": {"fid": 4482, "clave_cata": "1702521450071", "area_predi": 1975.334206784127, "apellidos": "SOPALO UMAQUINGA", "nombres": "JOSE JOAQUIN", "comunidad": "GUALIMBURO"}, "geometry": null}, {"type": "Feature", "properties": {"fid": 5047, "clave_cata": "1702521050026", "area_predi": 13629.421987519447, "apellidos": "IMBAQUINGO ULCUANGO", "nombres": "ROGELIO", "comunidad": "MORAS LARCACHACA"}, "geometry": null}, {"type": "Feature", "properties": {"fid": 5075, "clave_cata": "1702521450023", "area_predi": 10052.796302733635, "apellidos": "ACERO ACERO", "nombres": "SEGUNDO VIRGILIO", "comunidad": "MORAS LARCACHACA"}, "geometry": null}, {"type": "Feature", "properties": {"fid": 15460, "clave_cata": "1702521540014", "area_predi": 1265056.070421811, "apellidos": "COMUNA SAN ANTONIO", "nombres": null, "comunidad": "SAN ANTONIO PARAMO CHICO"}, "geometry": null}, {"type": "Feature", "properties": {"fid": 15501, "clave_cata": "1702521010118", "area_predi": 7369.197795461365, "apellidos": "LANCHIMBA ULCUANGO", "nombres": "LUIS RAMIRO", "comunidad": "SAN ANTONIO ÑAVIPOGYO"}, "geometry": null}, {"type": "Feature", "properties": {"fid": 15551, "clave_cata": "1702520530051", "area_predi": 10974.803008999916, "apellidos": "MALDONADO ALBAN", "nombres": "MARIA HORTENCIA", "comunidad": "LIBERTAD SAN PEDRO"}, "geometry": null}, {"type": "Feature", "properties": {"fid": 15575, "clave_cata": "1702520700052", "area_predi": 8566.536560477236, "apellidos": "LANCHIMBA QUINATOA", "nombres": "SEGUNDO FERMIN", "comunidad": "COMUNA IZACATA"}, "geometry": null}, {"type": "Feature", "properties": {"fid": 15820, "clave_cata": "1702520530049", "area_predi": 13933.145613488183, "apellidos": "UMAQUINGA ANDRANGO", "nombres": "VIRGILIO", "comunidad": "LIBERTAD SAN PEDRO"}, "geometry": null}, {"type": "Feature", "properties": {"fid": 15865, "clave_cata": "1702520540061", "area_predi": 10857.699558981458, "apellidos": "UMAQUINGA TONTAG", "nombres": "JOSE LINO", "comunidad": "CRUZ LOMA"}, "geometry": null}, {"type": "Feature", "properties": {"fid": 15911, "clave_cata": "1702521010116", "area_predi": 8902.36924485543, "apellidos": "TANDAYAMO TANDAYAMO", "nombres": "SEGUNDO CARLOS", "comunidad": "SAN ANTONIO ÑAVIPOGYO"}, "geometry": null}, {"type": "Feature", "properties": {"fid": 15912, "clave_cata": "1702521010115", "area_predi": 615.6413139618006, "apellidos": "TANDAYAMO ULCUANGO", "nombres": "RAUL PATRICIO", "comunidad": "SAN ANTONIO ÑAVIPOGYO"}, "geometry": null}, {"type": "Feature", "properties": {"fid": 15944, "clave_cata": "1702520510095", "area_predi": 82146.99995017753, "apellidos": "GALLO AGUIRRE", "nombres": "SARA JESSICA", "comunidad": "CARRERA - ISOLOMA"}, "geometry": null}, {"type": "Feature", "properties": {"fid": 15999, "clave_cata": "1702521040134", "area_predi": 11887.031263053854, "apellidos": "IMBAQUINGO SOPALO", "nombres": "MIRIAN PATRICIA", "comunidad": "LARCACHACA"}, "geometry": null}, {"type": "Feature", "properties": {"fid": 16373, "clave_cata": "1702521020102", "area_predi": 6798.167626852144, "apellidos": "LANCHIMBA TANDAYAMO", "nombres": "JUAN CRUZ", "comunidad": "LA LIBERTAD"}, "geometry": null}, {"type": "Feature", "properties": {"fid": 16493, "clave_cata": "1702521030059", "area_predi": 448.7114451895006, "apellidos": "TANDAYAMO IMBAQUINGO", "nombres": "MARIA MERCEDES", "comunidad": "CHAMBITOLA - BUEYPUNGO"}, "geometry": null}, {"type": "Feature", "properties": {"fid": 16873, "clave_cata": "1702521580014", "area_predi": 12362.87392326317, "apellidos": "AULES TUTILLO", "nombres": "ESTEBAN", "comunidad": "COCHAPAMBA - ASC. SAN FRANCISCO"}, "geometry": null}, {"type": "Feature", "properties": {"fid": 16903, "clave_cata": "1702520680119", "area_predi": 632.4089180676956, "apellidos": "PILCA LANCHIMBA", "nombres": "SEGUNDO ENRIQUE", "comunidad": "SAN ANTONIO NINA RUMI"}, "geometry": null}, {"type": "Feature", "properties": {"fid": 17456, "clave_cata": "1702521010121", "area_predi": 2958.501938788079, "apellidos": "ACERO IMBAQUINGO", "nombres": "ANA LUISA", "comunidad": "LARCACHACA"}, "geometry": null}, {"type": "Feature", "properties": {"fid": 17668, "clave_cata": "1702520530064", "area_predi": 2857.5229073955425, "apellidos": "QUINATOA UMAQUINGA", "nombres": "ROSA CARMEN", "comunidad": "LIBERTAD SAN PEDRO"}, "geometry": null}, {"type": "Feature", "properties": {"fid": 17672, "clave_cata": "1702520530061", "area_predi": 2970.025621707651, "apellidos": "QUINATOA UMAQUINGA", "nombres": "JUAN PEDRO", "comunidad": "LIBERTAD SAN PEDRO"}, "geometry": null}, {"type": "Feature", "properties": {"fid": 17678, "clave_cata": "1702521410051", "area_predi": 6340.583338172679, "apellidos": "QUINATOA UMAQUINGA", "nombres": "MARIA ADELA", "comunidad": "CONDOR LOMA ALTO"}, "geometry": null}, {"type": "Feature", "properties": {"fid": 17722, "clave_cata": "1702606901", "area_predi": 3237393.9979700604, "apellidos": null, "nombres": null, "comunidad": null}, "geometry": null}, {"type": "Feature", "properties": {"fid": 17779, "clave_cata": "1702521410054", "area_predi": 4315.200865142972, "apellidos": "ACERO ACERO", "nombres": "SEGUNDO VIRGILIO", "comunidad": "CONDOR LOMA ALTO"}, "geometry": null}, {"type": "Feature", "properties": {"fid": 17996, "clave_cata": "1702521580174", "area_predi": 10214.268386042373, "apellidos": "LANCHIMBA SALAZAR", "nombres": "IRENE BANESA", "comunidad": "COMUNIDAD IZACATA"}, "geometry": null}, {"type": "Feature", "properties": {"fid": 18002, "clave_cata": "1702520530053", "area_predi": 5415.176974257924, "apellidos": "LANCHIMBA TANDAYAMO", "nombres": "NICOLASA", "comunidad": "LIBERTAD SAN PEDRO"}, "geometry": null}, {"type": "Feature", "properties": {"fid": 18003, "clave_cata": "1702520530054", "area_predi": 10598.585093229882, "apellidos": "LANCHIMBA TANDAYAMO", "nombres": "NICOLASA", "comunidad": "LIBERTAD SAN PEDRO"}, "geometry": null}, {"type": "Feature", "properties": {"fid": 18004, "clave_cata": "1702520530055", "area_predi": 5418.461683854301, "apellidos": "LANCHIMBA TANDAYAMO", "nombres": "NICOLASA", "comunidad": "LIBERTAD SAN PEDRO"}, "geometry": null}, {"type": "Feature", "properties": {"fid": 18177, "clave_cata": "1702520700073", "area_predi": 2886.5316379362043, "apellidos": "LANCHIMBA SALAZAR", "nombres": "IRENE BANESA", "comunidad": "IZACATA"}, "geometry": null}, {"type": "Feature", "properties": {"fid": 18623, "clave_cata": "1702521020104", "area_predi": 1336.9950305501732, "apellidos": "QUINATOA ULCUANGO", "nombres": "JOSE TOBIAS", "comunidad": "LA LIBERTAD"}, "geometry": null}, {"type": "Feature", "properties": {"fid": 18871, "clave_cata": "1702521050076", "area_predi": 2767.5153074111277, "apellidos": "LECHON CHICAIZA", "nombres": "SEGUNDO RAFAEL", "comunidad": "MORAS LARCACHACA"}, "geometry": null}, {"type": "Feature", "properties": {"fid": 18872, "clave_cata": "1702521050078", "area_predi": 2607.7705661404957, "apellidos": "LECHON SOPALO", "nombres": "DELIA MARIA", "comunidad": "CANGAHUA - MORAS LARCACHACA"}, "geometry": null}, {"type": "Feature", "properties": {"fid": 18873, "clave_cata": "1702521050077", "area_predi": 2573.564255952051, "apellidos": "LECHON SOPALO", "nombres": "CINTHIA GRACIELA", "comunidad": "CANGAHUA - MORAS LARCACHACA"}, "geometry": null}, {"type": "Feature", "properties": {"fid": 18976, "clave_cata": "1702520540065", "area_predi": 5575.980364489309, "apellidos": "ASCANTA CASCO", "nombres": "JANETH ALEXANDRA", "comunidad": "CRUZ LOMA-LA LIBERTAD -CANGAHUA"}, "geometry": null}, {"type": "Feature", "properties": {"fid": 18977, "clave_cata": "1702520540066", "area_predi": 5490.832840090981, "apellidos": "ASCANTA CASCO", "nombres": "MARIA MERCEDES", "comunidad": "CRUZ LOMA COMUNA LA LIBERTAD CANGAHUA"}, "geometry": null}, {"type": "Feature", "properties": {"fid": 19006, "clave_cata": "1702520510130", "area_predi": 5739.65729587531, "apellidos": "LANCHIMBA QUINATOA", "nombres": "SEGUNDO FERMIN", "comunidad": "COMUNA LA LIBERTAD - SAN PEDRO"}, "geometry": null}, {"type": "Feature", "properties": {"fid": 19008, "clave_cata": "1702520510132", "area_predi": 5742.787072003399, "apellidos": "LANCHIMBA QUINATOA", "nombres": "WILMER ORLANDO", "comunidad": "CANGAHUA - COMUNA LA LIBERTAD - SAN PEDRO"}, "geometry": null}, {"type": "Feature", "properties": {"fid": 19010, "clave_cata": "1702520510134", "area_predi": 999.9779881720697, "apellidos": "LANCHIMBA QUINATOA", "nombres": "FAUSTO IVAN", "comunidad": "COMUNA LA LIBERTAD - SAN PEDRO"}, "geometry": null}, {"type": "Feature", "properties": {"fid": 19518, "clave_cata": "1702520510123", "area_predi": 9952.304249498542, "apellidos": "LANCHIMBA QUINATOA", "nombres": "LUIS RODRIGO", "comunidad": "SANTA INES"}, "geometry": null}, {"type": "Feature", "properties": {"fid": 19539, "clave_cata": "1702521010125", "area_predi": 3859.910789545472, "apellidos": "PILCA LANCHIMBA", "nombres": "JULIA YOLANDA", "comunidad": "CANGAHUA - LARCACHACA"}, "geometry": null}, {"type": "Feature", "properties": {"fid": 19816, "clave_cata": "1702521040143", "area_predi": 4519.0069706692475, "apellidos": "IMBAQUINGO SOPALO", "nombres": "SEGUNDO MARCELO", "comunidad": "LARCACHACA"}, "geometry": null}, {"type": "Feature", "properties": {"fid": 19817, "clave_cata": "1702521040142", "area_predi": 2985.3883147208776, "apellidos": "IMBAQUINGO IMBAQUINGO", "nombres": "EVELINA ELSA", "comunidad": "LARCACHACA"}, "geometry": null}, {"type": "Feature", "properties": {"fid": 19859, "clave_cata": "1702520530065", "area_predi": 2576.765115899808, "apellidos": "ANDRANGO PILLAJO", "nombres": "MARIANO ASIENCIO", "comunidad": "LIBERTAD SAN PEDRO"}, "geometry": null}, {"type": "Feature", "properties": {"fid": 19860, "clave_cata": "1702520530067", "area_predi": 2577.2940541077523, "apellidos": "ANDRANGO PILLAJO", "nombres": "MARIANO ASIENCIO", "comunidad": "LIBERTAD SAN PEDRO"}, "geometry": null}, {"type": "Feature", "properties": {"fid": 19874, "clave_cata": "1702520530070", "area_predi": 5565.00001025341, "apellidos": "ANDRANGO PILLAJO", "nombres": "MARIANO ASIENCIO", "comunidad": "LIBERTAD SAN PEDRO"}, "geometry": null}, {"type": "Feature", "properties": {"fid": 19875, "clave_cata": "1702520530069", "area_predi": 8166.4520961402695, "apellidos": "ANDRANGO TUGULINAGO", "nombres": "MARIA AURORA", "comunidad": "CANGAHUA - SECTOR - LIBERTAD SAN PEDRO"}, "geometry": null}, {"type": "Feature", "properties": {"fid": 19970, "clave_cata": "1702520540063", "area_predi": 9510.035261225008, "apellidos": "ASCANTA ANDRANGO", "nombres": "SEGUNDO MIGUEL", "comunidad": "CALDERA"}, "geometry": null}, {"type": "Feature", "properties": {"fid": 20806, "clave_cata": "1702521410061", "area_predi": 332.7253854598342, "apellidos": "ULCUANGO CHOLANGO", "nombres": "ROSA CRISTINA", "comunidad": "CONDOR LOMA ALTO"}, "geometry": null}, {"type": "Feature", "properties": {"fid": 20854, "clave_cata": "1702521010136", "area_predi": 1933.415204779302, "apellidos": "CAJA COMUNAL CREDICEBOLLITA", "nombres": null, "comunidad": "CANGAHUA - LARCACHACA"}, "geometry": null}, {"type": "Feature", "properties": {"fid": 20980, "clave_cata": "1702520510136", "area_predi": 25927.48907913115, "apellidos": "BURGA FLORES", "nombres": "LUIS ENRIQUE", "comunidad": "CANGAHUA - CARRERA - ISOLOMA"}, "geometry": null}, {"type": "Feature", "properties": {"fid": 21111, "clave_cata": "1702521040153", "area_predi": 1271.145702705353, "apellidos": "IMBAQUINGO TIPANLUISA", "nombres": "RAMON RAMIRO", "comunidad": "LARCACHACA"}, "geometry": null}, {"type": "Feature", "properties": {"fid": 21114, "clave_cata": "1702521010140", "area_predi": 1500.5318210202438, "apellidos": "SOPALO UMAQUINGA", "nombres": "DELIA MERCEDES", "comunidad": "LARCACHACA"}, "geometry": null}, {"type": "Feature", "properties": {"fid": 21255, "clave_cata": "1702521010142", "area_predi": 570.6730935311289, "apellidos": "ACERO IMBAQUINGO", "nombres": "MARIA DE LOURDES", "comunidad": "CANGAHUA - LARCACHACA"}, "geometry": null}, {"type": "Feature", "properties": {"fid": 21256, "clave_cata": "1702521010143", "area_predi": 2503.508043397923, "apellidos": "TIPANLUISA LANCHIMBA", "nombres": "JOSE LINO", "comunidad": "CANGAHUA - LARCACHACA"}, "geometry": null}, {"type": "Feature", "properties": {"fid": 21436, "clave_cata": "1702520540081", "area_predi": 3111.072132360773, "apellidos": "CAIZA TOAPANTA", "nombres": "EDISON PATRICIO", "comunidad": "CANGAHUA - LA LIBERTAD - CRUZ LOMA"}, "geometry": null}, {"type": "Feature", "properties": {"fid": 21439, "clave_cata": "1702520540077", "area_predi": 3000.6801879718396, "apellidos": "CAIZA TOAPANTA", "nombres": "JUAN ROGELIO", "comunidad": "LA LIBERTAD - CRUZ LOMA"}, "geometry": null}, {"type": "Feature", "properties": {"fid": 21441, "clave_cata": "1702520540080", "area_predi": 3000.6890484124124, "apellidos": "REA CAIZA", "nombres": "WASHINGTON LENIN", "comunidad": "CANGAHUA - LA LIBERTAD - CRUZ LOMA"}, "geometry": null}, {"type": "Feature", "properties": {"fid": 21442, "clave_cata": "1702520540078", "area_predi": 3000.690214613874, "apellidos": "CAIZA TOAPANTA", "nombres": "MARIA YOLANDA", "comunidad": "LA LIBERTAD - CRUZ LOMA"}, "geometry": null}, {"type": "Feature", "properties": {"fid": 21475, "clave_cata": "1702521100138", "area_predi": 1774.0189540668187, "apellidos": "CAIZA TOAPANTA", "nombres": "MARIA CELINDA", "comunidad": "LA LIBERTAD"}, "geometry": null}, {"type": "Feature", "properties": {"fid": 21477, "clave_cata": "1702521100140", "area_predi": 1774.0862102931512, "apellidos": "CAIZA TOAPANTA", "nombres": "EDISON PATRICIO", "comunidad": "CANGAHUA - LA LIBERTAD"}, "geometry": null}, {"type": "Feature", "properties": {"fid": 21478, "clave_cata": "1702521100139", "area_predi": 1774.2547658433484, "apellidos": "CAIZA TOAPANTA", "nombres": "JUAN ROGELIO", "comunidad": "LA LIBERTAD"}, "geometry": null}, {"type": "Feature", "properties": {"fid": 21480, "clave_cata": "1702521100141", "area_predi": 1774.085638452002, "apellidos": "REA CAIZA", "nombres": "WASHINGTON LENIN", "comunidad": "CANGAHUA - LA LIBERTAD"}, "geometry": null}, {"type": "Feature", "properties": {"fid": 21531, "clave_cata": "1702520490095", "area_predi": 2523.4861636787036, "apellidos": "TIPANLUISA TUGULINAGO", "nombres": "SEGUNDO JOSE JOAQUIN", "comunidad": "CALDERA"}, "geometry": null}, {"type": "Feature", "properties": {"fid": 21556, "clave_cata": "1702521010145", "area_predi": 1588.415684524809, "apellidos": "IMBAQUINGO SOPALO", "nombres": "MARIA CLEMENCIA", "comunidad": "CANGAHUA - LARCACHACA"}, "geometry": null}, {"type": "Feature", "properties": {"fid": 21558, "clave_cata": "1702521010147", "area_predi": 6100.155560518209, "apellidos": "INGA IMBAQUINGO", "nombres": "GLORIA PIEDAD", "comunidad": "CANGAHUA - LARCACHACA"}, "geometry": null}, {"type": "Feature", "properties": {"fid": 21604, "clave_cata": "1702520690047", "area_predi": 4068.9411676165637, "apellidos": "CAIZA TOAPANTA", "nombres": "JUAN ROGELIO", "comunidad": "LA LIBERTAD -MULA POTRERO"}, "geometry": null}, {"type": "Feature", "properties": {"fid": 21605, "clave_cata": "1702520690050", "area_predi": 8147.9418946716105, "apellidos": "CAIZA TOAPANTA", "nombres": "EDISON PATRICIO", "comunidad": "CANGAHUA -LA LIBERTAD -MULA POTRERO"}, "geometry": null}, {"type": "Feature", "properties": {"fid": 21609, "clave_cata": "1702520690046", "area_predi": 4075.9351094555927, "apellidos": "CAIZA TOAPANTA", "nombres": "MARIA YOLANDA", "comunidad": "LA LIBERTAD -MULA POTRERO"}, "geometry": null}, {"type": "Feature", "properties": {"fid": 21725, "clave_cata": "1702520680129", "area_predi": 10111.238756591918, "apellidos": "ASCANTA AIGAJE", "nombres": "JUAN VICENTE", "comunidad": "SAN ANTONIO NINA RUMI"}, "geometry": null}, {"type": "Feature", "properties": {"fid": 21727, "clave_cata": "1702520680128", "area_predi": 10949.779612177037, "apellidos": "ASCANTA AIGAJE", "nombres": "JUAN VICENTE", "comunidad": "SAN ANTONIO NINA RUMI"}, "geometry": null}, {"type": "Feature", "properties": {"fid": 21770, "clave_cata": "1702520540068", "area_predi": 16433.00041925416, "apellidos": "ASCANTA QUINATOA", "nombres": "OLGA NARCIZA", "comunidad": "LA LIBERTAD-CRUZ LOMA-CANGAHUA"}, "geometry": null}, {"type": "Feature", "properties": {"fid": 21771, "clave_cata": "1702520540069", "area_predi": 4107.938617512531, "apellidos": "ASCANTA QUINATOA", "nombres": "LUIS RAMIRO", "comunidad": "LA LIBERTAD-CRUZ LOMA-CANGAHUA"}, "geometry": null}, {"type": "Feature", "properties": {"fid": 22474, "clave_cata": "1702521040148", "area_predi": 4513.9226588196025, "apellidos": "LECHON CHICAIZA", "nombres": "SEGUNDO RAFAEL", "comunidad": "LARCACHACA"}, "geometry": null}, {"type": "Feature", "properties": {"fid": 22506, "clave_cata": "1702521010127", "area_predi": 695.0859639941441, "apellidos": "MALDONADO", "nombres": "LUIS RAFAEL", "comunidad": "LARCACHACA"}, "geometry": null}, {"type": "Feature", "properties": {"fid": 22507, "clave_cata": "1702521010128", "area_predi": 1259.0028548845917, "apellidos": "MALDONADO", "nombres": "LUIS RAFAEL", "comunidad": "LARCACHACA"}, "geometry": null}, {"type": "Feature", "properties": {"fid": 22508, "clave_cata": "1702521010129", "area_predi": 795.505702913216, "apellidos": "MALDONADO", "nombres": "LUIS RAFAEL", "comunidad": "LARCACHACA"}, "geometry": null}, {"type": "Feature", "properties": {"fid": 22510, "clave_cata": "1702521010126", "area_predi": 996.5538915027284, "apellidos": "MALDONADO SOPALO", "nombres": "ISAURO STALYN", "comunidad": "CANGAHUA - LARCACHACA"}, "geometry": null}, {"type": "Feature", "properties": {"fid": 22539, "clave_cata": "1702521020106", "area_predi": 3073.775763689702, "apellidos": "AIGAJE QUINATOA", "nombres": "SILVIA ESTHELA", "comunidad": "CANGAHUA - LA LIBERTAD"}, "geometry": null}, {"type": "Feature", "properties": {"fid": 22602, "clave_cata": "1702521010131", "area_predi": 2376.1131585446506, "apellidos": "AIGAJE LANCHIMBA", "nombres": "JUAN RODRIGO", "comunidad": "CANGAHUA - LARCACHACA"}, "geometry": null}, {"type": "Feature", "properties": {"fid": 22861, "clave_cata": "1702521410063", "area_predi": 7245.912185258981, "apellidos": "SALAZAR MALDONADO", "nombres": "LUZ MARIA", "comunidad": "CONDOR LOMA BAJO"}, "geometry": null}, {"type": "Feature", "properties": {"fid": 22862, "clave_cata": "1702520530072", "area_predi": 13586.678409042692, "apellidos": "SALAZAR MALDONADO", "nombres": "LUZ MARIA", "comunidad": "LIBERTAD SAN PEDRO"}, "geometry": null}, {"type": "Feature", "properties": {"fid": 23345, "clave_cata": "1702521020113", "area_predi": 6060.33425426477, "apellidos": "MALDONADO TIPANLUIZA", "nombres": "CLARA", "comunidad": "CANGAHUA - LA LIBERTAD"}, "geometry": null}, {"type": "Feature", "properties": {"fid": 23357, "clave_cata": "1702521020112", "area_predi": 3082.587520140961, "apellidos": "MALDONADO TIPANLUIZA", "nombres": "ASCIENCIO", "comunidad": "LA LIBERTAD"}, "geometry": null}, {"type": "Feature", "properties": {"fid": 24264, "clave_cata": "1702521100148", "area_predi": 645.2147805092384, "apellidos": "IMBAQUINGO SOPALO", "nombres": "JOSE MIGUEL", "comunidad": "LA LIBERTAD"}, "geometry": null}, {"type": "Feature", "properties": {"fid": 24319, "clave_cata": "1702521040167", "area_predi": 1306.1713804430508, "apellidos": "TIPANLUISA SOPALO", "nombres": "JOSE LINO", "comunidad": "LARCACHACA"}, "geometry": null}, {"type": "Feature", "properties": {"fid": 24321, "clave_cata": "1702521450106", "area_predi": 925.6355535110224, "apellidos": "TIPANLUISA SOPALO", "nombres": "JOSE LINO", "comunidad": "CANGAHUA - MORAS LARCACHACA"}, "geometry": null}]}