{"type": "FeatureCollection", "features": [{"type": "Feature", "properties": {"fid": 1, "nombre": "CAYAMBE", "cod_catast": "170250", "area_ha": 4038.00357741, "area_km2": 40.3800357741}, "geometry": null}, {"type": "Feature", "properties": {"fid": 2, "nombre": "SANTA ROSA DE CUZUBAMBA", "cod_catast": "170255", "area_ha": 2289.95355272, "area_km2": 22.8995355272}, "geometry": null}, {"type": "Feature", "properties": {"fid": 3, "nombre": "ASCAZUBI", "cod_catast": "170251", "area_ha": 3462.12641109, "area_km2": 34.6212641109}, "geometry": null}, {"type": "Feature", "properties": {"fid": 4, "nombre": "CANGAHUA", "cod_catast": "170252", "area_ha": 33502.80986500001, "area_km2": 335.02809865}, "geometry": null}, {"type": "Feature", "properties": {"fid": 5, "nombre": "JUAN MONTALVO", "cod_catast": "170203", "area_ha": 21399.0692733, "area_km2": 213.990692733}, "geometry": null}, {"type": "Feature", "properties": {"fid": 6, "nombre": "OTON", "cod_catast": "170254", "area_ha": 2331.89501941, "area_km2": 23.3189501941}, "geometry": null}, {"type": "Feature", "properties": {"fid": 7, "nombre": "OLMEDO (PESILLO)", "cod_catast": "170253", "area_ha": 39849.3116821, "area_km2": 398.493116821}, "geometry": null}, {"type": "Feature", "properties": {"fid": 8, "nombre": "SAN JOSE DE AYORA", "cod_catast": "170256", "area_ha": 13145.1412229, "area_km2": 131.451412229}, "geometry": null}]}