{"type": "FeatureCollection", "features": [{"type": "Feature", "properties": {"id": 1, "Nom": "Guanguilqu", "longitud": 41532.2494677}, "geometry": {"type": "MultiLineString", "coordinates": [[[-78.1237949, -0.1237577], [-78.1241084, -0.1203945], [-78.1224318, -0.1163288], [-78.120342, -0.1135424], [-78.1183915, -0.1111739], [-78.1178342, -0.1071337], [-78.1182522, -0.1044866], [-78.1182522, -0.1023968], [-78.1171376, -0.1004463], [-78.1165804, -0.0991925], [-78.117277, -0.0983566], [-78.1181129, -0.0983566], [-78.1188095, -0.0994711], [-78.119924, -0.1011429], [-78.1210386, -0.1021182], [-78.1224318, -0.1033721], [-78.1224318, -0.1025361], [-78.1215959, -0.1017002], [-78.1215959, -0.1004463], [-78.123825, -0.100307], [-78.1263327, -0.1005857], [-78.1281439, -0.1001677], [-78.1300944, -0.1001677], [-78.1309303, -0.1017002], [-78.1317662, -0.1023968], [-78.132253, -0.1033691], [-78.1328808, -0.1046259], [-78.1332967, -0.1065222], [-78.132879, -0.1075732], [-78.1314876, -0.1104773], [-78.1307907, -0.1116719], [-78.1303729, -0.113984], [-78.1305815, -0.1152453], [-78.131417, -0.1118821], [-78.133192, -0.1097803], [-78.1344133, -0.1062978], [-78.1338621, -0.1030508], [-78.1337178, -0.1025343], [-78.1336818, -0.1023447], [-78.1335135, -0.1018767], [-78.1334895, -0.1016225], [-78.1333773, -0.1013139], [-78.1331389, -0.1009931], [-78.1330457, -0.1006562], [-78.1327414, -0.100307], [-78.1324327, -0.1000227], [-78.1322603, -0.0998936], [-78.1322203, -0.0996879], [-78.1323045, -0.0995467], [-78.1324622, -0.0994804], [-78.1327633, -0.0995417], [-78.1330699, -0.099689], [-78.133665, -0.1000138], [-78.1338613, -0.1002115], [-78.1339229, -0.1002402], [-78.1339926, -0.1002468], [-78.1340957, -0.1002498], [-78.1341599, -0.1002014], [-78.1344294, -0.0998464], [-78.1346639, -0.0994954], [-78.1348142, -0.0993764], [-78.1349144, -0.0992715], [-78.1350236, -0.0992125], [-78.1351268, -0.0991707], [-78.1353432, -0.0991707], [-78.1355566, -0.0992171], [-78.135793, -0.0993422], [-78.1359533, -0.0995117], [-78.136921, -0.1005857], [-78.1370604, -0.1021182], [-78.1364289, -0.1040001], [-78.1367817, -0.1046259], [-78.1370604, -0.1060191], [-78.1380356, -0.1056012], [-78.1394288, -0.1056012], [-78.1401254, -0.1056012], [-78.1408134, -0.1058923], [-78.1417972, -0.1069944], [-78.1427725, -0.106855], [-78.1430511, -0.1061584], [-78.1434691, -0.1061584], [-78.1441657, -0.1062978], [-78.1448623, -0.1057405], [-78.1456982, -0.1051832], [-78.1462555, -0.1046259], [-78.1463948, -0.104208], [-78.1468476, -0.1037204], [-78.1473352, -0.1036507], [-78.1478228, -0.1036507], [-78.1480318, -0.1033024], [-78.1485891, -0.1024665], [-78.1489374, -0.1021182], [-78.1495643, -0.1021182], [-78.1500519, -0.1025361], [-78.1508359, -0.102635], [-78.1515148, -0.1023272], [-78.15249, -0.1019789], [-78.1532563, -0.1013519], [-78.1536742, -0.1008643], [-78.1539529, -0.1008643], [-78.1545798, -0.1007946], [-78.1548163, -0.100218], [-78.1552067, -0.0994015], [-78.1554157, -0.0989138], [-78.155555, -0.0988442], [-78.155764, -0.0988442], [-78.1559033, -0.0991228], [-78.1565303, -0.0993318], [-78.1566696, -0.0991228], [-78.1567393, -0.0986352], [-78.1568786, -0.09766], [-78.1568786, -0.0973117], [-78.1568786, -0.0967544], [-78.1569482, -0.0965454], [-78.1572269, -0.0964061], [-78.1574359, -0.0960578], [-78.1575752, -0.0960578], [-78.1579235, -0.0961274], [-78.1583414, -0.0964061], [-78.1595953, -0.0965454], [-78.1602919, -0.0965454], [-78.1604312, -0.0965454], [-78.1616851, -0.0965454], [-78.1622424, -0.0966847], [-78.1623817, -0.096824], [-78.1627997, -0.097033], [-78.1632176, -0.0973117], [-78.1634266, -0.0971723], [-78.1635659, -0.0971027], [-78.1641232, -0.0971027], [-78.1644018, -0.0978689], [-78.1650984, -0.0980779], [-78.1659343, -0.0981476], [-78.1673972, -0.0983566], [-78.1685118, -0.0984262], [-78.169278, -0.0986352], [-78.1698353, -0.0987049], [-78.1704622, -0.0982172], [-78.1711588, -0.0977993], [-78.1714375, -0.0977296], [-78.1717858, -0.0977296], [-78.1719251, -0.0981476], [-78.1720644, -0.0984262], [-78.1722734, -0.0987745], [-78.172552, -0.0986352], [-78.17297, -0.0985655], [-78.1737362, -0.0980779], [-78.1745722, -0.09766], [-78.1757564, -0.09766], [-78.1769406, -0.097242], [-78.1774282, -0.0973117], [-78.1774979, -0.0975903], [-78.1775675, -0.0980779], [-78.1779855, -0.0987745], [-78.1786821, -0.0995408], [-78.1793787, -0.0998891], [-78.1797789, -0.1000288], [-78.1795877, -0.0988442], [-78.1798663, -0.0982869], [-78.1800056, -0.0977296], [-78.1800056, -0.0973813], [-78.180145, -0.0971027], [-78.1807719, -0.0965454], [-78.1813292, -0.0962668], [-78.1814685, -0.0965454], [-78.1819561, -0.0965454], [-78.1824437, -0.0966151], [-78.1828279, -0.0965316], [-78.1820954, -0.0957791], [-78.1817645, -0.095104], [-78.1819064, -0.0937478], [-78.1823319, -0.0931055], [-78.1818168, -0.0926445], [-78.1811975, -0.0925343], [-78.1798663, -0.0915996], [-78.1789289, -0.0906784], [-78.1777069, -0.0896491], [-78.1772889, -0.0882559], [-78.1770858, -0.0868952], [-78.1769406, -0.0858875], [-78.1770859, -0.0850394], [-78.1779158, -0.0840763], [-78.1781248, -0.0835887], [-78.1784332, -0.0828982], [-78.1791423, -0.0814707], [-78.1804894, -0.0806857], [-78.1811898, -0.0811506], [-78.1816078, -0.0814292], [-78.1822347, -0.0815686], [-78.182792, -0.0817079], [-78.1836279, -0.0824741], [-78.1839279, -0.0827559], [-78.1843245, -0.0836584], [-78.1859267, -0.084146], [-78.186902, -0.0843549], [-78.1878772, -0.0843549], [-78.1889221, -0.0844943], [-78.1894794, -0.083937], [-78.189549, -0.0835887], [-78.189549, -0.0829618], [-78.190176, -0.0829618], [-78.1908726, -0.0829618], [-78.1903849, -0.0825438], [-78.1900366, -0.0821258], [-78.1889917, -0.0817079], [-78.1880165, -0.0813596], [-78.1871806, -0.0810113], [-78.1870413, -0.0810113], [-78.1865537, -0.0801057], [-78.186484, -0.0788518], [-78.186066, -0.077598], [-78.1855784, -0.07718], [-78.186066, -0.0769014], [-78.1868323, -0.0763441], [-78.1870413, -0.0756475], [-78.1880165, -0.0752992], [-78.1889917, -0.0751599], [-78.1901063, -0.0743936], [-78.1910119, -0.0736273], [-78.1916388, -0.0729308], [-78.1921961, -0.0729308], [-78.1922658, -0.0724431], [-78.1926141, -0.0720252], [-78.1925444, -0.0714679], [-78.1919175, -0.0712589], [-78.1912209, -0.0709106], [-78.1910815, -0.0694478], [-78.1904546, -0.0688208], [-78.190176, -0.0679152], [-78.1910119, -0.0674973], [-78.1919175, -0.0670097], [-78.1929624, -0.0664524], [-78.1942804, -0.0662683], [-78.1949825, -0.0662434], [-78.1951915, -0.0649895], [-78.1948432, -0.0638053], [-78.1939376, -0.0615065], [-78.19358, -0.061115], [-78.193357, -0.0608689], [-78.1931357, -0.0605361], [-78.1929449, -0.0603519], [-78.1926543, -0.0601138], [-78.1921264, -0.0598347], [-78.1911612, -0.0584165], [-78.1911512, -0.0576753], [-78.1918478, -0.0572573], [-78.1924051, -0.0574663], [-78.19345, -0.0578146], [-78.1941466, -0.0580932], [-78.1952611, -0.0579539], [-78.196097, -0.0574663], [-78.1970026, -0.057327], [-78.1973509, -0.057327], [-78.1979082, -0.0566304], [-78.1985351, -0.0563517], [-78.200207, -0.0559338], [-78.200416, -0.0559338], [-78.2010429, -0.0560034], [-78.2017395, -0.0554461], [-78.2026451, -0.0546799], [-78.2029237, -0.0541226], [-78.2027844, -0.0532867], [-78.2027844, -0.0527294], [-78.2031327, -0.0522418], [-78.2035506, -0.0518238], [-78.2043866, -0.0517542], [-78.2052921, -0.0514059], [-78.2059191, -0.0509879], [-78.206964, -0.049734], [-78.206964, -0.0491071], [-78.2073123, -0.0487588], [-78.2084268, -0.0489678], [-78.2091234, -0.0487588], [-78.2097504, -0.0502913], [-78.2103773, -0.053635], [-78.2103077, -0.0557944], [-78.2099594, -0.0579539], [-78.210029, -0.0585112], [-78.210029, -0.0587202], [-78.2103773, -0.0585808], [-78.2106559, -0.0584415], [-78.2108649, -0.0585112], [-78.2112829, -0.0592078], [-78.2113525, -0.0594168], [-78.2119098, -0.0587898], [-78.2126064, -0.0570483], [-78.213512, -0.056491], [-78.2138603, -0.0555158], [-78.2145569, -0.0546799], [-78.2152535, -0.053844], [-78.2157411, -0.0534957], [-78.2161591, -0.0523115], [-78.216786, -0.0519632], [-78.217204, -0.0511969], [-78.2178309, -0.0507789], [-78.2182489, -0.0507789], [-78.2183882, -0.0516149], [-78.2178309, -0.0530777], [-78.2175523, -0.053844], [-78.2176219, -0.0548889], [-78.217204, -0.0562124], [-78.217204, -0.0574663], [-78.217204, -0.0580236], [-78.217413, -0.0589988], [-78.2180399, -0.0578842], [-78.2188061, -0.0569787], [-78.2195027, -0.0559338], [-78.220478, -0.0554461], [-78.2214532, -0.0550978], [-78.2219408, -0.0546799], [-78.2227768, -0.0541923], [-78.2234734, -0.0533564], [-78.2241003, -0.0533564], [-78.2250059, -0.0519632], [-78.2257721, -0.0513362], [-78.2271653, -0.0509879], [-78.2277923, -0.0513362], [-78.2284192, -0.0518935], [-78.2290461, -0.0522418], [-78.2293248, -0.0527294], [-78.2293248, -0.0532867], [-78.2305787, -0.0532867], [-78.2320415, -0.0530081], [-78.2332954, -0.0523811], [-78.2343403, -0.0519632], [-78.2354548, -0.0521025], [-78.2362211, -0.0525901], [-78.2360818, -0.0535653], [-78.2348279, -0.0555158], [-78.234201, -0.0568393], [-78.2334347, -0.0574663], [-78.2365694, -0.056909], [-78.2378929, -0.0565607], [-78.2388682, -0.0566304], [-78.2393558, -0.0571876], [-78.2400524, -0.0584415], [-78.2401917, -0.0595561], [-78.2413063, -0.059974], [-78.2428388, -0.059974], [-78.2431871, -0.0604617], [-78.2431871, -0.0612976], [-78.2430478, -0.0623425], [-78.2430478, -0.0628301], [-78.2434657, -0.0635267], [-78.244441, -0.063875], [-78.2461128, -0.0642929], [-78.2477846, -0.0645019], [-78.2484116, -0.0650592], [-78.2487599, -0.0659648], [-78.2486902, -0.0670097], [-78.2486205, -0.0675669], [-78.2490385, -0.0693781], [-78.2491082, -0.0704927], [-78.2493868, -0.0711196], [-78.2502924, -0.0715376], [-78.2513373, -0.0719555], [-78.2528698, -0.0719555], [-78.2544023, -0.0723735], [-78.2559348, -0.0723038], [-78.2571887, -0.0723038], [-78.2583033, -0.0727914], [-78.2594178, -0.0733487], [-78.2606717, -0.0742543], [-78.2622042, -0.0750902], [-78.2624132, -0.0758565], [-78.2622042, -0.0764834], [-78.26102, -0.076762], [-78.2594178, -0.0766924], [-78.2580943, -0.076762], [-78.2580246, -0.07718], [-78.2581639, -0.0781552], [-78.2593482, -0.0787822], [-78.260602, -0.0791305], [-78.2612986, -0.0796181], [-78.2615773, -0.080245], [-78.2617166, -0.080872], [-78.2631098, -0.0809416], [-78.264294, -0.0812203], [-78.264294, -0.0819169], [-78.2633884, -0.0826135], [-78.2623435, -0.0831011], [-78.261438, -0.0840763], [-78.261438, -0.0847032], [-78.2620649, -0.0852605], [-78.2629008, -0.0853998], [-78.2646423, -0.0853998], [-78.2653389, -0.0859571], [-78.2654086, -0.0865841]]]}}]}